Canyon 2
1 03889U 69036A   22058.58164633 0.00000000  00000-0  00000-0 0    08
2 03889  10.3920  54.5705 0924613 151.8146 208.1854  1.00414653    04
Rhyolite 1
1 04418U 70046A   21151.91249899 0.00000000  00000-0  00000-0 0    08
2 04418   2.4659 282.9236 0010125 170.3685 189.6626  1.00263758    06
Canyon 6
1 07963U 75055A   20019.44661353 0.00000000  00000-0  00000-0 0    04
2 07963  16.1777 292.0988 1364095 349.2540   8.1103  1.00297580    04
DSP F7 Cover
1 09856U 77007D   14115.47134620 0.00000000  00000-0  00000-0 0    01
2 09856  12.3628 324.0873 0234341 358.7278   1.2255  1.00592841    01
Rhyolite 3
1 10508U 77114A   25049.44258550 0.00000000  00000-0  00000-0 0    00
2 10508  11.3041 282.2567 0021744 345.9262  14.0252  1.00249735    02
Vortex 1
1 10941U 78058A   25165.24350395 0.00000000  00000-0  00000-0 0    06
2 10941  10.2070  19.0311 1518670  57.6947 302.3053  1.00106359    09
Ekran 5
1 11890U 80060A   20150.21996275 0.00000000  00000-0  00000-0 0    05
2 11890  10.7242 309.6291 0010946 141.9721 218.1173  1.00277198    00
Vortex 6
1 19976U 89035A   22235.84347697 0.00000000  00000-0  00000-0 0    02
2 19976   7.7980   6.4532 0944087 317.3107  35.7262  1.00270000    04
SDS 2-2
1 20963U 90097B   22058.65362887 0.00000000  00000-0  00000-0 0    00
2 20963  15.6557 347.2999 0011711 240.1320 119.7636  0.98581418    04
USA 89 r
1 22519U 92086C   26177.90347053 0.00001785  00000-0  23743-3 0    04
2 22519  56.9204  90.8468 3006852 252.8513 107.0719  9.20203909    01
Trumpet 1
1 23097U 94026A   25165.93580718 0.00000000  00000-0  00000-0 0    05
2 23097  62.5802 180.5554 6629601 263.8032  96.1975  2.00604814    00
Mercury 1
1 23223U 94054A   25093.39197103 0.00000000  00000-0  00000-0 0    09
2 23223  13.1261  13.4918 0028888  75.0452 285.2981  1.00270000    06
Mentor 1
1 23567U 95022A   21017.39608889 0.00000000  00000-0  00000-0 0    06
2 23567  15.0919  25.6748 0031938  88.7635 271.6209  1.00270000    00
Trumpet 2
1 23609U 95034A   25165.75720220 0.00000000  00000-0  00000-0 0    08
2 23609  63.2462 151.4213 6734122 272.0521  18.1212  2.00591770    02
Mercury 2
1 23855U 96026A   25093.29630790 0.00000000  00000-0  00000-0 0    04
2 23855   8.1336 353.2659 0334621 300.1447  56.3921  1.00270000    03
NOSS 2-3 (D)
1 23862U 96029D   22297.65721194 0.00000000  00000-0  00000-0 0    07
2 23862  63.3113 163.3626 3398152 268.6168  91.3832  5.52856044    00
Trumpet 3
1 25034U 97068A   25093.47239927 0.00000000  00000-0  00000-0 0    09
2 25034  64.6844 344.4956 6439229 271.7692  20.9108  2.00608404    06
Mentor 2
1 25336U 98029A   25093.51873396 0.00000000  00000-0  00000-0 0    01
2 25336   7.4121 352.7222 0038874 315.2961  44.2800  1.00270000    04
USA 144 Deb
1 25746U 99028C   26200.88435172 0.00000000  00000-0  00000-0 0    03
2 25746  63.4359 102.9437 0280910 303.6938  56.3062  9.70083779    06
SDS 3-1
1 26635U 00080A   21013.46269075 0.00000000  00000-0  00000-0 0    09
2 26635   9.2857  29.8038 0014383 186.3086 173.6859  1.00273100    09
Sicral 1
1 26694U 01005A   25093.57857635 0.00000000  00000-0  00000-0 0    01
2 26694  11.5272  33.4527 0008502 146.4402 213.6258  0.98739767    00
GeoLITE
1 26770U 01020A   20185.07413062 0.00000000  00000-0  00000-0 0    07
2 26770   7.9176  43.1250 0016202  49.2544 310.8983  0.98833351    00
NOSS 3-1 (A)
1 26905U 01040A   26219.86449315 0.00000000  00000-0  00000-0 0    00
2 26905  63.3691 115.8316 0672021  13.1964 346.8036 13.41667698    00
NOSS 3-1 (C)
1 26907U 01040C   26219.84323025 0.00000600  00000-0  27679-3 0    09
2 26907  63.3647 102.4104 0664834  13.7311 346.2688 13.42373489    05
SDS 3-2
1 26948U 01046A   24121.83638540 0.00000000  00000-0  00000-0 0    00
2 26948  12.9159  33.2875 0003624 194.0815 165.9197  1.00270000    07
Mentor 3
1 27937U 03041A   22262.94247685 0.00000000  00000-0  00000-0 0    08
2 27937  12.7487  46.2015 0040448 219.0091 140.5682  1.00270000    05
NOSS 3-2 (A)
1 28095U 03054A   26244.12302762 0.00000000  00000-0  00000-0 0    00
2 28095  63.4041 337.2438 0577984  10.0042 349.9957 13.42084996    03
NOSS 3-2 (C)
1 28097U 03054C   26200.88548167 0.00000100  00000-0  61656-4 0    07
2 28097  63.3830 102.9926 0598047   7.4886 352.5114 13.41314769    06
USA 179
1 28384U 04034A   25049.82708287 0.00000000  00000-0  00000-0 0    01
2 28384  63.9236 276.3532 7375911 259.8969  17.5110  2.00643157    08
NOSS 3-3 (A)
1 28537U 05004A   26244.90047860 0.00000000  00000-0  00000-0 0    09
2 28537  63.3938 228.8633 0565010   5.1376 354.8624 13.41279753    04
NOSS 3-3 (C)
1 28541U 05004C   26244.89356515 0.00000000  00000-0  00000-0 0    02
2 28541  63.4002 231.7942 0561733   4.5002 355.4998 13.40702833    05
USA 184
1 29249U 06027A   25061.43605570 0.00000030  00000-0  00000-0 0    01
2 29249  63.5688 295.0503 7092995 274.1647  14.7875  2.00618127    09
SAR Lupe 1
1 29658U 06060A   26035.74231395 0.00009000  00000-0  32939-3 0    03
2 29658  98.1229  55.9127 0002418 310.4652  49.5346 15.28073507    07
NOSS 3-4 (A)
1 31701U 07027A   26243.82157146 0.00000000  00000-0  00000-0 0    02
2 31701  63.3660 132.1121 0454668  25.4330 334.5670 13.40998357    06
NOSS 3-4 (C)
1 31708U 07027C   26243.82166218 0.00000000  00000-0  00000-0 0    09
2 31708  63.3733 132.3129 0464020  24.7298 335.2702 13.40998912    03
DSP F23
1 32287U 07054A   25093.52343140 0.00000000  00000-0  00000-0 0    02
2 32287   9.9116  52.0518 0006031 173.3270 186.6931  1.00340964    05
SDS 3F5
1 32378U 07060A   25165.82553699 0.00000000  00000-0  00000-0 0    05
2 32378  63.9520 169.3856 7029490 266.5714  93.4286  2.00596936    02
TecSar
1 32476U 08002A   25290.40158491 0.00001300  00000-0  37535-3 0    05
2 32476  40.0396   3.5722 0012000 106.5973 253.9794 14.43910288    08
USA 200
1 32706U 08010A   25093.58670192 0.00000000  00000-0  00000-0 0    07
2 32706  63.6449  14.3526 7200177 268.6605  15.7709  2.00636144    05
SAR Lupe 4
1 32750U 08014A   26035.75259379 0.00007000  00000-0  25550-3 0    03
2 32750  98.1305  55.7157 0002972 192.8840 167.1158 15.28161042    06
SAR Lupe 5
1 33244U 08036A   24239.86760012 0.00028000  00000-0  85149-3 0    06
2 33244  98.1202 342.4152 0003147  93.0747 266.9252 15.34052506    09
Mentor 4
1 33490U 09001A   25358.71146050 0.00000000  00000-0  00000-0 0    09
2 33490   8.5832  33.5907 0005169 251.2747 108.6911  1.00270000    09
Sicral 1B
1 34810U 09020A   26118.58802400 0.00000000  00000-0  00000-0 0    05
2 34810   3.0809  80.0043 0003222 250.4250 109.5484  1.00270000    01
PAN
1 35815U 09047A   25093.83785948 0.00000000  00000-0  00000-0 0    06
2 35815   0.1323 155.1999 0013141 221.9118 138.0437  1.00263576    02
STSS Demo 1
1 35937U 09052A   26244.09598734 0.00000000  00000-0  00000-0 0    09
2 35937  57.9854 253.5697 0012142 214.8160 145.1260 12.83581083    04
STSS Demo 2
1 35938U 09052B   26188.90849281 0.00000000  00000-0  00000-0 0    03
2 35938  57.9843 117.2440 0018250 235.6911 124.3089 12.74868627    06
IGS 5A
1 36104U 09066A   26048.21200796 0.00005000  00000-0  35402-3 0    07
2 36104  97.3865  48.8222 0002037 130.0450 229.9548 15.04891149    06
Helios 2B r
1 36125U 09073B   26243.92283215 0.00000400  00000-0  52813-4 0    05
2 36125  98.0198 339.1810 0023072 295.6535  64.3464 14.79920846    05
FIA Radar 1
1 37162U 10046A   26223.11926150 0.00000000  00000-0  00000-0 0    03
2 37162 123.0058 106.8279 0006023  65.6763 294.3237 13.41433874    05
STPSat 2
1 37222U 10062A   26195.91457206 0.00000100  00000-0  12492-4 0    08
2 37222  71.9600 101.0342 0021410  53.3403 306.6597 14.82146645    05
STPSat 2 r
1 37228U 10062G   26239.09587947 0.00000600  00000-0  71351-4 0    02
2 37228  71.9694 350.5416 0015168 348.4365  11.5634 14.84270515    05
STPSat 2 HAPS
1 37229U 10062H   26233.08265551 0.00000000  00000-0  00000-0 0    03
2 37229  72.0091 317.7621 0139516 223.6591 136.3408 12.86687943    03
Mentor 5
1 37232U 10063A   21250.10315226 0.00000000  00000-0  00000-0 0    00
2 37232   5.1064 118.9826 0034205 182.3602 177.6368  1.00270000    04
USA 224
1 37348U 11002A   24262.08462643 0.00057000  00000-0  53026-3 0    02
2 37348  97.8772  37.0228 0503871 200.0756 159.9242 14.84682940    01
USA 225
1 37364U 11006A   25232.80603145 0.00000000  00000-0  00000-0 0    05
2 37364  90.1712  83.7188 0023068 253.5147 106.4813 13.11855100    04
USA 225 r
1 37365U 11006B   26231.85669081 0.00000000  00000-0  00000-0 0    02
2 37365  90.1792  94.5996 0005000   7.2915 352.7083 13.11922404    00
NOSS 3-5 (A)
1 37386U 11014A   26227.85727366 0.00000100  00000-0  12288-3 0    05
2 37386  63.4219 129.0480 0361632 356.7576   3.2424 13.41004111    09
NOSS 3-5 (B)
1 37391U 11014B   26227.85722756 0.00000000  00000-0  00000-0 0    04
2 37391  63.4325 128.8406 0376377 357.7690   2.2310 13.41003479    07
IGS 6
1 37813U 11050A   26087.80366954 0.00005100  00000-0  30094-3 0    01
2 37813  98.0387 273.9482 0006512 346.6927  13.3071 15.11576046    06
IGS 7
1 37954U 11075A   26240.93964487 0.00002000  00000-0  99622-4 0    03
2 37954  97.4548 314.4576 0002707 100.9416 259.0582 15.17621095    02
FIA Radar 2
1 38109U 12014A   26243.83788774 0.00000000  00000-0  00000-0 0    01
2 38109 122.9996 350.6612 0002894 216.3723 143.6277 13.41439087    01
USA 236
1 38466U 12033A   25049.88538066 0.00000000  00000-0  00000-0 0    03
2 38466   6.7157  83.9931 0005303 186.3128 173.6933  1.00270000    00
Mentor 6
1 38528U 12034A   25359.90744325 0.00000000  00000-0  00000-0 0    07
2 38528   6.9537  61.2150 0041322 331.7233  28.2734  1.00271606    06
NOSS 3-6 (A)
1 38758U 12048A   26201.87058179 0.00000000  00000-0  00000-0 0    05
2 38758  63.4236 122.9872 0316039 357.8416   2.1584 13.41005482    02
NOSS 3-6 (P)
1 38773U 12048P   26201.87048512 0.00000000  00000-0  00000-0 0    02
2 38773  63.4244 122.7472 0311724 358.6294   1.3706 13.41005328    07
IGS 8A
1 39061U 13002A   26087.94641153 0.00000000  00000-0  00000-0 0    04
2 39061  97.4705 209.9593 0002541 206.2191 153.7807 15.17564384    08
USA 245
1 39232U 13043A   26243.85947600 0.00016582  00000-0  17582-3 0    07
2 39232  97.9380 305.4770 0524811 229.1288 130.8302 14.77862185    02
FIA Radar 3
1 39462U 13072A   26174.04481285 0.00000000  00000-0  00000-0 0    02
2 39462 123.0231  43.2129 0002212 111.1136 248.7619 13.41432111    08
USA 250
1 39652U 14020A   22263.91318420 0.00000000  00000-0  00000-0 0    08
2 39652   2.2006  50.4699 0007516  86.9098 273.1965  1.00270000    02
USA 252
1 39751U 14027A   20169.22222530 0.00000000  00000-0  00000-0 0    08
2 39751   2.7245 155.9004 0003771 352.9836   7.0117  1.00270000    01
CLIO
1 40208U 14055A   20180.20928624 0.00000000  00000-0  00000-0 0    06
2 40208   0.0961 120.8977 0014997 230.4577 129.3781  1.00281279    05
USA 259
1 40344U 14081A   26118.66795364 0.00000000  00000-0  00000-0 0    06
2 40344  63.0393  80.2665 7042097 272.0038  15.2325  2.00612648    06
IGS 9
1 40381U 15004A   26236.90185013 0.00009100  00000-0  21414-3 0    00
2 40381  97.3279 304.3496 0004899 338.8180  21.1819 15.41971070    02
IGS Opt 5
1 40538U 15015A   26240.89276377 0.00000000  00000-0  00000-0 0    08
2 40538  97.3445 311.2271 0001099 305.7460  54.2538 15.27648071    03
Sicral 2
1 40614U 15022B   26224.29852566 0.00000000  00000-0  00000-0 0    07
2 40614   0.0260 105.2065 0003453 359.0526   0.9474  1.00270000    03
NOSS 3-7 (A)
1 40964U 15058A   26244.89362376 0.00000000  00000-0  00000-0 0    07
2 40964  63.4587 238.6288 0244919 356.9356   3.0644 13.41002364    02
NOSS 3-7 (R)
1 40981U 15058R   26244.89364301 0.00000000  00000-0  00000-0 0    06
2 40981  63.4366 238.7117 0222196 358.2163   1.7837 13.41000965    06
FIA Radar 4
1 41334U 16010A   26244.09744705 0.00000000  00000-0  00000-0 0    00
2 41334 123.0043  81.7996 0005000 181.4801 178.5199 13.41438717    07
Mentor 7
1 41584U 16036A   21250.72513855 0.00000000  00000-0  00000-0 0    07
2 41584   6.3093 353.0682 0049199  54.7537 305.7280  1.00270000    00
USA 269
1 41724U 16047A   25093.58950595 0.00000000  00000-0  00000-0 0    04
2 41724   3.1811  34.4151 0005050 211.9298 148.0506  1.00270000    08
DSN 2
1 41940U 17005A   20259.52607417 0.00000000  00000-0  00000-0 0    04
2 41940   0.0250 277.3055 0004000  57.1737 302.8575  1.00270000    00
DSN 2 r
1 41941U 17005B   25137.05305652 0.00000482  00000-0  75316-3 0    08
2 41941  20.4175 175.1943 7181492 135.0237 224.9761  2.34753525    00
NOSS 3-8 (A)
1 42058U 17011A   26239.12787492 0.00000000  00000-0  00000-0 0    04
2 42058  63.4427 331.6807 0171559 359.4127   0.5873 13.41001301    01
NOSS 3-8 (B)
1 42065U 17011B   26239.12777485 0.00000000  00000-0  00000-0 0    03
2 42065  63.4299 331.3997 0167071 359.7601   0.2399 13.41001251    01
IGS Radar 5
1 42072U 17015A   26243.87848534 0.00000000  00000-0  00000-0 0    06
2 42072  97.3603 313.8739 0001726  37.8074 322.1925 15.25981029    00
Optsat 3000
1 42900U 17044A   26243.85443596 0.00005100  00000-0  22571-3 0    01
2 42900  97.3766 305.7096 0005143 131.7291 228.2707 15.21699209    04
USA 278
1 42941U 17056A   25165.47189940 0.00000000  00000-0  00000-0 0    03
2 42941  62.9040 184.1614 6740770 269.2380  90.7620  2.00591119    01
USA 279
1 42949U 17066A   21249.71417234 0.00000000  00000-0  00000-0 0    08
2 42949   2.8159 335.1754 0003938 138.6479 221.3984  1.00270000    03
FIA Radar 5
1 43145U 18005A   26240.85326383 0.00000000  00000-0  00000-0 0    06
2 43145 106.0108  99.6514 0008414   8.5776 351.4224 13.48056978    01
GovSat 1
1 43178U 18013A   26223.96535849 0.00000000  00000-0  00000-0 0    03
2 43178   0.0152 329.3798 0004000 127.5121 232.4879  1.00270000    02
IGS Opt 6
1 43223U 18021A   26237.00160296 0.00000000  00000-0  00000-0 0    03
2 43223  97.3619 356.0758 0007880 315.0968  44.9031 15.27650769    09
IGS Radar 6
1 43495U 18052A   26232.01967753 0.00000000  00000-0  00000-0 0    07
2 43495  97.3655 347.1297 0001609  67.7940 292.2058 15.25981368    00
CSO 1
1 43866U 18106A   26238.09305404 0.00000000  00000-0  00000-0 0    02
2 43866  98.5979 176.9049 0006239  40.9466 318.9479 14.26736493    07
USA 290
1 43941U 19004A   26223.12917621 0.00008000  00000-0  12666-3 0    04
2 43941  73.5475 344.6601 0018900 127.1473 232.8526 15.53092134    02
USA 294
1 45110U 20007A   23232.80903846 0.00110000  00000-0  32750-2 0    04
2 45110  69.9913 111.5649 0009740 159.9373 200.0626 15.34502222    06
IGS Opt 7
1 45165U 20009A   26240.91536982 0.00000000  00000-0  00000-0 0    02
2 45165  97.3343 314.6554 0006050 319.7024  40.2974 15.27649929    07
Ofeq 16
1 45860U 20044A   26192.06578033 0.00002200  00000-0  18339-3 0    09
2 45860 141.0845 341.1901 0010440 109.2332 250.7661 14.97770392    02
USA 310
1 46918U 20083A   25279.45191846 0.00000000  00000-0  00000-0 0    07
2 46918  58.7386  19.3197 0008643  41.6246 318.3754  3.76171233    05
Mentor 8
1 47237U 20095A   25049.24882233 0.00000000  00000-0  00000-0 0    04
2 47237   4.3964 293.8382 0042008 188.7682 171.1710  1.00270000    08
USA 312
1 47294U 20101A   23146.87885096 0.00060000  00000-0  12656-2 0    08
2 47294  52.9901 102.4500 0004000 109.5716 250.4283 15.44627245    03
USA 313
1 47295U 20101B   23148.85178512 0.00070000  00000-0  16435-2 0    07
2 47295  52.9951  94.9729 0008000  85.7004 274.2995 15.41419832    08
CSO 2
1 47305U 20104A   26228.07801686 0.00000000  00000-0  00000-0 0    05
2 47305  97.3522 167.8652 0002125  70.0965 289.9033 15.26904832    05
USA 314
1 48247U 21032A   26234.97495525 0.00000050  00000-0  67998-5 0    08
2 48247  98.0205 349.5991 0157010   4.1627 355.8371 14.70576598    09
USA 316
1 48846U 21052A   26219.97105931 0.00003993  00000-0  23593-3 0    07
2 48846  54.9810 218.9230 0011533  32.4949 327.6582 15.10987501    08
USA 317
1 48847U 21052B   26041.20357395 0.00022000  00000-0  55743-3 0    02
2 48847  54.9696 125.1587 0001000 288.5877  71.4122 15.39199019    01
USA 318
1 48848U 21052C   26218.01265444 0.00004600  00000-0  27580-3 0    05
2 48848  54.9935 230.2013 0009274  32.2516 327.7483 15.10479386    09
Ceres 1
1 49464U 21105A   26238.09733964 0.00000334  00000-0  56294-4 0    01
2 49464  74.9991 218.2999 0012841 253.0055 107.0521 14.69464780    09
Ceres 2
1 49465U 21105B   26238.09729838 0.00000276  00000-0  46578-4 0    06
2 49465  75.0015 215.8241 0003039 234.8271 125.1746 14.69461467    07
Ceres 3
1 49466U 21105C   26238.09749895 0.00000338  00000-0  56979-4 0    07
2 49466  74.9985 218.3116 0011834 247.0583 113.0171 14.69464865    08
USA 326
1 51445U 22009A   26243.95437690 0.00004436  00000-0  19620-3 0    03
2 51445  97.3970 338.7397 0003584 320.4864  39.5504 15.21727995    07
USA 327
1 52259U 22040A   26204.89694391 0.00000000  00000-0  00000-0 0    07
2 52259  63.4272 118.8121 0015278  44.9390 315.0610 13.41004216    01
Sarah 1
1 52887U 22063A   26048.20502596 0.00000000  00000-0  00000-0 0    05
2 52887  98.3916  57.2595 0002074   0.7146 359.2852 14.43696703    09
USA 328
1 52889U 22064B   25002.75667207 0.00000100  00000-0  55176-5 0    08
2 52889  52.9976 332.8121 0008807 170.7245 189.2754 15.13418871    06
USA 329
1 52890U 22064C   24316.71940197 0.00000160  00000-0  88312-5 0    09
2 52890  53.0125 209.4844 0005879  20.4589 339.5410 15.13426190    07
USA 330
1 52891U 22064D   25012.73256558 0.00000000  00000-0  00000-0 0    03
2 52891  53.0058 287.8036 0006242 356.3156   3.6843 15.13407515    01
USA 331
1 52892U 22064E   25002.76038917 0.00000150  00000-0  82725-5 0    08
2 52892  53.0074 332.9962 0007211 194.5820 165.4178 15.13447596    08
USA 335
1 53352U 22091A   24296.76552711 0.00066500  00000-0  37376-2 0    07
2 53352  70.0128 158.2452 0003780 231.4901 128.5099 15.13172950    01
USA 338
1 53883U 22117A   26206.90238578 0.00012567  00000-0  19594-3 0    03
2 53883  73.5874 120.9885 0018570  59.2012 300.4582 15.53522323    09
USA 339
1 54220U 22144B   25358.92055737 0.00000000  00000-0  00000-0 0    00
2 54220   0.4891  82.4168 0004540 170.5132 189.8408  0.99099817    08
IGS Radar 7
1 55329U 23012A   26238.88242450 0.00000000  00000-0  00000-0 0    09
2 55329  97.3646 316.2833 0002042  18.7175 341.2823 15.25980876    08
USA 346
1 57836U 23140A   25165.20101659 0.00000000  00000-0  00000-0 0    05
2 57836  12.3140   7.1362 0000620 127.0857 232.9143  1.00270817    09
Sarah 2
1 58643U 23204A   26243.87415627 0.00000000  00000-0  00000-0 0    07
2 58643  88.2026 118.5263 0003000 127.5580 232.4418 15.20492520    05
Sarah 3
1 58644U 23204B   26236.89785109 0.00000000  00000-0  00000-0 0    07
2 58644  88.1931 120.2214 0008207 182.2453 177.7545 15.20506458    05
IGS Opt 8
1 58762U 24010A   26225.02905224 0.00000000  00000-0  00000-0 0    09
2 58762  97.3453 346.1533 0000980 330.0712  29.9286 15.27638576    05
USA 352
1 59288U 24053A   26071.77543472 0.00005000  00000-0  91679-4 0    05
2 59288  50.0103  30.1093 0005000 140.6283 219.3715 15.48598751    09
Mentor 10
1 59453U 24067A   25239.61844862 0.00000000  00000-0  00000-0 0    08
2 59453   6.9020 298.7686 0056010 176.6536 183.3464  1.00274000    00
USA 354 StarSh
1 59814U 24096A   26236.81825530 0.00000000  00000-0  00000-0 0    02
2 59814  70.0169 139.8407 0002000 288.1705  71.8295 14.96712984    00
USA 355 StarSh
1 59815U 24096B   26235.87341122 0.00000000  00000-0  00000-0 0    08
2 59815  70.0200 157.1811 0003000  97.7021 262.2979 14.96712645    04
USA 356 StarSh
1 59816U 24096C   26239.83230449 0.00000000  00000-0  00000-0 0    08
2 59816  70.0168 131.9292 0004000  35.7647 324.2353 14.96713468    07
USA 357 StarSh
1 59817U 24096D   26227.94287861 0.00000000  00000-0  00000-0 0    08
2 59817  70.0211 161.8170 0004000 332.4499  27.5500 14.96713793    04
USA 358 StarSh
1 59818U 24096E   26233.90181102 0.00000000  00000-0  00000-0 0    03
2 59818  70.0180 161.9377 0002000  82.1583 277.8416 14.96713200    00
USA 359 StarSh
1 59819U 24096F   26237.85828323 0.00000000  00000-0  00000-0 0    05
2 59819  70.0163 152.0535 0001850 244.1291 115.8709 14.96713376    07
USA 360 StarSh
1 59820U 24096G   26224.96888661 0.00000000  00000-0  00000-0 0    06
2 59820  70.0200 169.5097 0004000 152.1900 207.8100 14.96713160    00
USA 361 StarSh
1 59821U 24096H   26232.89519968 0.00000000  00000-0  00000-0 0    09
2 59821  70.0260 149.6721 0004000 149.4972 210.5027 14.96713003    03
USA 362 StarSh
1 59822U 24096J   26243.83971292 0.00000000  00000-0  00000-0 0    08
2 59822  70.0190 136.8299 0002000 252.4042 107.5957 14.96713508    02
USA 363 StarSh
1 59823U 24096K   26236.86251358 0.00000000  00000-0  00000-0 0    08
2 59823  70.0215 154.6070 0002995  14.0835 345.9165 14.96713079    03
USA 364 StarSh
1 59824U 24096L   26225.01982443 0.00000000  00000-0  00000-0 0    00
2 59824  70.0227 184.3052 0004000 116.1869 243.8130 14.96713183    01
USA 365 StarSh
1 59825U 24096M   26237.88505820 0.00000000  00000-0  00000-0 0    09
2 59825  70.0190 152.1676 0002000  64.4332 295.5667 14.96713608    05
USA 366 StarSh
1 59826U 24096N   26237.84743998 0.00000000  00000-0  00000-0 0    06
2 59826  70.0170 137.0430 0003000  49.3246 310.6753 14.96713175    05
USA 367 StarSh
1 59827U 24096P   26220.01662085 0.00000000  00000-0  00000-0 0    05
2 59827  70.0227 181.8948 0002000 221.9149 138.0851 14.96713443    08
USA 368 StarSh
1 59828U 24096Q   26229.92782873 0.00000000  00000-0  00000-0 0    03
2 59828  70.0240 157.1148 0002000 229.9860 130.0139 14.96714586    00
USA 369 StarSh
1 59829U 24096R   26229.92115996 0.00000000  00000-0  00000-0 0    00
2 59829  70.0176 157.0983 0003000  53.4135 306.5865 14.96714006    04
USA 370 StarSh
1 59830U 24096S   26233.89513297 0.00000000  00000-0  00000-0 0    09
2 59830  70.0210 161.9059 0003032 265.0843  94.9157 14.96712533    00
USA 371 StarSh
1 59831U 24096T   26237.84295130 0.00000000  00000-0  00000-0 0    02
2 59831  70.0232 137.0379 0003004 127.9261 232.0738 14.96713072    02
USA 372 StarSh
1 59832U 24096U   26233.88842960 0.00000000  00000-0  00000-0 0    02
2 59832  70.0232 161.8586 0003004 267.1531  92.8468 14.96713779    01
USA 373 StarSh
1 59833U 24096V   26236.86919134 0.00000000  00000-0  00000-0 0    02
2 59833  70.0173 154.6218 0002645 288.5841  71.4159 14.96712699    09
USA 374 StarSh
1 59834U 24096W   26231.90603145 0.00000000  00000-0  00000-0 0    05
2 59834  70.0182 151.9834 0003000 210.9151 149.0849 14.96714200    01
USA 375 StarSh
1 60158U 24121A   26237.03736034 0.00000000  00000-0  00000-0 0    09
2 60158  70.0190 214.1331 0003000 236.7095 123.2904 14.96713439    07
USA 380 StarSh
1 60163U 24121F   26238.05544733 0.00000000  00000-0  00000-0 0    01
2 60163  70.0200 211.6305 0003000 100.1626 259.8373 14.96713239    06
USA 382 StarSh
1 60165U 24121H   25204.91008624 0.00000000  00000-0  00000-0 0    04
2 60165  69.9901 132.0268 0003000  14.4240 345.5759 14.96713838    02
USA 383 StarSh
1 60166U 24121J   26243.95674694 0.00000000  00000-0  00000-0 0    09
2 60166  70.0190 196.8885 0002000 265.1361  94.8639 14.96714403    07
USA 384 StarSh
1 60167U 24121K   26238.04875283 0.00000000  00000-0  00000-0 0    01
2 60167  70.0203 211.5932 0002000 223.9860 136.0140 14.96713340    02
USA 385 StarSh
1 60168U 24121L   26237.03290499 0.00000000  00000-0  00000-0 0    00
2 60168  70.0214 214.0863 0004000 109.5823 250.4176 14.96713226    09
USA 386 StarSh
1 60169U 24121M   26236.03709943 0.00000000  00000-0  00000-0 0    09
2 60169  70.0230 216.5874 0003000 260.8088  99.1912 14.96713199    05
USA 388 StarSh
1 60171U 24121P   26243.96334706 0.00000000  00000-0  00000-0 0    03
2 60171  70.0212 196.5311 0002000 266.4126  93.5873 14.96713870    05
USA 389 StarSh
1 60172U 24121Q   26033.72519570 0.00000000  00000-0  00000-0 0    09
2 60172  69.9970   4.7706 0002000 187.2068 172.7931 14.96713000    07
USA 390 StarSh
1 60173U 24121R   26243.95004431 0.00000000  00000-0  00000-0 0    03
2 60173  70.0240 196.8704 0004000 265.6934  94.3066 14.96714532    06
USA 391 StarSh
1 60174U 24121S   24228.85535693 0.00000000  00000-0  00000-0 0    03
2 60174  70.0000 272.2608 0001000 329.4395  30.5604 14.96715000    01
USA 392 StarSh
1 60175U 24121T   26238.02199120 0.00000000  00000-0  00000-0 0    07
2 60175  70.0075 211.4752 0003000  16.6569 343.3431 14.96712900    08
USA 393 StarSh
1 60176U 24121U   26235.05469847 0.00000000  00000-0  00000-0 0    04
2 60176  70.0222 219.1768 0003000 272.0079  87.9920 14.96713104    00
USA 394 StarSh
1 60177U 24121V   26236.03265889 0.00000000  00000-0  00000-0 0    04
2 60177  70.0170 216.6495 0003000 304.6664  55.3335 14.96713217    08
USA 395 StarSh
1 60178U 24121W   26238.02868745 0.00000000  00000-0  00000-0 0    06
2 60178  70.0180 211.4834 0003000 216.3023 143.6977 14.96713300    04
USA 396
1 60322U 24134A   26024.92968435 0.00000000  00000-0  00000-0 0    00
2 60322   0.5630 265.5996 0000870  77.2228 282.7772  0.99754027    02
USA 400 StarSh
1 61021U 24160A   26237.98441774 0.00000000  00000-0  00000-0 0    00
2 61021  70.0150 196.6992 0003000 184.6486 175.3513 14.96713321    09
USA 401 StarSh
1 61022U 24160B   26236.98863858 0.00000000  00000-0  00000-0 0    01
2 61022  70.0193 199.2675 0003000 219.4926 140.5073 14.96713201    02
USA 402 StarSh
1 61023U 24160C   26235.99285214 0.00000000  00000-0  00000-0 0    06
2 61023  70.0200 201.8497 0002000 105.1940 254.8060 14.96713293    06
USA 403 StarSh
1 61024U 24160D   26235.99955225 0.00000000  00000-0  00000-0 0    03
2 61024  70.0170 201.8609 0002999  34.6753 325.3246 14.96713248    03
USA 404 StarSh
1 61025U 24160E   26238.92924343 0.00000000  00000-0  00000-0 0    07
2 61025  70.0130 179.2669 0002000 319.8466  40.1534 14.96713500    09
USA 405 StarSh
1 61026U 24160F   26238.93370478 0.00000000  00000-0  00000-0 0    03
2 61026  70.0198 179.3122 0003000 117.4651 242.5349 14.96713250    02
USA 406 StarSh
1 61027U 24160G   26243.88152383 0.00000000  00000-0  00000-0 0    07
2 61027  70.0130 166.8777 0003000 346.9170  13.0830 14.96714158    05
USA 407 StarSh
1 61028U 24160H   26238.01120773 0.00000000  00000-0  00000-0 0    05
2 61028  70.0177 196.8407 0004000  10.0484 349.9515 14.96713490    07
USA 408 StarSh
1 61029U 24160J   26243.91914913 0.00000000  00000-0  00000-0 0    08
2 61029  70.0218 181.9686 0003000 231.4392 128.5607 14.96713465    09
USA 409 StarSh
1 61030U 24160K   26238.96682700 0.00000000  00000-0  00000-0 0    05
2 61030  70.0130 194.1145 0002000 203.4973 156.5027 14.96713443    06
USA 410 StarSh
1 61031U 24160L   26237.94015148 0.00000000  00000-0  00000-0 0    09
2 61031  70.0267 181.8094 0003000 257.6002 102.3998 14.96713400    08
USA 411 StarSh
1 61032U 24160M   26232.03214700 0.00000000  00000-0  00000-0 0    00
2 61032  70.0205 196.5005 0003000 236.5749 123.4251 14.96713364    05
USA 412 StarSh
1 61033U 24160N   26238.01779881 0.00000000  00000-0  00000-0 0    01
2 61033  70.0173 196.4644 0003000 272.7379  87.2620 14.96713420    09
USA 413 StarSh
1 61034U 24160P   26237.97773290 0.00000000  00000-0  00000-0 0    04
2 61034  70.0150 196.7042 0002000 271.6502  88.3497 14.96713220    07
USA 414 StarSh
1 61035U 24160Q   26235.01705749 0.00000000  00000-0  00000-0 0    02
2 61035  70.0170 204.0389 0002000  79.0860 280.9139 14.96713200    05
USA 415 StarSh
1 61036U 24160R   26244.87060106 0.00000000  00000-0  00000-0 0    08
2 61036  70.0150 164.2642 0002000 195.3016 164.6983 14.96713308    02
USA 416 StarSh
1 61037U 24160S   26237.96691314 0.00000000  00000-0  00000-0 0    02
2 61037  70.0230 181.9265 0001000 114.6935 245.3065 14.96713158    03
USA 417 StarSh
1 61038U 24160T   26237.94683694 0.00000000  00000-0  00000-0 0    03
2 61038  70.0230 181.8494 0003000 252.0505 107.9495 14.96713200    07
USA 418 StarSh
1 61039U 24160U   26237.97360813 0.00000000  00000-0  00000-0 0    02
2 61039  70.0140 181.9677 0004000  96.0896 263.9104 14.96713208    00
USA 419 StarSh
1 61040U 24160V   26236.95106491 0.00000000  00000-0  00000-0 0    01
2 61040  70.0221 184.3742 0004019 247.8038 112.1961 14.96713556    08
USA 420 StarSh
1 61041U 24160W   26235.95525449 0.00000000  00000-0  00000-0 0    09
2 61041  70.0238 186.9340 0004000 274.0355  85.9645 14.96713508    06
USA 421 StarSh
1 61644U 24192A   26226.82765957 0.00000000  00000-0  00000-0 0    09
2 61644  70.0200 119.8406 0002000 234.8146 125.1854 14.96713514    08
USA 422 StarSh
1 61645U 24192B   26224.84264998 0.00000000  00000-0  00000-0 0    09
2 61645  70.0320 124.5295 0003000 162.1993 197.8007 14.96713660    03
USA 423 StarSh
1 61646U 24192C   26223.81602902 0.00000000  00000-0  00000-0 0    07
2 61646  70.0167 112.3707 0004000 231.1279 128.8720 14.96713499    07
USA 424 StarSh
1 61647U 24192D   26220.89298411 0.00000000  00000-0  00000-0 0    09
2 61647  70.0218 134.8237 0004000 226.6798 133.3201 14.96713487    09
USA 425 StarSh
1 61648U 24192E   26222.87117986 0.00000000  00000-0  00000-0 0    07
2 61648  70.0170 129.6911 0003000 293.1917  66.8083 14.96713490    01
USA 426 StarSh
1 61649U 24192F   26223.86028207 0.00000000  00000-0  00000-0 0    05
2 61649  70.0214 127.1583 0003000 109.4696 250.5304 14.96713330    03
USA 427 StarSh
1 61650U 24192G   26222.86448688 0.00000000  00000-0  00000-0 0    05
2 61650  70.0209 129.6669 0003000 244.0700 115.9299 14.96713715    07
USA 428 StarSh
1 61651U 24192H   26223.85358817 0.00000000  00000-0  00000-0 0    00
2 61651  70.0200 127.1033 0004000 245.9808 114.0192 14.96713205    03
USA 429 StarSh
1 61652U 24192J   26222.82693411 0.00000000  00000-0  00000-0 0    09
2 61652  70.0195 114.9334 0002000 247.1226 112.8774 14.96713300    09
USA 430 StarSh
1 61653U 24192K   26224.84937067 0.00000000  00000-0  00000-0 0    02
2 61653  70.0223 124.5852 0003000 170.6993 189.3007 14.96713560    02
USA 431 StarSh
1 61654U 24192L   26179.97166474 0.00000000  00000-0  00000-0 0    02
2 61654  70.0151 237.4397 0003000 289.0075  70.9924 14.96713261    08
USA 432 StarSh
1 61655U 24192M   26182.90807998 0.00000000  00000-0  00000-0 0    03
2 61655  70.0237 215.1021 0004000 122.2534 237.7466 14.96713421    02
USA 433 StarSh
1 61656U 24192N   26223.82272523 0.00000000  00000-0  00000-0 0    01
2 61656  70.0193 112.3886 0003000 232.2006 127.7994 14.96713670    06
USA 434 StarSh
1 61657U 24192P   26215.88975422 0.00000000  00000-0  00000-0 0    07
2 61657  70.0210 132.2723 0002000 171.2608 188.7391 14.96713436    05
USA 435 StarSh
1 61658U 24192Q   26222.83363339 0.00000000  00000-0  00000-0 0    09
2 61658  70.0172 114.9541 0003000 347.9661  12.0338 14.96713501    03
USA 436 StarSh
1 61659U 24192R   26219.85954595 0.00000000  00000-0  00000-0 0    08
2 61659  70.0264 122.2198 0004000 200.9722 159.0278 14.96713625    05
USA 437 StarSh
1 61660U 24192S   26214.90729592 0.00000000  00000-0  00000-0 0    08
2 61660  70.0160 134.6442 0003000  42.9103 317.0896 14.96713219    08
USA 441 StarSh
1 62340U 24243A   26224.93124684 0.00000000  00000-0  00000-0 0    06
2 62340  70.0230 154.3919 0003000 187.8533 172.1466 14.96713884    07
USA 442 StarSh
1 62341U 24243B   26224.93351613 0.00000000  00000-0  00000-0 0    01
2 62341  70.0220 154.5568 0003000 139.2495 220.7505 14.96713063    00
USA 443 StarSh
1 62342U 24243C   26219.97897947 0.00000000  00000-0  00000-0 0    05
2 62342  70.0207 166.7814 0002000 247.9280 112.0720 14.96713330    02
USA 444 StarSh
1 62343U 24243D   26232.85758192 0.00000000  00000-0  00000-0 0    06
2 62343  70.0211 134.7366 0003000 156.3305 203.6695 14.96713680    03
USA 445 StarSh
1 62344U 24243E   26231.86850236 0.00000000  00000-0  00000-0 0    09
2 62344  70.0205 137.3017 0002000  96.1054 263.8946 14.96713236    04
USA 446 StarSh
1 62345U 24243F   26228.85685397 0.00000000  00000-0  00000-0 0    09
2 62345  70.0220 129.7551 0002000 335.0812  24.9188 14.96713436    03
USA 447 StarSh
1 62346U 24243G   26219.93478232 0.00000000  00000-0  00000-0 0    07
2 62346  70.0220 152.2404 0004000  97.9437 262.0563 14.96713206    08
USA 448 StarSh
1 62347U 24243H   26190.90957692 0.00000000  00000-0  00000-0 0    05
2 62347  70.0210 225.1453 0002000  92.9600 267.0400 14.96713656    01
USA 449 StarSh
1 62348U 24243J   26223.94216824 0.00000000  00000-0  00000-0 0    02
2 62348  70.0126 156.9518 0005000 351.3755   8.6245 14.96713151    03
USA 450 StarSh
1 62349U 24243K   26233.83999346 0.00000000  00000-0  00000-0 0    09
2 62349  70.0202 132.1257 0003000 223.1167 136.8832 14.96713548    02
USA 451 StarSh
1 62350U 24243L   26224.89364097 0.00000000  00000-0  00000-0 0    06
2 62350  70.0240 139.4536 0003000 181.0875 178.9125 14.96713608    03
USA 452 StarSh
1 62351U 24243M   26226.87195153 0.00000000  00000-0  00000-0 0    02
2 62351  70.0190 134.7328 0003000  82.4103 277.5896 14.96713406    00
USA 453 StarSh
1 62352U 24243N   26227.86103591 0.00000000  00000-0  00000-0 0    08
2 62352  70.0200 132.1594 0004000  46.1502 313.8498 14.96713456    08
USA 454 StarSh
1 62353U 24243P   26233.84669245 0.00000000  00000-0  00000-0 0    07
2 62353  70.0190 132.1399 0004000 257.8750 102.1249 14.96713399    05
USA 455 StarSh
1 62354U 24243Q   26223.90456351 0.00000000  00000-0  00000-0 0    06
2 62354  70.0190 142.0230 0002000  52.3248 307.6752 14.96713386    05
USA 456 StarSh
1 62355U 24243R   26223.94440549 0.00000000  00000-0  00000-0 0    03
2 62355  70.0140 157.0133 0004000 299.4997  60.5003 14.96713164    04
USA 457 StarSh
1 62356U 24243S   26235.83157991 0.00000000  00000-0  00000-0 0    01
2 62356  70.0230 127.0813 0004000 111.4058 248.5942 14.96713534    09
USA 458 StarSh
1 62357U 24243T   26231.82420678 0.00000000  00000-0  00000-0 0    02
2 62357  70.0140 122.3035 0004000 275.9904  84.0095 14.96713208    00
USA 459 StarSh
1 62358U 24243U   26232.85084661 0.00000000  00000-0  00000-0 0    05
2 62358  70.0200 134.4560 0002000 215.8499 144.1501 14.96713314    03
USA 460 StarSh
1 62359U 24243V   26232.85980635 0.00000000  00000-0  00000-0 0    02
2 62359  70.0216 134.6473 0004000  64.4936 295.5064 14.96713559    08
USA 461 StarSh
1 62360U 24243W   26233.84891876 0.00000000  00000-0  00000-0 0    02
2 62360  70.0200 132.1491 0002000  44.4988 315.5011 14.96713500    00
USA 462 StarSh
1 62361U 24243X   26224.88701016 0.00000000  00000-0  00000-0 0    03
2 62361  70.0190 139.5749 0002000 270.4481  89.5519 14.96713300    04
USA 463 StarSh
1 62532U 25005A   26238.09303877 0.00000000  00000-0  00000-0 0    01
2 62532  70.0250 226.5361 0003000 202.8662 157.1338 14.96713500    02
USA 464 StarSh
1 62533U 25005B   26237.07047296 0.00000000  00000-0  00000-0 0    09
2 62533  70.0154 228.9580 0002000 151.8741 208.1258 14.96713568    07
USA 465 StarSh
1 62534U 25005C   26238.05737504 0.00000000  00000-0  00000-0 0    07
2 62534  70.0183 226.4477 0003000  53.5545 306.4454 14.96713313    07
USA 466 StarSh
1 62535U 25005D   26239.04867314 0.00000000  00000-0  00000-0 0    01
2 62535  70.0140 223.8405 0002000 199.1802 160.8198 14.96713250    02
USA 468 StarSh
1 62537U 25005F   26235.84938154 0.00000000  00000-0  00000-0 0    08
2 62537  70.0200 246.9523 0003000 286.2416  73.7584 14.96713364    05
USA 469 StarSh
1 62538U 25005G   26235.85161625 0.00000000  00000-0  00000-0 0    01
2 62538  70.0182 246.9597 0002000 274.8193  85.1806 14.96713588    02
USA 470 StarSh
1 62539U 25005H   26233.82916342 0.00000000  00000-0  00000-0 0    01
2 62539  70.0194 237.3194 0002000 176.2445 183.7555 14.96713687    04
USA 471 StarSh
1 62540U 25005J   26219.99901705 0.00000000  00000-0  00000-0 0    02
2 62540  70.0146 286.6783 0002000 242.2531 117.7469 14.96713163    04
USA 472 StarSh
1 62541U 25005K   26238.05958113 0.00000000  00000-0  00000-0 0    06
2 62541  70.0210 226.4362 0002500  50.2911 309.7089 14.96713408    09
USA 473 StarSh
1 62542U 25005L   26233.87340963 0.00000000  00000-0  00000-0 0    00
2 62542  70.0200 252.1175 0003000 135.4484 224.5515 14.96713439    06
USA 474 StarSh
1 62543U 25005M   26235.84488125 0.00000000  00000-0  00000-0 0    03
2 62543  70.0191 246.9440 0003000 150.5831 209.4169 14.96713429    02
USA 475 StarSh
1 62544U 25005N   26244.08535275 0.00000000  00000-0  00000-0 0    09
2 62544  70.0256 226.3749 0003000 188.7218 171.2782 14.96713454    06
USA 476 StarSh
1 62545U 25005P   26232.87762011 0.00000000  00000-0  00000-0 0    04
2 62545  70.0215 254.6360 0003000 171.0169 188.9830 14.96713464    05
USA 477 StarSh
1 62546U 25005Q   26231.88183187 0.00000000  00000-0  00000-0 0    06
2 62546  70.0180 257.1678 0003000 165.0999 194.9001 14.96713538    00
USA 478 StarSh
1 62547U 25005R   26238.10391666 0.00000000  00000-0  00000-0 0    02
2 62547  70.0167 241.5824 0003000 116.9938 243.0061 14.96713491    04
USA 479 StarSh
1 62548U 25005S   26233.86672295 0.00000000  00000-0  00000-0 0    01
2 62548  70.0157 252.0093 0004840 225.6648 134.3351 14.96713554    02
USA 480 StarSh
1 62549U 25005T   26236.08140188 0.00000000  00000-0  00000-0 0    00
2 62549  70.0145 231.5302 0002000 279.0979  80.9021 14.96713280    07
USA 481 StarSh
1 62550U 25005U   26244.07866756 0.00000000  00000-0  00000-0 0    06
2 62550  70.0180 226.3570 0003000  21.5264 338.4736 14.96713158    03
USA 482 StarSh
1 62551U 25005V   26238.09973037 0.00000000  00000-0  00000-0 0    03
2 62551  70.0280 226.5670 0004000 195.8720 164.1280 14.96713478    04
USA 483 StarSh
1 62552U 25005W   26236.07470279 0.00000000  00000-0  00000-0 0    00
2 62552  70.0135 231.5285 0003000  66.1817 293.8182 14.96713588    01
USA 484 StarSh
1 62553U 25005X   26238.06627079 0.00000000  00000-0  00000-0 0    04
2 62553  70.0144 226.3957 0002000 165.5945 194.4055 14.96713418    02
CSO 3
1 63156U 25044A   26244.08785750 0.00000000  00000-0  00000-0 0    07
2 63156  98.6196 182.7768 0003136  37.5590 322.3675 14.26737292    04
USA 498
1 63350U 25060A   26223.88940501 0.00000000  00000-0  00000-0 0    03
2 63350  63.4342 149.9187 0089000 177.0783 182.9217 13.41001349    06
USA 521
1 63596U 25077A   26078.14739726 0.00000000  00000-0  00000-0 0    05
2 63596  63.3971  83.6849 0018000 293.5214  66.4786 13.38600918    09
USA 522
1 63597U 25077B   25317.19739246 0.00000000  00000-0  00000-0 0    03
2 63597  63.3855  42.8714 0020000 291.6239  68.3761 13.39285860    08
USA 521 r
1 63598U 25077C   26183.93541092 0.00000000  00000-0  00000-0 0    08
2 63598  63.3953 174.1560 0032791 341.6507  18.3493 13.39147365    04
USA 549 StarSh
1 65075U 25165V   26233.92796340 0.00000000  00000-0  00000-0 0    01
2 65075  97.6024 326.8652 0001540 286.1714  73.8284 15.40354712    08
USA 550 StarSh
1 65076U 25165W   26227.95376237 0.00000000  00000-0  00000-0 0    07
2 65076  97.6043 320.9674 0000604 287.5402  72.4596 15.40353194    02
USA 554
1 65161U 25173B   25359.84271250 0.00000000  00000-0  00000-0 0    03
2 65161   2.8470  33.8717 0008930 181.1439 178.8561  0.98975314    00
OTV 8
1 65271U 25183A   26236.84616148 0.00000000  00000-0  00000-0 0    00
2 65271  49.5101 145.6446 0013166 245.6147 114.3850 15.58427510    09
Limasat
1 65272U 25183B   25251.81098455 0.00075783  00000-0  38663-3 0    08
2 65272  49.5221 185.8300 0006423  21.0132 338.9866 15.80547521    07
Ofeq 19
1 65432U 25193A   26113.04990462 0.00000000  00000-0  00000-0 0    00
2 65432 139.1454 248.1956 0067143 275.3630  83.9536 15.10508836    02
Ofeq 19 r
1 65433U 25193B   25274.38516124 0.00150000  00000-0  16563-2 0    03
2 65433 139.4052 161.5227 0233344 264.6485  96.0411 15.35438923    09
USA 558 StarSh
1 65704U 25213A   26226.84991379 0.00000000  00000-0  00000-0 0    06
2 65704  70.0182 239.7113 0001000  82.6256 277.3743 14.96713610    09
USA 559 StarSh
1 65705U 25213B   26232.07619895 0.00000000  00000-0  00000-0 0    09
2 65705  70.0152 226.5822 0003000 334.7533  25.2467 14.96713510    01
USA 560 StarSh
1 65706U 25213C   26221.87091948 0.00000000  00000-0  00000-0 0    09
2 65706  70.0160 252.1616 0004000 248.2268 111.7732 14.96713800    00
USA 561 StarSh
1 65707U 25213D   26223.88257146 0.00000000  00000-0  00000-0 0    07
2 65707  70.0170 247.1162 0003000 224.4453 135.5547 14.96713300    06
USA 562 StarSh
1 65708U 25213E   26125.82553180 0.00000000  00000-0  00000-0 0    00
2 65708  70.0210 133.6644 0004000  90.1270 269.8729 14.96713400    06
USA 563 StarSh
1 65709U 25213F   26221.89765027 0.00000000  00000-0  00000-0 0    00
2 65709  70.0222 252.1310 0003000 170.5749 189.4251 14.96713700    00
USA 564 StarSh
1 65710U 25213G   26222.89346593 0.00000000  00000-0  00000-0 0    06
2 65710  70.0214 249.6989 0003000  49.0480 310.9519 14.96713500    04
USA 565 StarSh
1 65711U 25213H   26120.87726372 0.00000000  00000-0  00000-0 0    09
2 65711  70.0100 145.8970 0002000  97.8483 262.1517 14.96712800    07
USA 570
1 66992U 25291A   26239.12949004 0.00000000  00000-0  00000-0 0    05
2 66992  63.4418 330.1732 0108000 180.8891 179.1109 13.41004812    05
USA 572 StarSh
1 67484U 26011A   26209.92414558 0.00000000  00000-0  00000-0 0    09
2 67484  70.0170 132.2577 0002000 273.4107  86.5893 14.96713862    05
USA 573 StarSh
1 67485U 26011B   26079.07599469 0.00000000  00000-0  00000-0 0    06
2 67485  70.0000 100.9190 0002000 154.1430 205.8569 14.96712962    01
USA 574 StarSh
1 67486U 26011C   26215.85882484 0.00000000  00000-0  00000-0 0    07
2 67486  70.0190 117.2993 0002000 304.0224  55.9776 14.96713302    04
USA 575 StarSh
1 67487U 26011D   26214.86526069 0.00000000  00000-0  00000-0 0    02
2 67487  70.0170 119.8214 0002000 341.0200  18.9799 14.96713362    02
USA 576 StarSh
1 67488U 26011E   26196.04533004 0.00000000  00000-0  00000-0 0    09
2 67488  70.0260 167.0838 0002000 195.2748 164.7251 14.96713600    04
USA 577 StarSh
1 67489U 26011F   26207.92808461 0.00000000  00000-0  00000-0 0    02
2 67489  70.0210 137.2383 0002000 286.1340  73.8660 14.96713362    01
USA 578 StarSh
1 67490U 26011G   26213.88062938 0.00000000  00000-0  00000-0 0    07
2 67490  70.0210 122.4070 0003000 297.1438  62.8562 14.96713562    04
USA 579 StarSh
1 67491U 26011H   26215.85437127 0.00000000  00000-0  00000-0 0    03
2 67491  70.0130 117.3656 0002000  94.3251 265.6749 14.96713262    05
USA 580 StarSh
1 67492U 26011J   26205.94986119 0.00000000  00000-0  00000-0 0    03
2 67492  70.0250 142.2290 0002000 109.6223 250.3777 14.96713162    00
USA 582 r
1 67762U 26029D   26217.01866561 0.00000000  00000-0  00000-0 0    01
2 67762   0.7713 350.8411 0054095 298.8602  60.6107  0.98159113    05
Prowler
1 90007U 90097E   21305.13119867 0.00000000  00000-0  00000-0 0    01
2 90007  14.4403 350.3137 0040735 245.2740 114.3135  1.00206833    00
Unknown 110623
1 90087U 11674A   22126.96977913 0.00000000  00000-0  00000-0 0    00
2 90087  27.7135  76.0399 7316208 196.3524 113.1553  2.00922270    05
ISON 69200
1 90093U 14576A   23287.87265090 0.00003062  00000-0  10362-0 0    09
2 90093   3.7386 306.9419 7254645 276.7588  83.9898  2.08601201    03
ISON 37600
1 90097U 14792A   20154.20197802 0.00008046  00000-0  41060-0 0    01
2 90097   4.8700 135.1943 5523492 351.4572   8.5424  4.04496582    04
ISON 59600
1 90101U 14817A   19365.27561034 0.00000000  00000-0  00000-0 0    07
2 90101  10.4255 292.5894 7001863 183.3879 166.9186  2.42755887    08
ISON 64800
1 90103U 14820A   20022.72146155 0.00000000  00000-0  00000-0 0    08
2 90103  62.6141 291.4626 7016348 257.8593  21.8527  2.21905403    04
ISON 68600
1 90107U 14844B   20072.27649246 0.00000000  00000-0  00000-0 0    02
2 90107   6.7140  44.2914 6233160 217.8821 142.1178  2.09780463    04
ISON 54102
1 90109U 15523A   20139.85329861 0.00000000  00000-0  00000-0 0    05
2 90109   9.9240  47.4020 6742260 109.0070 330.8240  2.86246066    06
ISON 60601
1 90111U 15607A   20160.08305149 0.00000000  00000-0  00000-0 0    03
2 90111  10.8871  42.6214 6999149 318.4457   5.6469  2.37824509    07
ISON 62200
1 90112U 15614A   22020.25884161 0.00000600  00000-0  59892-3 0    06
2 90112   5.4267 220.0739 7204201  32.3358 327.6360  2.33727985    05
ISON 63700
1 90115U 16612A   24107.63643957 0.00000000  00000-0  00000-0 0    02
2 90115   5.7951  64.6060 7084426 294.8203   9.5473  2.26349026    08
ISON 51100
1 90116U 16697A   20180.29206391 0.00000100  00000-0  24880-2 0    07
2 90116   3.9783 314.0046 6634896 135.8229 302.3630  2.81037479    07
Unknown 100202
1 96041U 96541A   24210.86995878 0.00000000  00000-0  00000-0 0    07
2 96041   8.5822 306.4011 0053150   2.7159 357.2841  1.00315308    01
Unknown 050403
1 96058U 96558A   24064.37172747 0.00000000  00000-0  00000-0 0    08
2 96058  11.6347 309.8634 0031740  52.5322 307.7780  0.94325817    00
StarSh
1 99005U 25576B   26226.83432099 0.00000000  00000-0  00000-0 0    07
2 99005  70.0183 119.7337 0002916 271.3449  88.6551 14.96713894    08
StarSh
1 99033U 25617A   26220.84872083 0.00000000  00000-0  00000-0 0    00
2 99033  70.0217 119.9479 0002000  59.1782 300.8217 14.96713246    01
StarSh
1 99037U 25618E   26223.85810570 0.00000000  00000-0  00000-0 0    02
2 99037  70.0250 127.3905 0003000 203.3349 156.6650 14.96713670    01
Unk 250425
1 99040U 25615A   26126.87934276 0.00000000  00000-0  00000-0 0    07
2 99040  56.0166  82.6988 0189162 150.9235 209.0765 12.78539324    04
Unk 250427
1 99047U 25617A   25117.92299170 0.00000000  00000-0  00000-0 0    08
2 99047  54.9977  88.8817 0001000   0.0000  95.4615 15.39141516    09
StarSh
1 99049U 25635A   26236.91339868 0.00000000  00000-0  00000-0 0    01
2 99049  70.0247 169.2462 0004003 244.1544 115.8456 14.96713580    08
StarSh
1 99050U 24639A   26231.85954362 0.00000000  00000-0  00000-0 0    06
2 99050  70.0146 137.0630 0003080 308.0163  51.9836 14.96712900    06
StarSh
1 99051U 24639B   26231.86174946 0.00000000  00000-0  00000-0 0    00
2 99051  70.0214 137.0207 0002000 166.6208 193.3792 14.96713605    07
StarSh
1 99055U 25652A   26238.89169085 0.00000000  00000-0  00000-0 0    08
2 99055  70.0170 164.5127 0003000 257.7802 102.2198 14.96713472    02
StarSh
1 99057U 25653B   26238.88499113 0.00000000  00000-0  00000-0 0    08
2 99057  70.0209 164.4829 0004000 246.4622 113.5378 14.96713622    03
StarSh
1 99058U 25655A   26235.91761539 0.00000000  00000-0  00000-0 0    06
2 99058  70.0150 171.7964 0003000 294.3101  65.6899 14.96713509    02
StarSh
1 99062U 25663A   26236.90010739 0.00000000  00000-0  00000-0 0    09
2 99062  70.0172 169.6027 0003000 241.0922 118.9077 14.96713600    09
StarSh
1 99063U 24670A   26231.87068062 0.00000000  00000-0  00000-0 0    00
2 99063  70.0210 137.1217 0002000 192.1816 167.8184 14.96713444    09
StarSh
1 99064U 25675A   26237.91172376 0.00000000  00000-0  00000-0 0    02
2 99064  70.0211 271.8119 0003000 116.4074 243.5926 14.96713023    03
StarSh
1 99069U 25670B   26239.05542850 0.00000000  00000-0  00000-0 0    07
2 99069  70.0180 224.1149 0004000 274.8609  85.1391 14.96713268    08
StarSh
1 99074U 25679A   26234.92436113 0.00000000  00000-0  00000-0 0    07
2 99074  70.0182 279.3727 0002000 202.5412 157.4588 14.96713054    02
StarSh
1 99079U 25682A   26243.85306622 0.00000000  00000-0  00000-0 0    09
2 99079  70.0200 256.8007 0002000 247.8922 112.1078 14.96713093    02
StarSh
1 99080U 25682B   26243.87737574 0.00000000  00000-0  00000-0 0    07
2 99080  70.0153 152.0735 0002000 286.7559  73.2441 14.96713362    04
StarSh
1 99083U 25685A   26236.00866025 0.00000000  00000-0  00000-0 0    04
2 99083  70.0160 306.5226 0002000 241.0803 118.9197 14.96713687    07
StarSh
1 99084U 25685A   26235.91343124 0.00000000  00000-0  00000-0 0    04
2 99084  70.0130 276.7807 0004000 209.8140 150.1860 14.96713494    07
StarSh
1 99087U 25689A   26238.96934254 0.00000000  00000-0  00000-0 0    09
2 99087  70.0200 299.2402 0004000 151.6352 208.3648 14.96713600    07
Unk 250708
1 99088U 25689B   25189.06496754 0.00000000  00000-0  00000-0 0    03
2 99088  97.0000 323.5487 0002151 237.5725 122.4274 14.82214487    07
StarSh
1 99089U 25690A   26235.92014553 0.00000000  00000-0  00000-0 0    07
2 99089  70.0278 276.9630 0004000  31.6741 328.3259 14.96713200    05
StarSh
1 99090U 25694A   26237.89841880 0.00000000  00000-0  00000-0 0    02
2 99090  70.0210 272.1531 0003000 101.6306 258.3694 14.96713493    04
StarSh
1 99091U 25694B   26237.89591313 0.00000000  00000-0  00000-0 0    06
2 99091  70.0173 167.0715 0003000 293.5245  66.4755 14.96713262    02
StarSh
1 99093U 25694D   26237.97802537 0.00000000  00000-0  00000-0 0    00
2 99093  70.0175 301.8092 0002000  92.8708 267.1292 14.96713400    05
StarSh
1 99094U 25694E   26237.98026293 0.00000000  00000-0  00000-0 0    09
2 99094  70.0192 301.8368 0003000  86.4752 273.5247 14.96713287    04
StarSh
1 99095U 25694F   26236.98447060 0.00000000  00000-0  00000-0 0    08
2 99095  70.0130 304.3238 0002000 204.6276 155.3724 14.96713207    04
StarSh
1 99096U 25697A   26236.00196171 0.00000000  00000-0  00000-0 0    09
2 99096  70.0170 306.5244 0004000 186.4552 173.5448 14.96713487    01
StarSh
1 99097U 25697B   26236.01536068 0.00000000  00000-0  00000-0 0    04
2 99097  70.0207 306.6062 0001000  45.4011 314.5989 14.96713386    08
StarSh
1 99098U 25699A   26237.99365036 0.00000000  00000-0  00000-0 0    00
2 99098  70.0190 301.8497 0003000 273.0149  86.9851 14.96713527    07
StarSh
1 99099U 25702A   26244.91071951 0.00000000  00000-0  00000-0 0    06
2 99099  70.0155 284.2443 0002000 252.5685 107.4314 14.96713287    06
StarSh
1 99103U 25704D   26235.99527866 0.00000000  00000-0  00000-0 0    03
2 99103  70.0152 306.4787 0002000 214.0912 145.9088 14.96713331    08
StarSh
1 99107U 25710A   25209.98047296 0.00000000  00000-0  00000-0 0    07
2 99107  69.9951 164.4849 0002000 133.5049 226.4951 14.96714506    02
StarSh
1 99109U 25710C   25210.97174921 0.00000000  00000-0  00000-0 0    06
2 99109  69.9951 161.9242 0004000 101.9702 258.0297 14.96714506    04
StarSh
1 99112U 25711B   26237.91617115 0.00000000  00000-0  00000-0 0    02
2 99112  70.0215 271.8161 0002000 326.7489  33.2511 14.96713600    08
StarSh
1 99118U 25716B   26237.87413218 0.00000000  00000-0  00000-0 0    06
2 99118  70.0215 257.0639 0005622 154.0853 205.9146 14.96713682    02
StarSh
1 99119U 25718A   26243.89066657 0.00000000  00000-0  00000-0 0    09
2 99119  70.0220 271.7810 0002000  87.9307 272.0692 14.96713600    09
StarSh
1 99123U 25719B   26235.97110680 0.00000000  00000-0  00000-0 0    01
2 99123  70.0120 291.7778 0004000 215.0311 144.9689 14.96713700    03
StarSh
1 99124U 25719C   26234.98201981 0.00000000  00000-0  00000-0 0    07
2 99124  70.0231 294.4313 0002000  91.6656 268.3343 14.96713845    08
StarSh
1 99127U 25720B   26244.12291072 0.00000000  00000-0  00000-0 0    09
2 99127  70.0250 241.1625 0003000 173.8934 186.1065 14.96713235    01
StarSh
1 99128U 25720C   26224.04408858 0.00000000  00000-0  00000-0 0    01
2 99128  70.0150 306.7756 0003000 188.2694 171.7306 14.96713563    09
StarSh
1 99130U 25721B   26220.84197514 0.00000000  00000-0  00000-0 0    03
2 99130  70.0200 119.7167 0002000 265.4928  94.5072 14.96713490    04
StarSh
1 99131U 25721C   26224.99564937 0.00000000  00000-0  00000-0 0    01
2 99131  70.0158 289.4796 0004000 190.9828 169.0172 14.96713237    01
StarSh
1 99132U 25721D   26225.03988082 0.00000000  00000-0  00000-0 0    09
2 99132  70.0150 304.2274 0004000 216.4530 143.5469 14.96713643    02
StarSh
1 99133U 25722A   26231.93279108 0.00000000  00000-0  00000-0 0    09
2 99133  70.0221 272.0627 0003000  50.5509 309.4490 14.96713556    08
StarSh
1 99134U 25722B   26237.95599647 0.00000000  00000-0  00000-0 0    01
2 99134  70.0280 286.7953 0003000  86.9684 273.0316 14.96713600    08
StarSh
1 99135U 25722C   26235.95773012 0.00000000  00000-0  00000-0 0    00
2 99135  70.0190 291.7571 0003000 209.8225 150.1775 14.96713400    00
StarSh
1 99136U 25721E   26220.04337317 0.00000000  00000-0  00000-0 0    08
2 99136  70.0191 301.9171 0002000 154.5781 205.4219 14.96713606    09
StarSh
1 99137U 25723A   26236.85828490 0.00000000  00000-0  00000-0 0    04
2 99137  70.0185 259.4915 0002000 240.2036 119.7964 14.96713499    06
StarSh
1 99139U 25724A   26244.12961083 0.00000000  00000-0  00000-0 0    02
2 99139  70.0260 241.2216 0002000 164.3368 195.6632 14.96713399    03
StarSh
1 99140U 25724B   26227.96292471 0.00000000  00000-0  00000-0 0    05
2 99140  70.0190 281.8517 0003000  49.2967 310.7033 14.96713749    02
StarSh
1 99141U 25724C   26237.89171681 0.00000000  00000-0  00000-0 0    08
2 99141  70.0170 272.0769 0003000 176.8488 183.1511 14.96713560    01
StarSh
1 99142U 25724D   26233.99282337 0.00000000  00000-0  00000-0 0    07
2 99142  70.0220 296.6103 0003000  53.0295 306.9705 14.96713860    07
StarSh
1 99143U 25724F   26177.89152259 0.00000000  00000-0  00000-0 0    03
2 99143  70.0210  92.7370 0004000  85.3396 274.6604 14.96713330    00
StarSh
1 99144U 25725A   26224.05079578 0.00000000  00000-0  00000-0 0    08
2 99144  70.0260 306.9127 0005000  87.9676 272.0323 14.96713223    07
StarSh
1 99146U 25729B   26235.97777487 0.00000000  00000-0  00000-0 0    01
2 99146  70.0250 291.9162 0004000 110.1034 249.8965 14.96713800    01
StarSh
1 99149U 25730A   26237.92931373 0.00000000  00000-0  00000-0 0    09
2 99149  70.0120 286.9828 0004000 213.9171 146.0829 14.96713743    00
Unk 250731
1 99150U 25710A   25212.06744631 0.00000000  00000-0  00000-0 0    05
2 99150  97.9322 347.6919 0387807 291.8490  68.1973 14.18064820    01
Unk 250726
1 99151U 25707C   26084.15326971 0.00026600  00000-0  95148-3 0    07
2 99151  98.1968 251.1221 0002000 349.3772  10.6227 15.28825151    05
StarSh
1 99155U 25732A   26234.96193935 0.00000000  00000-0  00000-0 0    03
2 99155  70.0160 294.3117 0003000 156.7207 203.2793 14.96713400    04
StarSh
1 99158U 25760A   26223.89789063 0.00000000  00000-0  00000-0 0    00
2 99158  70.0250 142.1182 0004000 237.0103 122.9897 14.96713656    03
StarSh
1 99159U 25772A   26236.90680675 0.00000000  00000-0  00000-0 0    09
2 99159  70.0160 169.6298 0003000 298.7695  61.2304 14.96713500    01
StarSh
1 99160U 25773A   26238.87830583 0.00000000  00000-0  00000-0 0    05
2 99160  70.0173 164.4675 0003000 304.7590  55.2410 14.96713562    00
USA 521X
1 99168U 25077X   25325.19207175 0.00000000  00000-0  00000-0 0    06
2 99168  63.3915  23.0885 0018000 256.4103 103.5897 13.38803500    02
StarSh
1 99177U 26521A   26021.72463407 0.00000000  00000-0  00000-0 0    06
2 99177  69.9920 259.7308 0002000 292.4999  67.4999 14.96713455    09
StarSh
1 99179U 26522A   26022.72821997 0.00000000  00000-0  00000-0 0    02
2 99179  69.9920 257.2597 0002000 290.9658  69.0341 14.96713455    08
StarSh
1 99182U 26661A   26213.85874744 0.00000010  00000-0  23003-6 0    09
2 99182  70.0220 115.0371 0002000 299.4874  60.5125 15.42477372    06
StarSh
1 99183U 26662A   26162.05373334 0.00000000  00000-0  00000-0 0    00
2 99183  70.0000 253.7907 0002000  24.7454 335.2546 15.72454435    08
StarSh
1 99184U 26662B   26162.05524491 0.00000000  00000-0  00000-0 0    03
2 99184  70.0000 253.8007 0002000  24.7454 335.2546 15.72454435    01
StarSh
1 99185U 26662C   26162.05668935 0.00000000  00000-0  00000-0 0    06
2 99185  70.0000 253.8067 0002000  24.7454 335.2546 15.72454435    08
StarSh
1 99186U 26662D   26162.05729236 0.00000000  00000-0  00000-0 0    09
2 99186  70.0000 253.8067 0002000  24.7454 335.2546 15.72454435    09
StarSh
1 99187U 26662E   26162.05789653 0.00000000  00000-0  00000-0 0    09
2 99187  70.0000 253.8107 0002000  24.7454 335.2546 15.72454435    05
StarSh
1 99188U 26661B   26161.07004051 0.00000000  00000-0  00000-0 0    02
2 99188  70.0000 257.1701 0002000  26.3859 333.6141 15.45954435    08
StarSh
1 99189U 26664A   26164.03407461 0.00000000  00000-0  00000-0 0    07
2 99189  70.0000 248.2685 0002000  21.3549 338.6450 15.72454435    05
StarSh
1 99190U 26672A   26172.93757317 0.00000000  00000-0  00000-0 0    04
2 99190  70.0000 223.1540 0002000   6.0432 353.9568 15.72454435    00
StarSh
1 99191U 26674A   26174.91800011 0.00000000  00000-0  00000-0 0    07
2 99191  70.0000 217.6318 0002000   2.6527 357.3473 15.72454435    02
StarSh
1 99192U 26674B   26195.02190470 0.00000000  00000-0  00000-0 0    04
2 99192  70.0000 161.0975 0002000 328.0919  31.9081 15.60454435    01
StarSh train
1 99193U 26675C   26175.91395765 0.00000000  00000-0  00000-0 0    06
2 99193  70.0000 101.3685 0002000   0.9331 359.0669 15.46054435    07
StarSh
1 99194U 26676A   26176.90721706 0.00000000  00000-0  00000-0 0    06
2 99194  70.0100 214.5426 0002000   0.3722 359.6277 15.37454435    02
StarSh
1 99195U 26677A   26177.90223043 0.00000000  00000-0  00000-0 0    00
2 99195  70.0000 211.8937 0002000 358.5890   1.4109 15.45954435    03
StarSh
1 99196U 26679A   26211.90234780 0.00000000  00000-0  00000-0 0    02
2 99196  70.0130 127.1459 0003000 330.9682  29.0317 14.96713300    06
StarSh
1 99197U 26696A   26196.01288642 0.00000000  00000-0  00000-0 0    02
2 99197  70.0000 158.5351 0002000 350.7642   9.2357 15.51713384    05
StarSh
1 99198U 26696B   26217.83038589 0.00000000  00000-0  00000-0 0    00
2 99198  70.0140 112.4681 0002000  86.8428 273.1571 14.96713300    01
StarSh
1 99200U 25816A   26243.88178060 0.00000000  00000-0  00000-0 0    00
2 99200  70.0170 151.8593 0004000 218.2249 141.7750 14.96713518    01
StarSh
1 99201U 25816B   26237.93595790 0.00000000  00000-0  00000-0 0    03
2 99201  70.0140 166.7999 0002000 272.4570  87.5429 14.96713550    07
StarSh
1 99202U 25835A   26217.83706564 0.00000000  00000-0  00000-0 0    05
2 99202  70.0250 112.3717 0002000 241.7906 118.2093 14.96713600    02
StarSh
1 99203U 26508A   26237.94929767 0.00000000  00000-0  00000-0 0    00
2 99203  70.0199 286.6984 0002500 158.2167 201.7832 14.96713698    08
StarSh
1 99204U 26573A   26237.86750131 0.00000000  00000-0  00000-0 0    01
2 99204  70.0260 257.2499 0003000  75.7408 284.2592 14.96713553    09
StarSh
1 99206U 25805A   26233.89090321 0.00000000  00000-0  00000-0 0    07
2 99206  70.0124 266.8091 0002000 115.9690 244.0309 14.96713361    00
StarSh
1 99207U 25855B   26235.97551852 0.00000000  00000-0  00000-0 0    05
2 99207  70.0170 291.6310 0001000 122.2153 237.7847 14.96713748    01
StarSh
1 99208U 25859A   26223.01521408 0.00000000  00000-0  00000-0 0    06
2 99208  70.0167 294.5062 0003000 332.9241  27.0759 14.96713064    07
StarSh
1 99209U 26695E   26195.05177962 0.00000000  00000-0  00000-0 0    00
2 99209  70.0130 169.7294 0002000 196.8132 163.1867 14.96713400    09
StarSh
1 99210U 26695F   26195.05400763 0.00000000  00000-0  00000-0 0    00
2 99210  70.0130 169.7534 0002000 196.8132 163.1867 14.96713400    08
Unk
1 99211U 26193A   26197.30168067 0.00000000  00000-0  00000-0 0    02
2 99211  99.0851 333.5930 0263654 273.6053  83.5783 13.75841326    08
StarSh
1 99212U 26698A   26211.88361848 0.00000000  00000-0  00000-0 0    05
2 99212  70.0220 120.1671 0002000 302.6946  57.3054 15.42477035    08
StarSh
1 99213U 26698B   26214.86302642 0.00000000  00000-0  00000-0 0    04
2 99213  70.0180 119.7434 0002000 321.0200  38.9799 14.96713462    09
StarSh
1 99214U 26701A   26201.97194605 0.00000000  00000-0  00000-0 0    06
2 99214  70.0200 148.0364 0002000 319.4042  40.5958 15.23754435    07
StarSh
1 99215U 26701B   26207.92586055 0.00000000  00000-0  00000-0 0    02
2 99215  70.0170 137.2419 0002000 331.6919  28.3081 14.96713362    08
StarSh
1 99216U 26709A   26214.84046959 0.00000000  00000-0  00000-0 0    04
2 99216  70.0220 112.8550 0002000 297.9013  62.0987 15.40004135    00
StarSh
1 99217U 26709B   26209.91298084 0.00000000  00000-0  00000-0 0    05
2 99217  70.0100 127.1810 0002000 306.6929  53.3070 15.24354435    09
Unk
1 99218U 26708B   26208.85322716 0.00000000  00000-0  00000-0 0    07
2 99218  97.3000  71.6136 0002000 301.0645  58.9353 15.87546037    04
StarSh
1 99219U 26708A   26208.04846242 0.00000000  00000-0  00000-0 0    04
2 99219  70.0120 180.6177 0002000 304.0883  55.9116 15.39077805    02
StarSh
1 99220U 26705B   26205.91614898 0.00000000  00000-0  00000-0 0    06
2 99220  70.0120 131.3331 0002000 299.4017  60.5983 15.44677805    01
StarSh
1 99221U 26710A   26210.87851171 0.00000000  00000-0  00000-0 0    01
2 99221  70.0000 118.1198 0002000 325.9455  34.0544 15.42313384    00
StarSh
1 99222U 26711B   26215.84769477 0.00000000  00000-0  00000-0 0    02
2 99222  70.0151 117.1630 0004000 217.4959 142.6879 14.96713277    04
StarSh
1 99223U 26713A   26213.84126040 0.00000000  00000-0  00000-0 0    06
2 99223  70.0000 110.0415 0002000 321.0022  38.9978 15.43113384    05
StarSh
1 99224U 26713B   26213.84189119 0.00000000  00000-0  00000-0 0    03
2 99224  70.0000 110.0455 0002000 321.0022  38.9978 15.43113384    00
StarSh
1 99225U 26713C   26213.84334373 0.00000000  00000-0  00000-0 0    08
2 99225  70.0000 110.0495 0002000 321.0022  38.9978 15.43113384    05
StarSh
1 99226U 26715B   26215.85213229 0.00000000  00000-0  00000-0 0    00
2 99226  70.0130 117.1796 0003000 324.9172  35.0828 14.96713300    04
StarSh
1 99227U 26727A   26227.10220155 0.00000000  00000-0  00000-0 0    01
2 99227  70.0192 329.0332 0002000 100.1270 259.8729 14.96713587    08
StarSh
1 99228U 26728A   26228.09130577 0.00000000  00000-0  00000-0 0    00
2 99228  70.0192 326.8610 0002000 101.6667 258.3333 14.96713687    05
StarSh
1 99229U 26736A   26236.01759994 0.00000000  00000-0  00000-0 0    01
2 99229  70.0200 306.7654 0004000 156.1521 203.8479 14.96713600    08
USA 619
1 A0178U 26174A   26240.90420688 0.00000000  00000-0  00000-0 0    00
2 A0178  63.4208 244.8857 0131364 179.3395 180.6605 13.40644567    00
