COSMOS 2251             
1 22675U 93036A   26283.27980341  .00000061  00000+0  31365-4 0  9996
2 22675  74.0373 124.9080 0024057 138.0224 222.2777 14.33272537740939
COSMOS 2251 DEB         
1 33757U 93036E   26283.28796359  .00000060  00000+0  31421-4 0  9996
2 33757  74.0349 133.1005 0013708  76.6607  42.2684 14.32640722923144
COSMOS 2251 DEB         
1 33758U 93036F   26282.94118523  .00001888  00000+0  46095-3 0  9991
2 33758  74.0291   6.7733 0016959 358.3778 121.3737 14.53266700926788
COSMOS 2251 DEB         
1 33760U 93036H   26282.92911426  .00000157  00000+0  63083-4 0  9990
2 33760  74.0297  88.6150 0019562 118.6130   3.5630 14.35819444924477
COSMOS 2251 DEB         
1 33761U 93036J   26282.39574111  .00000769  00000+0  23575-3 0  9998
2 33761  74.0359  53.9695 0022179  63.0039 322.5228 14.43215563925711
COSMOS 2251 DEB         
1 33762U 93036K   26283.02386021  .00000075  00000+0  36174-4 0  9991
2 33762  74.0391 119.1818 0014281 113.1272  11.9112 14.33736789923650
COSMOS 2251 DEB         
1 33764U 93036M   26282.91178650  .00000551  00000+0  18285-3 0  9998
2 33764  74.0320  76.2679 0022549 325.8950 196.5984 14.39994394924914
COSMOS 2251 DEB         
1 33765U 93036N   26283.32894326  .00054232  00000+0  16904-2 0  9990
2 33765  73.9971 258.4660 0047282 267.3375  92.2416 15.31877330942040
COSMOS 2251 DEB         
1 33766U 93036P   26283.30785992  .00000798  00000+0  27888-3 0  9999
2 33766  74.1852 306.9355 0061260  63.5524 297.1897 14.35716415920725
COSMOS 2251 DEB         
1 33768U 93036R   26283.24366350  .00000188  00000+0  18400-3 0  9990
2 33768  74.0667  93.1333 0366587 184.0592 349.8664 13.58647330873902
COSMOS 2251 DEB         
1 33779U 93036U   26283.11770286  .00010143  00000+0  14639-2 0  9996
2 33779  74.0429 303.0710 0017502 268.6923 147.4380 14.76233956929689
COSMOS 2251 DEB         
1 33782U 93036X   26282.87647976  .00000766  00000+0  24572-3 0  9999
2 33782  74.0311  80.2837 0019988  75.3221  74.7606 14.41071651924638
COSMOS 2251 DEB         
1 33785U 93036AA  26283.19234969  .00008198  00000+0  12019-2 0  9991
2 33785  73.8651 185.9687 0015582  66.4022  55.1739 14.75633885929474
COSMOS 2251 DEB         
1 33789U 93036AE  26283.42296448  .00000532  00000+0  36317-3 0  9993
2 33789  74.0616 295.2199 0240624 339.9377  85.3775 13.89132179892842
COSMOS 2251 DEB         
1 33791U 93036AG  26283.51705203  .00001242  00000+0  36650-3 0  9999
2 33791  74.1735 201.2020 0029306 302.2524 231.4460 14.44315993924072
COSMOS 2251 DEB         
1 33792U 93036AH  26283.54996737  .00000195  00000+0  20754-3 0  9991
2 33792  73.8993 223.0878 0431541 234.3914 248.0870 13.46243779865036
COSMOS 2251 DEB         
1 33793U 93036AJ  26283.17737492  .00000865  00000+0  34464-3 0  9999
2 33793  73.9810 321.6350 0076120  42.0947  14.6901 14.28515518915104
COSMOS 2251 DEB         
1 33795U 93036AL  26283.08508541  .00027189  00000+0  12554-2 0  9995
2 33795  74.0434 171.7537 0028742 179.4075 299.8580 15.19726677945794
COSMOS 2251 DEB         
1 33797U 93036AN  26283.42448067  .00001043  00000+0  22322-3 0  9997
2 33797  74.0463 181.0045 0062241 192.4251 285.6953 14.58909603933832
COSMOS 2251 DEB         
1 33798U 93036AP  26282.79007019  .00000267  00000+0  81040-4 0  9995
2 33798  74.0278 295.0214 0091652 341.4242 193.8927 14.44870211929412
COSMOS 2251 DEB         
1 33799U 93036AQ  26282.79230242  .00009962  00000+0  11130-2 0  9994
2 33799  74.0315 205.2222 0024532 204.9350 186.4494 14.86839910932769
COSMOS 2251 DEB         
1 33805U 93036AW  26282.93288819  .00000814  00000+0  17770-3 0  9995
2 33805  74.0282  98.0432 0061129 210.6665 149.0922 14.58440800936172
COSMOS 2251 DEB         
1 33811U 93036BC  26282.64097380  .00030912  00000+0  15127-2 0  9996
2 33811  73.8284  32.1761 0028087  50.2845  11.8448 15.17709860945658
COSMOS 2251 DEB         
1 33816U 93036BH  26283.42552515  .00000515  00000+0  38292-3 0  9999
2 33816  73.8945 313.8458 0266694 269.9606  87.0960 13.82162830888415
COSMOS 2251 DEB         
1 33818U 93036BK  26283.26847472  .00237830  00000+0  32048-2 0  9996
2 33818  74.0642 244.8351 0010914 193.3043 166.7888 15.56871657944779
COSMOS 2251 DEB         
1 33819U 93036BL  26283.54837787  .00001422  00000+0  50515-3 0  9992
2 33819  74.1811  23.4551 0087489 160.3650 211.2612 14.33133561918187
COSMOS 2251 DEB         
1 33821U 93036BN  26283.53940004  .00048409  00000+0  96445-3 0  9999
2 33821  74.0228 214.2749 0033448 171.0104 189.1713 15.46044220796344
COSMOS 2251 DEB         
1 33822U 93036BP  26282.73832074  .00000847  00000+0  40641-3 0  9999
2 33822  74.0692  21.5337 0153030 354.5050 157.5398 14.14480432903082
COSMOS 2251 DEB         
1 33823U 93036BQ  26283.25533508  .00000614  00000+0  36397-3 0  9993
2 33823  73.8114 340.6068 0206390  52.9682  10.2224 13.99535405898273
COSMOS 2251 DEB         
1 33825U 93036BS  26283.35702694  .00004758  00000+0  69924-3 0  9995
2 33825  73.9819 158.9744 0075150  53.3770  65.9422 14.73829536933181
COSMOS 2251 DEB         
1 33826U 93036BT  26283.53291189  .00004628  00000+0  10317-2 0  9995
2 33826  74.0643 200.7579 0081898 170.1853   4.2276 14.55069826921545
COSMOS 2251 DEB         
1 33828U 93036BV  26283.02990949  .00000900  00000+0  26407-3 0  9998
2 33828  74.0475  37.4195 0028369  35.4621  81.5883 14.45062312926649
COSMOS 2251 DEB         
1 33830U 93036BX  26283.24382701  .00003193  00000+0  42182-3 0  9991
2 33830  74.0331 357.5535 0040454  39.4946  19.2511 14.79883642939284
COSMOS 2251 DEB         
1 33832U 93036BZ  26283.46390356  .00003708  00000+0  71160-3 0  9992
2 33832  74.0565 352.4985 0024830 307.4993  65.4934 14.63888887928366
COSMOS 2251 DEB         
1 33835U 93036CC  26283.66185451  .00002648  00000+0  49478-3 0  9994
2 33835  74.0551 242.3799 0056049 218.6489 316.5528 14.64444796932063
COSMOS 2251 DEB         
1 33836U 93036CD  26283.52085275  .00006993  00000+0  83352-3 0  9999
2 33836  73.9980  20.8867 0021339 153.7655 219.4491 14.84320298685608
COSMOS 2251 DEB         
1 33837U 93036CE  26283.48363436  .00000667  00000+0  17378-3 0  9990
2 33837  74.0124 207.2312 0034017 352.7890   7.2777 14.51208475931729
COSMOS 2251 DEB         
1 33838U 93036CF  26283.42905185  .00000812  00000+0  22008-3 0  9996
2 33838  74.0358 304.4389 0027134 346.8875  79.0722 14.49069731929385
COSMOS 2251 DEB         
1 33839U 93036CG  26283.21293797  .00000607  00000+0  11332-3 0  9993
2 33839  74.0407 346.8172 0083253  21.3710  36.8502 14.65087912939947
COSMOS 2251 DEB         
1 33841U 93036CJ  26283.19355168  .00000391  00000+0  13707-3 0  9992
2 33841  74.0357  82.8451 0019905  93.5340  81.0507 14.38180504924474
COSMOS 2251 DEB         
1 33842U 93036CK  26283.53292679  .00000570  00000+0  17510-3 0  9993
2 33842  74.0356  19.1916 0045935  52.4921 308.0397 14.43205658926907
COSMOS 2251 DEB         
1 33844U 93036CM  26283.57713178  .00000618  00000+0  22634-3 0  9997
2 33844  74.0657 221.4003 0048249 170.8908   2.6477 14.34294317920527
COSMOS 2251 DEB         
1 33848U 93036CR  26283.38766561  .00001964  00000+0  55547-3 0  9998
2 33848  74.0291 155.4583 0042815 142.3442  30.9866 14.45752533921881
COSMOS 2251 DEB         
1 33892U 93036CV  26283.39075384  .00000925  00000+0  38644-3 0  9999
2 33892  73.8000 271.3174 0115785 249.2424 183.0299 14.24110620912481
COSMOS 2251 DEB         
1 33894U 93036CX  26283.08150092  .00000621  00000+0  65398-3 0  9996
2 33894  73.7634 242.6557 0567828 119.4832 246.4138 13.22018960846899
COSMOS 2251 DEB         
1 33896U 93036CZ  26283.23875605  .00000857  00000+0  38689-3 0  9993
2 33896  73.7674 328.9237 0122276  94.1573 333.1434 14.19770636910182
COSMOS 2251 DEB         
1 33899U 93036DC  26282.95630016  .00001952  00000+0  37723-3 0  9994
2 33899  74.0513 229.3577 0057491 214.7250 209.7763 14.63071973932421
COSMOS 2251 DEB         
1 33900U 93036DD  26283.39519119  .00001057  00000+0  22628-3 0  9990
2 33900  74.0166 144.5803 0048201 220.4683 314.9755 14.59352255934355
COSMOS 2251 DEB         
1 33905U 93036DJ  26282.82405623  .00000886  00000+0  30698-3 0  9991
2 33905  73.8838 118.9175 0056699 304.5921  68.0268 14.36288804920094
COSMOS 2251 DEB         
1 33906U 93036DK  26282.53088128  .00004599  00000+0  93642-3 0  9990
2 33906  74.0260 107.7957 0034830  71.1800 320.1381 14.60940568923963
COSMOS 2251 DEB         
1 33907U 93036DL  26283.49341730  .00002657  00000+0  90223-3 0  9993
2 33907  74.0676 203.9610 0115396 186.3496 291.4757 14.33429950909000
COSMOS 2251 DEB         
1 33908U 93036DM  26282.30587832  .00001148  00000+0  54114-3 0  9991
2 33908  73.8364  31.4169 0219351   0.3894 359.7372 14.09186478897058
COSMOS 2251 DEB         
1 33911U 93036DQ  26283.05759685  .00008999  00000+0  11506-2 0  9993
2 33911  74.0876 291.5118 0008969 163.2808 261.5691 14.81470366930987
COSMOS 2251 DEB         
1 33912U 93036DR  26283.20975112  .00001416  00000+0  34684-3 0  9996
2 33912  74.0348 341.0041 0011790 340.2376  76.1494 14.53386081928113
COSMOS 2251 DEB         
1 33913U 93036DS  26283.20683785  .00000906  00000+0  24065-3 0  9994
2 33913  74.0348 338.2973 0047152   4.3240  51.6037 14.49457992928245
COSMOS 2251 DEB         
1 33914U 93036DT  26283.64942566  .00000486  00000+0  40086-3 0  9992
2 33914  74.0890 237.3348 0305031 270.0035 268.4232 13.72303413882225
COSMOS 2251 DEB         
1 33915U 93036DU  26283.55778734  .00000659  00000+0  22278-3 0  9992
2 33915  74.0429 200.5983 0106674 219.1021 316.8721 14.35749288920882
COSMOS 2251 DEB         
1 33916U 93036DV  26283.30568611  .00000474  00000+0  39916-3 0  9999
2 33916  74.0493 265.0035 0323652   9.6077  52.5241 13.68830978880178
COSMOS 2251 DEB         
1 33917U 93036DW  26282.61416590  .00000988  00000+0  77913-3 0  9990
2 33917  74.1075 348.7061 0331680  18.0754 343.1828 13.70069465878535
COSMOS 2251 DEB         
1 33920U 93036DZ  26282.89307180  .00004214  00000+0  84040-3 0  9993
2 33920  74.0574  84.1537 0033530  18.4415 341.7959 14.61944045925115
COSMOS 2251 DEB         
1 33922U 93036EB  26283.12619059  .00000802  00000+0  21237-3 0  9991
2 33922  74.0457 302.2279 0023437 332.2890  90.4248 14.50277936929460
COSMOS 2251 DEB         
1 33924U 93036ED  26283.03705166  .00000363  00000+0  36079-3 0  9990
2 33924  73.9112 145.7643 0401327 126.3857 237.4981 13.50543921868060
COSMOS 2251 DEB         
1 33928U 93036EH  26282.78413909  .00000573  00000+0  15883-3 0  9999
2 33928  73.9253 205.4822 0058881  74.7927 285.9732 14.47923678930015
COSMOS 2251 DEB         
1 33932U 93036EM  26283.22804643  .00000773  00000+0  25465-3 0  9992
2 33932  74.0311 119.5175 0035952 125.5568 234.8948 14.39419142923351
COSMOS 2251 DEB         
1 33933U 93036EN  26283.54721867  .00000466  00000+0  17102-3 0  9992
2 33933  74.0877 229.7800 0071268 162.9220 197.4355 14.33980565921101
COSMOS 2251 DEB         
1 33934U 93036EP  26283.61810674  .00002716  00000+0  55913-3 0  9998
2 33934  74.0356 244.3734 0017709 283.5401  76.3792 14.60946956931459
COSMOS 2251 DEB         
1 33936U 93036ER  26283.42492408  .00001658  00000+0  33595-3 0  9996
2 33936  74.0165 180.0294 0028577 255.7592 104.0400 14.61855295932961
COSMOS 2251 DEB         
1 33938U 93036ET  26283.59651944  .00000956  00000+0  26613-3 0  9991
2 33938  74.0474   3.1238 0016319   7.4339  59.2840 14.47649560927672
COSMOS 2251 DEB         
1 33939U 93036EU  26283.40143151  .00994614  00000+0  81728-2 0  9998
2 33939  73.9811 164.3753 0018830 164.4682 195.7123 15.67655013933437
COSMOS 2251 DEB         
1 33940U 93036EV  26283.10156679  .00002513  00000+0  51785-3 0  9995
2 33940  74.0367 288.4640 0013748 287.7007 139.3801 14.60973056929921
COSMOS 2251 DEB         
1 33942U 93036EX  26283.14400554  .00000383  00000+0  13413-3 0  9994
2 33942  74.0346  79.5663 0019644  93.1370  24.3446 14.38306668924676
COSMOS 2251 DEB         
1 33944U 93036EZ  26283.29644500  .00000568  00000+0  18356-3 0  9999
2 33944  74.0375 113.8748 0112575 140.3071  33.5329 14.37788956923614
COSMOS 2251 DEB         
1 33945U 93036FA  26283.21697553  .00000202  00000+0  80279-4 0  9997
2 33945  74.0271 113.7653 0022065 131.9411 228.3626 14.34780852923395
COSMOS 2251 DEB         
1 33948U 93036FD  26282.53330823  .00000259  00000+0  98139-4 0  9994
2 33948  74.0330 113.1203 0022638 120.3671 239.9724 14.35883384923409
COSMOS 2251 DEB         
1 33971U 93036FE  26282.85605634  .00000505  00000+0  16793-3 0  9999
2 33971  74.0248  56.9943 0017854  88.1061  68.4539 14.40143658924731
COSMOS 2251 DEB         
1 33972U 93036FF  26282.90344969  .00002546  00000+0  77088-3 0  9998
2 33972  73.9966 354.6091 0118453  91.8489  27.2461 14.38803921914022
COSMOS 2251 DEB         
1 33973U 93036FG  26283.05717994  .00000303  00000+0  92349-4 0  9995
2 33973  74.0063 260.1658 0045855   4.5836  64.2734 14.45624130929543
COSMOS 2251 DEB         
1 33975U 93036FJ  26283.25666417  .00000355  00000+0  21782-3 0  9991
2 33975  73.7988 274.2443 0190616 354.4347   5.4663 14.00876851900519
COSMOS 2251 DEB         
1 33980U 93036FP  26283.52165172  .00001979  00000+0  41479-3 0  9997
2 33980  74.0193 203.3934 0029941 268.3401 267.0741 14.60147445931974
COSMOS 2251 DEB         
1 33982U 93036FR  26283.39774515  .00001147  00000+0  22942-3 0  9992
2 33982  74.0679 144.5957 0073565 111.4731  60.7790 14.61341839935645
COSMOS 2251 DEB         
1 33983U 93036FS  26282.80748708  .00000977  00000+0  25033-3 0  9997
2 33983  74.0484 301.0705 0021834 322.6262 210.3879 14.51580765929969
COSMOS 2251 DEB         
1 33984U 93036FT  26283.28201685  .00002443  00000+0  42404-3 0  9990
2 33984  74.0053 123.5918 0023338 239.4125 235.2753 14.68627363934900
COSMOS 2251 DEB         
1 33986U 93036FV  26283.27909918  .00001210  00000+0  35591-3 0  9995
2 33986  74.0329 101.9794 0041098 103.7135  70.6972 14.44288319923806
COSMOS 2251 DEB         
1 33990U 93036FZ  26283.43046414  .00000337  00000+0  33496-3 0  9992
2 33990  73.9268 161.5237 0404297 125.9135  45.7736 13.50312858868019
COSMOS 2251 DEB         
1 33992U 93036GB  26282.95641667  .00002631  00000+0  45275-3 0  9998
2 33992  74.0203 115.6178 0052638 158.1519 321.7225 14.68222498935439
COSMOS 2251 DEB         
1 33994U 93036GD  26283.28135760  .00000153  00000+0  55182-4 0  9995
2 33994  74.0456 352.3086 0022142  52.0340  10.1290 14.41374674927640
COSMOS 2251 DEB         
1 33995U 93036GE  26283.29750151  .00001331  00000+0  45768-3 0  9991
2 33995  74.0583 287.0298 0061909 228.0877 131.4988 14.35936690918461
COSMOS 2251 DEB         
1 33999U 93036GJ  26283.20350765  .00007874  00000+0  81427-3 0  9993
2 33999  73.9171 346.1084 0037766 170.2684 189.9238 14.89720627937315
COSMOS 2251 DEB         
1 34001U 93036GL  26282.92154882  .00000301  00000+0  10948-3 0  9996
2 34001  74.0364  87.6423 0019400  99.2061  53.0695 14.37357084924730
COSMOS 2251 DEB         
1 34003U 93036GN  26282.61689004  .00001383  00000+0  92169-3 0  9999
2 34003  74.0750 138.1391 0275433 179.9836 180.1350 13.85184020885908
COSMOS 2251 DEB         
1 34004U 93036GP  26282.48932116  .00002153  00000+0  54674-3 0  9995
2 34004  74.0312 108.0403 0030791  52.0561 308.3375 14.51101205923907
COSMOS 2251 DEB         
1 34005U 93036GQ  26283.52262633  .00000195  00000+0  69523-4 0  9996
2 34005  74.0478  15.9753 0019452  60.2399 312.4802 14.40491215927249
COSMOS 2251 DEB         
1 34006U 93036GR  26282.92681667  .00111073  00000+0  42045-2 0  9998
2 34006  74.0511 242.2969 0004629 217.9986 202.6059 15.26387021932148
COSMOS 2251 DEB         
1 34007U 93036GS  26283.28944805  .00002117  00000+0  38063-3 0  9999
2 34007  74.0152 125.3930 0045895 184.1698 175.9096 14.66640046934983
COSMOS 2251 DEB         
1 34008U 93036GT  26283.33670617  .00000170  00000+0  71089-4 0  9996
2 34008  74.0327 139.2680 0022542  63.4445 109.2384 14.33303464922854
COSMOS 2251 DEB         
1 34009U 93036GU  26283.09190869  .00000194  00000+0  79471-4 0  9995
2 34009  74.0358 146.1414 0027089 146.6649 341.6009 14.33408977922639
COSMOS 2251 DEB         
1 34011U 93036GW  26282.94869411  .00001434  00000+0  43192-3 0  9995
2 34011  74.0115 130.5274 0038035 144.7090 215.6597 14.43047445922593
COSMOS 2251 DEB         
1 34014U 93036GZ  26282.83945985  .00004458  00000+0  64450-3 0  9996
2 34014  74.0163  51.7260 0036886 115.6259  39.6888 14.76015964937426
COSMOS 2251 DEB         
1 34015U 93036HA  26283.39732933  .00003053  00000+0  61024-3 0  9990
2 34015  74.0222 302.1810 0022737 317.9998 104.8105 14.62175674929376
COSMOS 2251 DEB         
1 34018U 93036HD  26282.53472152  .00000354  00000+0  27291-3 0  9991
2 34018  73.8761 302.1641 0266874 282.6001 235.5627 13.81379539888103
COSMOS 2251 DEB         
1 34019U 93036HE  26283.55819134  .00001521  00000+0  53287-3 0  9991
2 34019  73.9524 215.1581 0061576 325.6220 208.7025 14.34923918918485
COSMOS 2251 DEB         
1 34021U 93036HG  26283.30531704  .00000921  00000+0  24069-3 0  9990
2 34021  74.0338 283.1719 0020400 345.9818  26.9583 14.50708017930022
COSMOS 2251 DEB         
1 34022U 93036HH  26282.87293196  .00000372  00000+0  12798-3 0  9998
2 34022  74.0526  75.7468 0021594  68.1951  82.2221 14.39293392925272
COSMOS 2251 DEB         
1 34023U 93036HJ  26283.61832856  .00000635  00000+0  20526-3 0  9994
2 34023  74.0251  52.7958 0017753  78.3792 293.8711 14.41056637925620
COSMOS 2251 DEB         
1 34024U 93036HK  26283.01028669  .00000280  00000+0  10575-3 0  9997
2 34024  74.0440 123.6810 0020462 105.2951  11.1485 14.35650046923471
COSMOS 2251 DEB         
1 34026U 93036HM  26283.52478473  .00001100  00000+0  90783-3 0  9998
2 34026  73.7674 195.2673 0346117  18.3616 155.5171 13.65840256876513
COSMOS 2251 DEB         
1 34028U 93036HP  26282.89956669  .00000427  00000+0  50343-3 0  9996
2 34028  73.8808 245.3728 0546051 332.4993  52.6160 13.20836857849844
COSMOS 2251 DEB         
1 34031U 93036HS  26283.17615797  .00003138  00000+0  62710-3 0  9999
2 34031  74.0099 278.6138 0024229 317.2261 169.0664 14.62138640929689
COSMOS 2251 DEB         
1 34035U 93036HW  26283.37537796  .00002953  00000+0  68759-3 0  9990
2 34035  74.0622 140.3179 0040826  70.7383 346.5985 14.54786729923491
COSMOS 2251 DEB         
1 34036U 93036HX  26283.05165927  .00140215  00000+0  47315-2 0  9997
2 34036  73.9969 245.2540 0015494 224.3800 135.6161 15.29935698931211
COSMOS 2251 DEB         
1 34037U 93036HY  26282.95256652  .00000757  00000+0  26833-3 0  9991
2 34037  74.0502 218.7481 0054390 196.3708 163.5691 14.35387697920389
COSMOS 2251 DEB         
1 34040U 93036JB  26283.27698115  .00000788  00000+0  62462-3 0  9997
2 34040  73.9543 287.1904 0338340 181.8528 178.1365 13.69318797877264
COSMOS 2251 DEB         
1 34045U 93036JG  26283.50932846  .00000138  00000+0  58413-4 0  9991
2 34045  74.0364 118.6122 0025737 132.4408 311.2530 14.34193681923592
COSMOS 2251 DEB         
1 34046U 93036JH  26283.37830155  .00002469  00000+0  64005-3 0  9999
2 34046  74.0378 166.0875 0076348 175.3455 305.0290 14.48595243921915
COSMOS 2251 DEB         
1 34050U 93036JM  26283.57713634  .00000373  00000+0  23374-3 0  9994
2 34050  74.0870 211.9205 0218699 204.1782 332.1471 13.96777998896458
COSMOS 2251 DEB         
1 34053U 93036JQ  26282.98492715  .00000325  00000+0  31736-3 0  9993
2 34053  73.8420 116.5428 0422634 215.0070 142.2580 13.49422871867479
COSMOS 2251 DEB         
1 34056U 93036JT  26282.94919090  .00001634  00000+0  68921-3 0  9992
2 34056  74.0555 256.9005 0127811 232.9390 189.0214 14.22137620906919
COSMOS 2251 DEB         
1 34058U 93036JV  26282.81452405  .00000119  00000+0  12732-3 0  9998
2 34058  73.9331  49.9462 0378707 348.0364 164.5723 13.56375312872249
COSMOS 2251 DEB         
1 34059U 93036JW  26283.48343840  .00001491  00000+0  35703-3 0  9992
2 34059  74.0386 336.2611 0018919 334.3192  87.7297 14.54339014928447
COSMOS 2251 DEB         
1 34061U 93036JY  26283.12308302  .00000587  00000+0  19104-3 0  9992
2 34061  74.0384  66.0303 0019677  71.8820  42.3089 14.40850529925208
COSMOS 2251 DEB         
1 34062U 93036JZ  26283.06998331  .00012337  00000+0  13359-2 0  9994
2 34062  74.0236 261.0227 0069449 262.4801 171.0096 14.86511274930638
COSMOS 2251 DEB         
1 34064U 93036KB  26282.89120389  .00000997  00000+0  30381-3 0  9990
2 34064  74.0307  71.7413 0021630  67.5256  87.0234 14.43139401924858
COSMOS 2251 DEB         
1 34065U 93036KC  26283.08342799  .00000253  00000+0  91512-4 0  9993
2 34065  74.0351  62.9253 0015529  91.1308  32.5629 14.38301475925370
COSMOS 2251 DEB         
1 34070U 93036KH  26283.61517588  .00012222  00000+0  14313-2 0  9999
2 34070  73.9971 238.8148 0020997 272.8523 260.5921 14.84928296930811
COSMOS 2251 DEB         
1 34114U 93036KK  26282.75691214  .00005666  00000+0  11426-2 0  9997
2 34114  74.0570 190.8687 0042379 116.0615 275.6390 14.61121044921921
COSMOS 2251 DEB         
1 34115U 93036KL  26283.59444572  .00005713  00000+0  69092-3 0  9990
2 34115  74.0081   4.4794 0027261 109.5032 250.9095 14.83666332938835
COSMOS 2251 DEB         
1 34116U 93036KM  26282.90419150  .00001613  00000+0  38453-3 0  9991
2 34116  74.0410 333.8439 0012603 329.7327 205.2321 14.54524573928634
COSMOS 2251 DEB         
1 34117U 93036KN  26282.62955577  .00001005  00000+0  31504-3 0  9994
2 34117  74.0377 147.3939 0056458 151.9346 208.4874 14.40981272924566
COSMOS 2251 DEB         
1 34118U 93036KP  26282.66859586  .00020704  00000+0  13841-2 0  9992
2 34118  73.9503 354.0954 0047431 106.4996  51.6959 15.05979570936898
COSMOS 2251 DEB         
1 34120U 93036KR  26283.64993288  .00000442  00000+0  27995-3 0  9995
2 34120  73.9927  53.1106 0181937 175.2630 198.7586 13.98938604902026
COSMOS 2251 DEB         
1 34121U 93036KS  26283.33275231  .00001078  00000+0  67728-3 0  9997
2 34121  73.9907 299.8779 0234092  80.2703 295.0383 13.92882708893232
COSMOS 2251 DEB         
1 34122U 93036KT  26283.26302492  .00004417  00000+0  73668-3 0  9990
2 34122  74.0332 256.7435 0076413  76.2129 345.9340 14.68331828931064
COSMOS 2251 DEB         
1 34127U 93036KY  26283.59076595  .00004414  00000+0  14935-2 0  9991
2 34127  74.1768 217.2710 0110221 330.0825 203.0806 14.33709836910946
COSMOS 2251 DEB         
1 34128U 93036KZ  26282.77898031  .00086344  00000+0  35508-2 0  9999
2 34128  73.9895  31.5510 0020155  65.0294  88.9366 15.23553743937170
COSMOS 2251 DEB         
1 34129U 93036LA  26283.23419937  .00006219  00000+0  81598-3 0  9990
2 34129  74.0290 107.1224 0032643 115.7648 244.6904 14.80125123657532
COSMOS 2251 DEB         
1 34136U 93036LH  26283.13962046  .00001699  00000+0  20690-3 0  9994
2 34136  74.0184 167.2687 0085286 212.3499 273.8130 14.81761460944727
COSMOS 2251 DEB         
1 34139U 93036LL  26283.04534903  .00004768  00000+0  93331-3 0  9996
2 34139  74.0303  37.7938 0040756  35.3114  78.7384 14.62569917925503
COSMOS 2251 DEB         
1 34141U 93036LN  26282.69875502  .00002882  00000+0  70486-3 0  9993
2 34141  74.0090 181.8281 0051332 196.1182 185.4988 14.52214468920591
COSMOS 2251 DEB         
1 34270U 93036LQ  26282.88659081  .00002135  00000+0  38222-3 0  9992
2 34270  74.0083  85.4665 0048843 163.9551 196.3179 14.66721072935099
COSMOS 2251 DEB         
1 34271U 93036LR  26283.38648426  .00007813  00000+0  10976-2 0  9993
2 34271  74.0188 329.5382 0019505 312.7056  59.8873 14.77419683926819
COSMOS 2251 DEB         
1 34273U 93036LT  26283.59899722  .00003055  00000+0  59621-3 0  9990
2 34273  74.0349 229.1096 0016537 268.8568 266.0594 14.63335868930340
COSMOS 2251 DEB         
1 34274U 93036LU  26282.81000971  .00003631  00000+0  64205-3 0  9999
2 34274  74.0030 206.9556 0023384 274.2656 116.2246 14.67596006930896
COSMOS 2251 DEB         
1 34276U 93036LW  26283.60552917  .00002116  00000+0  45804-3 0  9992
2 34276  74.0212 230.5587 0023479 294.8279 240.0570 14.58728208929920
COSMOS 2251 DEB         
1 34297U 93036MT  26282.92857001  .00000198  00000+0  75822-4 0  9993
2 34297  74.0460  91.0662 0016349  89.8064  32.0077 14.36822470923909
COSMOS 2251 DEB         
1 34301U 93036MX  26283.25970155  .00018610  00000+0  14678-2 0  9990
2 34301  73.9992 279.1016 0015380 275.0051  97.5821 15.00617323929016
COSMOS 2251 DEB         
1 34302U 93036MY  26283.20976133  .00001493  00000+0  46131-3 0  9999
2 34302  74.1761 291.2828 0074431  59.8861  63.5887 14.40545601920602
COSMOS 2251 DEB         
1 34303U 93036MZ  26283.14253787  .00005873  00000+0  11568-2 0  9997
2 34303  74.0026  75.1593 0132262 140.4691 336.1190 14.57283588923496
COSMOS 2251 DEB         
1 34304U 93036NA  26283.09366992  .00002859  00000+0  84113-3 0  9993
2 34304  74.0105 285.7582 0126403 349.8445  75.1240 14.39611073916317
COSMOS 2251 DEB         
1 34307U 93036ND  26282.74631035  .00000692  00000+0  63775-3 0  9994
2 34307  74.0542 189.8951 0392017 315.2236  70.7377 13.54799233869387
COSMOS 2251 DEB         
1 34314U 93036NL  26283.30456973  .00000680  00000+0  32648-3 0  9993
2 34314  74.0033 129.9216 0104164 167.8884   8.3562 14.17974707909315
COSMOS 2251 DEB         
1 34316U 93036NN  26282.89561105  .00022296  00000+0  16300-2 0  9995
2 34316  74.0587  87.2779 0011396 114.0883 246.1500 15.03507033937201
COSMOS 2251 DEB         
1 34317U 93036NP  26283.36853105  .00000265  00000+0  23939-3 0  9992
2 34317  73.9211 259.0172 0336202 191.9802 244.2550 13.65464226877367
COSMOS 2251 DEB         
1 34321U 93036NT  26283.41582354  .00001164  00000+0  30043-3 0  9991
2 34321  74.0276 309.0181 0015274 356.3834  66.5397 14.51061424928614
COSMOS 2251 DEB         
1 34323U 93036NV  26283.27875295  .00008215  00000+0  10265-2 0  9993
2 34323  73.9483 247.4303 0055479 223.6776 203.6206 14.81385946928969
COSMOS 2251 DEB         
1 34325U 93036NX  26282.73891661  .00001313  00000+0  69603-3 0  9993
2 34325  73.8713  21.7755 0191360 342.0198 170.4434 14.05738483897439
COSMOS 2251 DEB         
1 34327U 93036NZ  26283.28802765  .00010700  00000+0  95196-3 0  9999
2 34327  73.9896 284.0494 0029482  18.5415 354.2415 14.95820948940088
COSMOS 2251 DEB         
1 34340U 93036PN  26283.38317426  .00000295  00000+0  22313-3 0  9999
2 34340  74.0765 163.7070 0288207 201.7008 277.7502 13.80238452884291
COSMOS 2251 DEB         
1 34343U 93036PR  26283.22832912  .00006110  00000+0  93759-3 0  9991
2 34343  74.0178 222.5801 0016968  61.5875  54.8975 14.73716781931666
COSMOS 2251 DEB         
1 34344U 93036PS  26283.08175003  .00002286  00000+0  10111-2 0  9997
2 34344  73.9754 291.5518 0148241  47.0548   9.9246 14.18040061903663
COSMOS 2251 DEB         
1 34346U 93036PU  26283.03753654  .00000420  00000+0  24944-3 0  9996
2 34346  73.9937 148.9494 0206287 260.6241 169.3690 14.00598323896276
COSMOS 2251 DEB         
1 34387U 93036QC  26282.22108615  .00000563  00000+0  16983-3 0  9994
2 34387  74.0429  13.0789 0037586  35.1224 351.3735 14.44390913925198
COSMOS 2251 DEB         
1 34388U 93036QD  26283.53149947  .00001596  00000+0  41263-3 0  9999
2 34388  74.0406  16.3466 0013651 348.6044  24.3041 14.50705311925300
COSMOS 2251 DEB         
1 34389U 93036QE  26282.85742917  .00000790  00000+0  24692-3 0  9992
2 34389  74.0189  51.1203 0028411  92.6570  67.7057 14.42142050923521
COSMOS 2251 DEB         
1 34396U 93036QM  26283.03467858  .00009840  00000+0  12744-2 0  9998
2 34396  74.0255 251.8946 0009457 241.3396 197.7380 14.80909927927987
COSMOS 2251 DEB         
1 34409U 93036RA  26282.84626471  .00000550  00000+0  11975-3 0  9994
2 34409  74.0606  94.7046 0078855  91.7674 334.9437 14.58499660935824
COSMOS 2251 DEB         
1 34412U 93036RD  26282.81736993  .00003591  00000+0  76209-3 0  9995
2 34412  73.9440 117.0786 0184513 145.1453 216.1957 14.49371564920105
COSMOS 2251 DEB         
1 34413U 93036RE  26282.87154788  .00001821  00000+0  67538-3 0  9997
2 34413  74.0282  77.1130 0090905  82.6733  68.3487 14.30646907914359
COSMOS 2251 DEB         
1 34420U 93036RM  26283.59568466  .00000749  00000+0  12360-3 0  9998
2 34420  74.0317 239.7892 0106352 282.8669 193.6115 14.68806832942013
COSMOS 2251 DEB         
1 34425U 93036RS  26283.48325623  .00002244  00000+0  43555-3 0  9999
2 34425  74.0183 195.3318 0027535 241.2171 118.6231 14.63590029931535
COSMOS 2251 DEB         
1 34430U 93036RX  26282.50350721  .00000685  00000+0  21997-3 0  9997
2 34430  74.0486 108.1057 0060012 104.7214 256.0603 14.40244708922846
COSMOS 2251 DEB         
1 34431U 93036RY  26283.52837959  .00000919  00000+0  36021-3 0  9998
2 34431  74.0769 348.5188 0069063 259.1660 100.1711 14.29547450914545
COSMOS 2251 DEB         
1 34432U 93036RZ  26282.50104433  .00000812  00000+0  45995-3 0  9992
2 34432  73.8253 292.0676 0184177 320.1401 194.8300 14.03567513899036
COSMOS 2251 DEB         
1 34433U 93036SA  26283.45221658  .00000308  00000+0  15677-3 0  9991
2 34433  74.0104 339.8448 0148295  48.2436 313.1271 14.14131424902138
COSMOS 2251 DEB         
1 34434U 93036SB  26282.83994486  .00003842  00000+0  22064-2 0  9992
2 34434  74.0602 216.8085 0278040 282.3879 104.7813 13.92033460881539
COSMOS 2251 DEB         
1 34446U 93036SP  26283.56940692  .00000299  00000+0  83883-4 0  9997
2 34446  74.0416 211.1162 0052080 271.8250  87.6946 14.49605021930676
COSMOS 2251 DEB         
1 34449U 93036SS  26283.05651916  .00047504  00000+0  23700-2 0  9992
2 34449  74.0289 171.7570 0023511 151.8795 275.7076 15.17043548932301
COSMOS 2251 DEB         
1 34451U 93036SU  26283.13897444  .00071915  00000+0  32195-2 0  9993
2 34451  74.0407 187.6237 0018549 145.0781 215.1638 15.20763778931799
COSMOS 2251 DEB         
1 34452U 93036SV  26283.33438937  .00014684  00000+0  65175-3 0  9999
2 34452  74.0227 273.6667 0056798 269.8090  89.6599 15.20094491952342
COSMOS 2251 DEB         
1 34454U 93036SX  26282.87117718  .00000399  00000+0  13645-3 0  9993
2 34454  74.0566  82.8729 0034440  71.7314 288.7583 14.39149892923997
COSMOS 2251 DEB         
1 34459U 93036TC  26283.17363874  .00000474  00000+0  28381-3 0  9995
2 34459  74.0764  92.8688 0190651  90.4408 271.8574 14.00856398899322
COSMOS 2251 DEB         
1 34468U 93036TM  26283.08924657  .00000744  00000+0  20055-3 0  9997
2 34468  74.0105 272.3496 0075368 342.7101  17.1491 14.48133797928238
COSMOS 2251 DEB         
1 34472U 93036TR  26282.89651430  .00000982  00000+0  76886-3 0  9993
2 34472  74.0839 322.4797 0326748  22.8632 338.6659 13.71038490878537
COSMOS 2251 DEB         
1 34474U 93036TT  26282.64232581  .00001675  00000+0  83183-3 0  9998
2 34474  74.0750 159.9785 0199846 162.0004 229.9588 14.07977834897424
COSMOS 2251 DEB         
1 34476U 93036TV  26283.38209685  .00002569  00000+0  16342-2 0  9996
2 34476  74.0062 293.0044 0300055  86.7855 276.7549 13.84308376878094
COSMOS 2251 DEB         
1 34477U 93036TW  26283.60803164  .00002481  00000+0  52213-3 0  9995
2 34477  73.9780 213.4454 0074318 326.8848  87.5490 14.58371809930243
COSMOS 2251 DEB         
1 34481U 93036UA  26283.61232711  .00000980  00000+0  35599-3 0  9995
2 34481  73.9782 219.9889 0069577 322.9907  92.7515 14.33306112917730
COSMOS 2251 DEB         
1 34482U 93036UB  26282.22707677  .00005970  00000+0  87527-3 0  9992
2 34482  74.0372 358.4239 0041781 343.0205  47.7640 14.75192382926117
COSMOS 2251 DEB         
1 34544U 93036UE  26283.13545550  .00000321  00000+0  31000-3 0  9992
2 34544  73.9135  75.9216 0381841  48.4694  64.8000 13.55064124869642
COSMOS 2251 DEB         
1 34546U 93036UG  26283.46398539  .00001273  00000+0  36056-3 0  9996
2 34546  74.0307  46.0181 0021055  47.9250  64.3485 14.46446795923874
COSMOS 2251 DEB         
1 34547U 93036UH  26283.58176301  .00007883  00000+0  11059-2 0  9999
2 34547  74.0278 230.2624 0020671 237.1500 122.7685 14.77461553929730
COSMOS 2251 DEB         
1 34553U 93036UP  26283.32292625  .00002754  00000+0  57456-3 0  9990
2 34553  74.0260 336.7062 0019994 335.7504 151.7766 14.60302122924950
COSMOS 2251 DEB         
1 34554U 93036UQ  26281.94550672  .00000510  00000+0  17530-3 0  9993
2 34554  74.0357 105.9822 0022678  99.3584  50.8051 14.38383633920719
COSMOS 2251 DEB         
1 34556U 93036US  26283.00077955  .00014256  00000+0  16326-2 0  9995
2 34556  74.0114 248.3689 0011692 247.0276 178.7140 14.85925367927937
COSMOS 2251 DEB         
1 34560U 93036UW  26283.04993697  .00008462  00000+0  11690-2 0  9995
2 34560  74.0136 271.9621 0017618 277.1820 147.3924 14.78140694926965
COSMOS 2251 DEB         
1 34563U 93036UZ  26283.59596361  .00000929  00000+0  26076-3 0  9990
2 34563  74.0404 359.6841 0013131  15.3592  52.7289 14.47344177925632
COSMOS 2251 DEB         
1 34564U 93036VA  26283.58199045  .00000438  00000+0  14387-3 0  9995
2 34564  74.0340  39.3361 0018003  71.6861 301.9495 14.41091205923549
COSMOS 2251 DEB         
1 34567U 93036VD  26283.40317740  .00000264  00000+0  12229-3 0  9993
2 34567  74.0428 333.7241 0074466 333.9629  39.6996 14.24246918914194
COSMOS 2251 DEB         
1 34569U 93036VF  26283.50630449  .00000968  00000+0  37068-3 0  9999
2 34569  73.9933  12.0779 0154818 132.0612 242.8834 14.25499302912676
COSMOS 2251 DEB         
1 34570U 93036VG  26282.80124255  .00000844  00000+0  50171-3 0  9999
2 34570  73.9586  54.4213 0190750 233.6635 279.0690 14.00354272898149
COSMOS 2251 DEB         
1 34571U 93036VH  26281.58049165  .00004726  00000+0  11117-2 0  9999
2 34571  74.0399 338.0328 0065372 300.0869  59.3821 14.53340386916449
COSMOS 2251 DEB         
1 34572U 93036VJ  26282.41421293  .00004383  00000+0  10151-2 0  9995
2 34572  74.0067 267.6712 0065933 268.2838 243.7408 14.54071524917436
COSMOS 2251 DEB         
1 34574U 93036VL  26283.11544855  .00003726  00000+0  55233-3 0  9996
2 34574  74.0676 177.3593 0063160 121.3390   7.4868 14.74104319932152
COSMOS 2251 DEB         
1 34576U 93036VN  26282.45445220  .00001569  00000+0  35508-3 0  9996
2 34576  74.0312 287.6123 0008763 329.7259 180.5596 14.57013879928440
COSMOS 2251 DEB         
1 34579U 93036VR  26283.55700091  .00000880  00000+0  25315-3 0  9991
2 34579  74.0549  21.5792 0026630  13.5531 359.5378 14.46053812925369
COSMOS 2251 DEB         
1 34582U 93036VU  26282.84368816  .00001305  00000+0  38184-3 0  9992
2 34582  74.0175  71.8802 0048020 110.8092 249.8219 14.44288301922934
COSMOS 2251 DEB         
1 34588U 93036WA  26282.82455054  .00000804  00000+0  24893-3 0  9992
2 34588  74.0419  69.9747 0018058  51.3070 106.2649 14.42710250922912
COSMOS 2251 DEB         
1 34589U 93036WB  26282.69524910  .00000277  00000+0  20300-3 0  9999
2 34589  73.9228 262.9867 0247725 148.1953  25.7724 13.86522539888825
COSMOS 2251 DEB         
1 34590U 93036WC  26283.28704764  .00000354  00000+0  86250-4 0  9997
2 34590  74.0412 111.9648 0068940 165.8751   8.5807 14.55113211935066
COSMOS 2251 DEB         
1 34609U 93036WE  26283.05376002  .00000941  00000+0  39131-3 0  9990
2 34609  73.7301 275.5219 0139138  87.3277 332.4832 14.22708771909164
COSMOS 2251 DEB         
1 34610U 93036WF  26281.49999027  .00001722  00000+0  88065-3 0  9994
2 34610  74.0142  95.9388 0179260 158.2500 202.6377 14.08309050897788
COSMOS 2251 DEB         
1 34611U 93036WG  26283.29398101  .00006625  00000+0  10041-2 0  9996
2 34611  74.0512 234.8382 0023172 204.4851 280.5118 14.74148898928283
COSMOS 2251 DEB         
1 34613U 93036WJ  26280.82841527  .00001817  00000+0  69844-3 0  9993
2 34613  73.9607  94.6610 0108406 219.4441 204.7183 14.27959985907304
COSMOS 2251 DEB         
1 34614U 93036WK  26282.12138635  .00005479  00000+0  20768-2 0  9997
2 34614  73.8741 160.5056 0182910  99.3223  51.1116 14.22525019890320
COSMOS 2251 DEB         
1 34615U 93036WL  26283.38465659  .00000479  00000+0  45805-3 0  9991
2 34615  74.0064 170.2778 0398251  15.1565 101.8139 13.52542034868931
COSMOS 2251 DEB         
1 34619U 93036WQ  26283.41211830  .00000609  00000+0  11201-3 0  9997
2 34619  74.0458 339.8675 0092994 356.4597   3.5901 14.65287267937168
COSMOS 2251 DEB         
1 34620U 93036WR  26282.66057590  .00006123  00000+0  13991-2 0  9990
2 34620  74.0511  12.8913 0075143 335.0250  24.7282 14.54184616911957
COSMOS 2251 DEB         
1 34622U 93036WT  26282.35010410  .00001183  00000+0  50708-3 0  9997
2 34622  74.0387 127.1806 0106073 139.3088  35.5100 14.22911613907349
COSMOS 2251 DEB         
1 34626U 93036WX  26282.91700765  .00003825  00000+0  57060-3 0  9995
2 34626  74.0438  96.7698 0027427 111.5550  38.5108 14.74938570935813
COSMOS 2251 DEB         
1 34634U 93036XF  26283.51135116  .00000776  00000+0  17889-3 0  9990
2 34634  74.0514 183.2253 0046070 213.1183 203.0079 14.56418504931746
COSMOS 2251 DEB         
1 34635U 93036XG  26283.56768944  .00004165  00000+0  66965-3 0  9992
2 34635  74.0439 205.5757 0030717 199.3321 222.2676 14.71591016776559
COSMOS 2251 DEB         
1 34637U 93036XJ  26282.99057764  .00002219  00000+0  44045-3 0  9994
2 34637  74.0467 245.5781 0051117 238.5653 185.3132 14.62012671929274
COSMOS 2251 DEB         
1 34641U 93036XN  26282.83529538  .00002337  00000+0  56421-3 0  9997
2 34641  73.8365 226.6339 0013869  86.4958 303.6404 14.53703195926296
COSMOS 2251 DEB         
1 34642U 93036XP  26283.40599802  .00001083  00000+0  62791-3 0  9997
2 34642  74.0039 176.7984 0206748 288.2730 192.3136 13.99913339895134
COSMOS 2251 DEB         
1 34671U 93036XR  26283.34924920  .00004324  00000+0  70717-3 0  9993
2 34671  74.0233 269.7404 0014917 275.4364 152.3733 14.71075997927278
COSMOS 2251 DEB         
1 34672U 93036XS  26283.23674861  .00000385  00000+0  13909-3 0  9991
2 34672  74.0309 111.4724 0023779 114.6661   3.3705 14.36747730695077
COSMOS 2251 DEB         
1 34678U 93036XY  26283.51617867  .00000030  00000+0  21673-4 0  9996
2 34678  74.0379 177.0439 0024965 157.2908 266.3305 14.30102822916935
COSMOS 2251 DEB         
1 34680U 93036YA  26282.42755108  .00002547  00000+0  50226-3 0  9999
2 34680  74.0406 274.4427 0009092 281.7485 229.3268 14.63010776927228
COSMOS 2251 DEB         
1 34681U 93036YB  26282.35147696  .00006763  00000+0  72612-3 0  9996
2 34681  74.0604  53.1875 0023060  36.4111 354.9805 14.88574247937374
COSMOS 2251 DEB         
1 34682U 93036YC  26283.20670337  .00002200  00000+0  45801-3 0  9997
2 34682  74.0371 227.9342 0020063 277.0457 147.9138 14.60536335930853
COSMOS 2251 DEB         
1 34683U 93036YD  26283.60648091  .00004284  00000+0  76111-3 0  9996
2 34683  74.0274 230.2520 0020907 262.9031 272.1406 14.67354970927720
COSMOS 2251 DEB         
1 34685U 93036YF  26283.30116493  .00002404  00000+0  51076-3 0  9996
2 34685  74.0272 294.2630 0015778 314.8985  57.7107 14.59582449929291
COSMOS 2251 DEB         
1 34689U 93036YK  26283.53387346  .00003019  00000+0  14280-2 0  9990
2 34689  74.0861  56.7014 0224355  52.0264  66.5041 14.07723153885849
COSMOS 2251 DEB         
1 34721U 93036YP  26282.66622796  .00001440  00000+0  84807-3 0  9990
2 34721  73.9215 163.7108 0215496  42.5012 349.1119 13.97878098893539
COSMOS 2251 DEB         
1 34722U 93036YQ  26282.64153958  .00001166  00000+0  56791-3 0  9994
2 34722  73.8713 159.1484 0162718  27.2813   3.1348 14.12571738904932
COSMOS 2251 DEB         
1 34726U 93036YU  26283.33861945  .00001152  00000+0  24055-3 0  9990
2 34726  74.0257 130.4325 0043631 204.2274 155.6842 14.60513288929048
COSMOS 2251 DEB         
1 34728U 93036YW  26278.60336370  .00002743  00000+0  42753-3 0  9997
2 34728  74.0181  33.6181 0040412 117.0803 243.4502 14.72903627931688
COSMOS 2251 DEB         
1 34729U 93036YX  26283.33149263  .00010703  00000+0  10978-2 0  9995
2 34729  74.0117 116.8718 0015486 158.1410 267.8395 14.90418683929412
COSMOS 2251 DEB         
1 34732U 93036ZA  26282.91773179  .00000286  00000+0  84473-4 0  9999
2 34732  74.0435 250.2569 0040086 323.0660  67.6475 14.47533322925017
COSMOS 2251 DEB         
1 34738U 93036ZG  26283.23863787  .00000575  00000+0  16420-3 0  9993
2 34738  74.0141 299.4700 0045963  10.6385 114.2761 14.46823320922182
COSMOS 2251 DEB         
1 34750U 93036ZU  26283.31485209  .00003318  00000+0  62937-3 0  9997
2 34750  74.1082 345.9861 0036047 217.6217 261.1647 14.64238667926411
COSMOS 2251 DEB         
1 34752U 93036ZW  26283.22614449  .00011827  00000+0  77038-3 0  9991
2 34752  74.0070 103.0333 0044813 152.1491 208.2114 15.07143403943829
COSMOS 2251 DEB         
1 34754U 93036ZY  26283.57349355  .00000459  00000+0  15081-3 0  9991
2 34754  74.0327  29.0931 0028374  72.7367 300.5626 14.40813871924800
COSMOS 2251 DEB         
1 34755U 93036ZZ  26283.42906002  .00000431  00000+0  41699-3 0  9998
2 34755  73.9234 164.9133 0404699 129.2122  42.3063 13.51023649865979
COSMOS 2251 DEB         
1 34756U 93036AAA 26282.85751714  .00000671  00000+0  54714-3 0  9991
2 34756  74.0049 328.8762 0338214 142.0435 220.5052 13.67928125875388
COSMOS 2251 DEB         
1 34758U 93036AAC 26281.70252165  .00000406  00000+0  36122-3 0  9991
2 34758  74.1062 176.3296 0385357 230.8872 125.7392 13.58674767869831
COSMOS 2251 DEB         
1 34760U 93036AAE 26283.29430237  .00000639  00000+0  29711-3 0  9992
2 34760  74.0606 123.9225 0096215 103.9140  68.3417 14.20123781909680
COSMOS 2251 DEB         
1 34761U 93036AAF 26282.41811194  .00000820  00000+0  27208-3 0  9992
2 34761  74.0277 168.1852 0037005 134.7268 225.6909 14.38971717919737
COSMOS 2251 DEB         
1 34784U 93036AAM 26283.22068187  .00001482  00000+0  29696-3 0  9991
2 34784  74.0033 106.6709 0050109 200.7335 159.1801 14.61923420929398
COSMOS 2251 DEB         
1 34790U 93036AAT 26283.65284818  .00000772  00000+0  32095-3 0  9994
2 34790  74.0530  59.6852 0099150  48.4019 325.6997 14.25412460908747
COSMOS 2251 DEB         
1 34792U 93036AAV 26283.29072579  .00002049  00000+0  45189-3 0  9992
2 34792  74.0167 316.2492 0013618 328.8889 156.1215 14.57987714920425
COSMOS 2251 DEB         
1 34793U 93036AAW 26283.55404601  .00000532  00000+0  17805-3 0  9996
2 34793  74.0030  52.5598 0050413 136.8657 348.1335 14.39017770916715
COSMOS 2251 DEB         
1 34796U 93036AAZ 26281.95852174  .00001109  00000+0  27712-3 0  9992
2 34796  74.0319  12.7985 0097757  40.4535  79.0263 14.49888054923779
COSMOS 2251 DEB         
1 34797U 93036ABA 26282.68353394  .00003455  00000+0  95848-3 0  9995
2 34797  73.9738 257.8604 0073510 299.1801  60.2015 14.45349348917609
COSMOS 2251 DEB         
1 34813U 93036ABC 26282.22579346  .00001842  00000+0  15063-2 0  9999
2 34813  73.9255   9.3439 0448050 346.7934  12.1741 13.52058560857143
COSMOS 2251 DEB         
1 34814U 93036ABD 26282.26594072  .00000989  00000+0  33071-3 0  9998
2 34814  73.8925 127.5733 0053476 312.0691 170.4350 14.37971707916519
COSMOS 2251 DEB         
1 34815U 93036ABE 26283.40715061  .00003606  00000+0  45183-3 0  9995
2 34815  74.0472   7.6230 0054913 358.1081   1.9879 14.81555844930914
COSMOS 2251 DEB         
1 34816U 93036ABF 26282.96893613  .00000364  00000+0  33357-3 0  9994
2 34816  73.8893  11.3785 0373246  21.3795  88.2806 13.58813658868742
COSMOS 2251 DEB         
1 34818U 93036ABH 26280.50041168  .00000309  00000+0  11215-3 0  9992
2 34818  74.0330 107.4377 0023928 114.6613 274.1465 14.37291724916621
COSMOS 2251 DEB         
1 34819U 93036ABJ 26283.37622951  .00004486  00000+0  79618-3 0  9997
2 34819  74.0153 280.8554 0018250 294.5239 133.1372 14.67420991926492
COSMOS 2251 DEB         
1 34823U 93036ABN 26282.90921595  .00001167  00000+0  23265-3 0  9996
2 34823  74.0384 251.5432 0154214 259.6991  98.6756 14.56012813927637
COSMOS 2251 DEB         
1 34845U 93036ABP 26278.44606658  .00000409  00000+0  12128-3 0  9998
2 34845  74.0248 314.2856 0020617  40.1893 320.0785 14.46320011917555
COSMOS 2251 DEB         
1 34846U 93036ABQ 26283.52669334  .00001731  00000+0  46589-3 0  9991
2 34846  74.0292  56.6488 0025203  51.8617 308.4809 14.48578949917725
COSMOS 2251 DEB         
1 34852U 93036ABW 26283.09221130  .00000190  00000+0  72561-4 0  9996
2 34852  74.0319  68.6504 0015488 103.4764 256.8116 14.37180036918637
COSMOS 2251 DEB         
1 34854U 93036ABY 26283.38261579  .00003147  00000+0  41787-3 0  9991
2 34854  74.0271 286.0484 0064282 318.5625  41.0685 14.78813749763384
COSMOS 2251 DEB         
1 34856U 93036ACA 26281.71489777  .00025594  00000+0  11011-2 0  9996
2 34856  74.0038 179.9713 0028996 232.9357 158.1083 15.22146870936530
COSMOS 2251 DEB         
1 34857U 93036ACB 26282.96628347  .00003240  00000+0  64946-3 0  9993
2 34857  74.0127 251.1938 0065827 298.8895 118.0332 14.60804943922972
COSMOS 2251 DEB         
1 34874U 93036ACM 26283.22427262  .00001067  00000+0  35913-3 0  9992
2 34874  74.0370 239.3956 0052611 195.1887 228.4189 14.37510402913756
COSMOS 2251 DEB         
1 34875U 93036ACN 26283.47737449  .00000854  00000+0  22868-3 0  9999
2 34875  74.0437 312.4466 0015642 353.8533  75.1245 14.49725263921276
COSMOS 2251 DEB         
1 34878U 93036ACR 26273.84403336  .00000115  00000+0  13352-3 0  9995
2 34878  73.9649 303.7384 0437207 231.4249 308.7884 13.44557297851982
COSMOS 2251 DEB         
1 34879U 93036ACS 26281.11360563  .00000458  00000+0  43672-3 0  9997
2 34879  73.9056 180.6954 0489256 207.9564 149.4458 13.39985390623492
COSMOS 2251 DEB         
1 34882U 93036ACV 26283.50688917  .00000451  00000+0  91972-4 0  9992
2 34882  74.0498   8.3756 0080541  57.7759 303.1183 14.62035463929346
COSMOS 2251 DEB         
1 34883U 93036ACW 26282.83169975  .00013354  00000+0  27331-2 0  9998
2 34883  74.1960 217.8772 0084059 306.2228  53.1187 14.58595722908200
COSMOS 2251 DEB         
1 34884U 93036ACX 26283.37872748  .00027752  00000+0  18843-2 0  9993
2 34884  74.0107 163.9944 0008582 179.7261 298.3221 15.06255094923244
COSMOS 2251 DEB         
1 34885U 93036ACY 26283.25376454  .00001385  00000+0  34303-3 0  9998
2 34885  74.0312 334.5449 0015569 340.5122  89.5873 14.52854256918563
COSMOS 2251 DEB         
1 34908U 93036ADD 26282.17289044  .00000779  00000+0  26235-3 0  9993
2 34908  74.0578 191.1252 0040129 137.2668  13.4886 14.38241564915976
COSMOS 2251 DEB         
1 34909U 93036ADE 26282.20267643  .00001743  00000+0  22472-3 0  9990
2 34909  74.0153 204.9549 0083369 263.1216  96.0471 14.79508482712937
COSMOS 2251 DEB         
1 34910U 93036ADF 26282.61469613  .00000203  00000+0  22417-3 0  9997
2 34910  73.8767 346.4352 0465139  53.6366  92.8807 13.38035672855483
COSMOS 2251 DEB         
1 34911U 93036ADG 26282.74454611  .00000363  00000+0  78893-4 0  9991
2 34911  74.0428  30.8819 0082394  80.2636  69.6456 14.59700657929780
COSMOS 2251 DEB         
1 34913U 93036ADJ 26282.17038603  .00000056  00000+0  28968-4 0  9996
2 34913  74.0258  91.8921 0020279 134.2382 347.5070 14.34706185694960
COSMOS 2251 DEB         
1 34918U 93036ADP 26273.32939720  .00002127  00000+0  40209-3 0  9990
2 34918  74.0668 115.3715 0026343   9.7398 165.2855 14.64842331696015
COSMOS 2251 DEB         
1 34924U 93036ADV 26283.26077872  .00002471  00000+0  48835-3 0  9997
2 34924  74.0388 233.0942 0056011 240.3736 189.3894 14.61964251921277
COSMOS 2251 DEB         
1 34944U 93036ADX 26282.33398478  .00001404  00000+0  58862-3 0  9990
2 34944  73.7502  49.3635 0218879 208.5992 150.3003 14.14880888683335
COSMOS 2251 DEB         
1 34946U 93036ADZ 26282.25521333  .00001391  00000+0  27028-3 0  9996
2 34946  74.0204 125.6027 0050460 187.4979 172.5440 14.63370619926031
COSMOS 2251 DEB         
1 34949U 93036AEC 26283.22572041  .00002311  00000+0  32908-3 0  9995
2 34949  74.0158 239.9421 0078888 307.3004  52.0996 14.75348219928062
COSMOS 2251 DEB         
1 34953U 93036AEG 26283.45097035  .00003210  00000+0  50883-3 0  9991
2 34953  74.0912 163.9500 0053716  76.6860  97.4027 14.71654568925639
COSMOS 2251 DEB         
1 34955U 93036AEJ 26279.49362577  .00004927  00000+0  32949-3 0  9997
2 34955  74.0380 358.1851 0071004 348.0405  11.9094 15.05171627945082
COSMOS 2251 DEB         
1 34962U 93036AER 26282.46666506  .00000733  00000+0  20729-3 0  9999
2 34962  74.0317 351.1739 0017778  27.6548 332.5552 14.47317794919280
COSMOS 2251 DEB         
1 34963U 93036AES 26276.54646133  .00002488  00000+0  59850-3 0  9992
2 34963  74.1692 211.5167 0040532 315.6385  44.1533 14.53347513910819
COSMOS 2251 DEB         
1 34964U 93036AET 26278.08541732  .00002734  00000+0  14979-2 0  9999
2 34964  73.9702 191.4846 0208812 345.5024  14.0174 14.01878714886294
COSMOS 2251 DEB         
1 34965U 93036AEU 26282.73670312  .00000598  00000+0  16358-3 0  9994
2 34965  74.0496 284.6678 0026404 331.4649  28.5064 14.49254775914733
COSMOS 2251 DEB         
1 34967U 93036AEW 26283.61691462  .00001597  00000+0  45830-3 0  9990
2 34967  73.9926  50.1310 0038251 126.4360 234.0334 14.45323781693171
COSMOS 2251 DEB         
1 34968U 93036AEX 26282.72347437  .00000373  00000+0  80490-4 0  9995
2 34968  74.0406  33.1152 0085286  77.5813 283.4880 14.59770230928693
COSMOS 2251 DEB         
1 34969U 93036AEY 26282.04760186  .00000440  00000+0  16650-3 0  9992
2 34969  74.0143 194.1685 0075545 255.1643 104.1131 14.32666503694374
COSMOS 2251 DEB         
1 34971U 93036AFA 26280.14260508  .00000451  00000+0  10604-3 0  9992
2 34971  73.9767  77.3240 0070496 231.9634 247.3952 14.56045545705151
COSMOS 2251 DEB         
1 34972U 93036AFB 26282.70984579  .00006027  00000+0  83585-3 0  9991
2 34972  73.9862 179.2039 0033388 256.9332 133.3809 14.77784973920902
COSMOS 2251 DEB         
1 34976U 93036AFF 26282.86410807  .00003185  00000+0  41388-3 0  9997
2 34976  74.0534  74.7476 0043679  44.2042 106.2512 14.80477639927255
COSMOS 2251 DEB         
1 34979U 93036AFJ 26282.72251682  .00005340  00000+0  64099-3 0  9998
2 34979  74.0399  32.7739 0045735  33.9110 326.4977 14.83509826926784
COSMOS 2251 DEB         
1 34990U 93036AFN 26283.63998624  .00000760  00000+0  23465-3 0  9999
2 34990  74.0455  51.3347 0015337  40.8596 319.3707 14.42991984917004
COSMOS 2251 DEB         
1 34997U 93036AFV 26280.84389418  .00002096  00000+0  54280-3 0  9994
2 34997  73.8759 106.7467 0091330  21.2725 339.2190 14.48020748750736
COSMOS 2251 DEB         
1 34998U 93036AFW 26282.78868377  .00000956  00000+0  25194-3 0  9991
2 34998  74.0095 313.8886 0019903  21.5892  98.5115 14.50285510917834
COSMOS 2251 DEB         
1 35012U 93036AFZ 26281.98170884  .00000323  00000+0  95528-4 0  9996
2 35012  74.0182 271.2328 0080899 337.0335  22.7212 14.45795252919007
COSMOS 2251 DEB         
1 35014U 93036AGB 26282.36481096  .00005664  00000+0  73920-3 0  9995
2 35014  73.9963 171.4826 0009797 242.0815 117.9370 14.80722991757791
COSMOS 2251 DEB         
1 35015U 93036AGC 26283.53544413  .00002582  00000+0  67393-3 0  9992
2 35015  73.9502  26.9401 0072888 187.8575 186.2202 14.48416369698086
COSMOS 2251 DEB         
1 35016U 93036AGD 26282.86555995  .00000512  00000+0  17463-3 0  9999
2 35016  73.9274  98.4640 0112956 309.7302 116.6129 14.35618280911036
COSMOS 2251 DEB         
1 35018U 93036AGF 26282.47100840  .00000900  00000+0  72023-3 0  9997
2 35018  73.9790 334.3782 0343847 183.1613 176.7336 13.67895402872977
COSMOS 2251 DEB         
1 35020U 93036AGH 26283.50775627  .00000477  00000+0  93565-4 0  9990
2 35020  74.0473 340.6268 0089522  16.7156 343.6927 14.63180538926514
COSMOS 2251 DEB         
1 35022U 93036AGK 26282.25160805  .00001039  00000+0  21077-3 0  9992
2 35022  74.0216 106.7724 0047063 228.8303 130.8800 14.61867114635336
COSMOS 2251 DEB         
1 35023U 93036AGL 26283.36317392  .00015368  00000+0  10554-2 0  9998
2 35023  74.0335 318.5605 0030214 319.5906  52.8609 15.05598071928053
COSMOS 2251 DEB         
1 35025U 93036AGN 26283.46995467  .00001885  00000+0  27662-3 0  9994
2 35025  73.9370 191.0058 0080854  34.0162 326.6155 14.74116646930876
COSMOS 2251 DEB         
1 35026U 93036AGP 26282.79485116  .00000159  00000+0  43128-4 0  9994
2 35026  74.0443 110.4003 0082883 148.3769 223.6425 14.53767873925186
COSMOS 2251 DEB         
1 35028U 93036AGR 26282.10825296  .00000257  00000+0  61408-4 0  9998
2 35028  74.0378  60.8574 0082209 119.6086 355.0708 14.56776187926592
COSMOS 2251 DEB         
1 35031U 93036AGU 26279.09611818  .00000255  00000+0  91948-4 0  9999
2 35031  74.0369  71.2866 0017996  95.8911 264.4295 14.38548405695596
COSMOS 2251 DEB         
1 35032U 93036AGV 26282.31959581  .00001690  00000+0  34307-3 0  9990
2 35032  73.8487 147.2884 0065217 294.7866 188.6096 14.60736641920602
COSMOS 2251 DEB         
1 35033U 93036AGW 26282.40032956  .00001145  00000+0  28866-3 0  9997
2 35033  74.0266 330.1203 0014316 356.1417   3.9631 14.52199261702905
COSMOS 2251 DEB         
1 35038U 93036AHB 26282.53068493  .00001916  00000+0  74871-3 0  9994
2 35038  74.1055 221.2743 0109506 130.8423 351.6904 14.26977850898570
COSMOS 2251 DEB         
1 35043U 93036AHG 26282.93218621  .00024040  00000+0  22486-2 0  9991
2 35043  73.9437 164.4200 0068793 294.7537  64.6496 14.92219685718892
COSMOS 2251 DEB         
1 35045U 93036AHJ 26283.62782149  .00000839  00000+0  50304-3 0  9992
2 35045  73.7175 239.2822 0178033  76.0449 286.0410 14.00919261888704
COSMOS 2251 DEB         
1 35060U 93036AHP 26282.03058395  .00000593  00000+0  18814-3 0  9999
2 35060  74.0372  47.7938 0017354  62.0955 298.1956 14.42120049915703
COSMOS 2251 DEB         
1 35061U 93036AHQ 26283.13133444  .00002695  00000+0  45214-3 0  9990
2 35061  74.0413  82.6348 0039539 117.4697 243.0503 14.69714871930008
COSMOS 2251 DEB         
1 35062U 93036AHR 26283.30381872  .00002289  00000+0  90835-3 0  9998
2 35062  74.0742 271.3417 0126394 199.1583 160.4790 14.25074716897927
COSMOS 2251 DEB         
1 35065U 93036AHU 26282.60003107  .00000767  00000+0  22009-3 0  9992
2 35065  74.0218 352.2926 0018655  42.5293 317.7306 14.46477731727009
COSMOS 2251 DEB         
1 35071U 93036AJA 26276.30113109  .00004891  00000+0  29608-3 0  9997
2 35071  73.9283 284.4943 0058531 109.1465 251.6075 15.09461388719730
COSMOS 2251 DEB         
1 35073U 93036AJC 26278.70333214  .00086454  00000+0  28011-2 0  9997
2 35073  73.9785  70.3412 0013662 104.0432 256.2291 15.31511046719784
COSMOS 2251 DEB         
1 35284U 93036AJN 26282.14900355  .00000273  00000+0  97667-4 0  9990
2 35284  74.0479  71.1665 0015656  76.7699  98.9186 14.38567359698452
COSMOS 2251 DEB         
1 35287U 93036AJR 26282.85589552  .00000216  00000+0  82366-4 0  9990
2 35287  74.0283  82.7177 0017108 111.6356 318.9040 14.36567345912161
COSMOS 2251 DEB         
1 35288U 93036AJS 26283.32527742  .00003120  00000+0  53814-3 0  9999
2 35288  73.9477 149.9085 0035892 307.9519  51.8409 14.68539149923014
COSMOS 2251 DEB         
1 35290U 93036AJU 26283.42213268  .00010632  00000+0  11415-2 0  9994
2 35290  74.0022 179.1993 0007776 215.5696 144.4967 14.88645050924366
COSMOS 2251 DEB         
1 35433U 93036AKB 26281.34833600  .00000319  00000+0  12048-3 0  9995
2 35433  74.0338 149.3037 0026031 136.4323 339.8571 14.35114666908781
COSMOS 2251 DEB         
1 35434U 93036AKC 26283.61521632  .00000751  00000+0  31027-3 0  9995
2 35434  74.0421  28.3462 0086182  26.0516 334.4930 14.26447752904213
COSMOS 2251 DEB         
1 35435U 93036AKD 26282.55694652  .00014806  00000+0  16708-2 0  9995
2 35435  74.0072 227.7302 0013482 247.4022 230.5278 14.86506856919986
COSMOS 2251 DEB         
1 35439U 93036AKH 26277.45023697  .00000769  00000+0  47459-3 0  9998
2 35439  74.0201 347.4702 0236413  90.1611 272.6610 13.93998331880801
COSMOS 2251 DEB         
1 35440U 93036AKJ 26276.49476115  .00000905  00000+0  15082-3 0  9999
2 35440  74.0161 355.7244 0067006  62.6927 298.1045 14.70143918730959
COSMOS 2251 DEB         
1 35441U 93036AKK 26278.81821525  .00004903  00000+0  88196-3 0  9995
2 35441  74.1313  90.1674 0031785 256.0853 103.6781 14.66562687917800
COSMOS 2251 DEB         
1 35442U 93036AKL 26282.23072121  .00018047  00000+0  15953-2 0  9991
2 35442  74.0218 216.4999 0006700 212.3622 147.7152 14.96288498918311
COSMOS 2251 DEB         
1 35443U 93036AKM 26278.83135297  .01266641  00000+0  93792-2 0  9990
2 35443  73.9416  66.1130 0008466  57.5367 302.6673 15.70133584913923
COSMOS 2251 DEB         
1 35445U 93036AKP 26282.77952593  .00006479  00000+0  11067-2 0  9991
2 35445  74.0322  83.8390 0136740  95.8781 265.7992 14.63070717917273
COSMOS 2251 DEB         
1 35446U 93036AKQ 26280.95451524  .00000224  00000+0  57119-4 0  9990
2 35446  74.0442 112.3086 0075190 155.4178 205.0600 14.54863801923590
COSMOS 2251 DEB         
1 35448U 93036AKS 26283.60388021  .00002577  00000+0  59021-3 0  9994
2 35448  73.9004 233.0735 0010754 324.6382  35.4066 14.56130056917267
COSMOS 2251 DEB         
1 35453U 93036AKX 26282.45949308  .00001148  00000+0  37036-3 0  9998
2 35453  74.0083 185.0026 0068355 245.7654 113.6348 14.39030044905431
COSMOS 2251 DEB         
1 35455U 93036AKZ 26282.15043161  .00003042  00000+0  72485-3 0  9991
2 35455  74.0243  89.7831 0098726 120.2327 240.8655 14.51251871908999
COSMOS 2251 DEB         
1 35456U 93036ALA 26282.28855341  .00007737  00000+0  11303-2 0  9993
2 35456  73.9463 249.2871 0056889  24.8820 335.5076 14.74763648702996
COSMOS 2251 DEB         
1 35459U 93036ALD 26278.49090097  .00000337  00000+0  12084-3 0  9990
2 35459  73.8735 355.5166 0017797 244.1879 115.7438 14.37865800626261
COSMOS 2251 DEB         
1 35462U 93036ALG 26282.17197328  .00001780  00000+0  65977-3 0  9991
2 35462  74.0329  82.0902 0084044  45.5880 315.2108 14.31011629706762
COSMOS 2251 DEB         
1 35465U 93036ALK 26279.65683294  .00000604  00000+0  17666-3 0  9991
2 35465  74.0009   1.0259 0062203  91.0058 269.8228 14.45015218915449
COSMOS 2251 DEB         
1 35469U 93036ALP 26282.41226147  .00000166  00000+0  48940-4 0  9996
2 35469  74.0173 178.5913 0077954 259.6025  99.6343 14.50033598924698
COSMOS 2251 DEB         
1 35475U 93036ALV 26283.31461479  .00006682  00000+0  98933-3 0  9997
2 35475  74.0194 297.6415 0022480 294.5824  65.3007 14.75169774700576
COSMOS 2251 DEB         
1 35476U 93036ALW 26282.55247977  .00009690  00000+0  12132-2 0  9996
2 35476  73.9758 186.6386 0013675 115.1136 303.0949 14.82298153923368
COSMOS 2251 DEB         
1 35580U 93036ALX 26282.92114204  .00001270  00000+0  84229-3 0  9992
2 35580  73.9021  25.9781 0281348 333.8264  24.8860 13.84969889664258
COSMOS 2251 DEB         
1 35583U 93036AMA 26283.11806604  .00000340  00000+0  31815-3 0  9999
2 35583  73.9140  83.3053 0386669  51.5973 311.9197 13.55932037864962
COSMOS 2251 DEB         
1 35585U 93036AMC 26283.48382036  .00001681  00000+0  12463-2 0  9995
2 35585  73.9708 204.2420 0304075  54.3761  61.5354 13.76141261682137
COSMOS 2251 DEB         
1 35586U 93036AMD 26282.00924795  .00000480  00000+0  45552-3 0  9999
2 35586  74.0219 181.3430 0402997 353.5444  18.3489 13.52374450644417
COSMOS 2251 DEB         
1 35587U 93036AME 26283.11101805  .00000936  00000+0  14226-3 0  9992
2 35587  74.0042 191.0586 0101225 302.5730  56.5697 14.72266573707801
COSMOS 2251 DEB         
1 35593U 93036AML 26279.26806053  .00000804  00000+0  32366-3 0  9996
2 35593  74.0824 112.3621 0103961  45.0657 315.8865 14.26691093893079
COSMOS 2251 DEB         
1 35594U 93036AMM 26279.52575123  .00009699  00000+0  88404-3 0  9992
2 35594  73.8033 220.4569 0029754 269.4565  90.3209 14.94893581926264
COSMOS 2251 DEB         
1 35602U 93036AMV 26283.65794100  .00022737  00000+0  40218-3 0  9998
2 35602  73.9893 246.0717 0069023 231.1985 303.7265 15.47526315947446
COSMOS 2251 DEB         
1 35606U 93036AMZ 26281.34569055  .00000547  00000+0  55738-3 0  9993
2 35606  73.8082 253.1533 0450935  51.1679 312.8780 13.41555879650577
COSMOS 2251 DEB         
1 35611U 93036ANE 26282.48407433  .00008486  00000+0  11220-2 0  9993
2 35611  74.0186 309.1133 0023006 305.8201  54.0837 14.79922195917300
COSMOS 2251 DEB         
1 35614U 93036ANH 26283.19459555  .00003225  00000+0  52820-3 0  9995
2 35614  73.9546 101.6218 0072983 243.0276 116.3428 14.69460545921547
COSMOS 2251 DEB         
1 35645U 93036ANL 26281.58762869  .00004003  00000+0  10477-2 0  9991
2 35645  73.9619 244.6873 0068137 328.3914  31.3160 14.48283199911092
COSMOS 2251 DEB         
1 35646U 93036ANM 26283.31069741  .00000576  00000+0  57995-3 0  9992
2 35646  73.8683 297.2588 0458602 355.2909  16.5526 13.41229279859018
COSMOS 2251 DEB         
1 35647U 93036ANN 26282.16530758  .00001302  00000+0  37770-3 0  9993
2 35647  74.0191  95.0728 0046457 123.3074 237.2545 14.44765173720016
COSMOS 2251 DEB         
1 35650U 93036ANR 26282.95399628  .00011443  00000+0  11344-2 0  9998
2 35650  74.0407 138.0582 0015310 127.1894 297.6187 14.91773733921155
COSMOS 2251 DEB         
1 35660U 93036APB 26283.38222373  .00000920  00000+0  24062-3 0  9999
2 35660  74.0380 286.5867 0017730 353.0248  73.3634 14.50702892702440
COSMOS 2251 DEB         
1 35661U 93036APC 26283.09984423  .00004471  00000+0  43706-3 0  9990
2 35661  74.0124 197.1153 0084996 223.4133 136.0335 14.89975043923524
COSMOS 2251 DEB         
1 35663U 93036APE 26276.28000347  .00003272  00000+0  55891-3 0  9995
2 35663  74.0181 274.9837 0010205 275.5715  84.4291 14.69314836777033
COSMOS 2251 DEB         
1 35667U 93036APJ 26282.28074932  .00002317  00000+0  46356-3 0  9992
2 35667  74.0521 286.0215 0022083 267.5377  92.3262 14.62281026751935
COSMOS 2251 DEB         
1 35668U 93036APK 26281.91059836  .00000617  00000+0  11641-3 0  9998
2 35668  74.0472   3.9548 0081327  31.6625 328.9396 14.64676126920416
COSMOS 2251 DEB         
1 35669U 93036APL 26282.62774525  .00000513  00000+0  45768-3 0  9999
2 35669  73.8627  28.2687 0384436  87.9879 276.5200 13.57681256648726
COSMOS 2251 DEB         
1 35670U 93036APM 26281.38377386  .00009060  00000+0  68050-3 0  9992
2 35670  73.8918 171.2959 0027482  68.8313 291.5807 15.02416479922166
COSMOS 2251 DEB         
1 35671U 93036APN 26283.55742220  .00000518  00000+0  14344-3 0  9993
2 35671  74.0166 233.2118 0040785 330.9388 151.2175 14.48705945911332
COSMOS 2251 DEB         
1 35674U 93036APR 26283.25607086  .00003537  00000+0  74680-3 0  9996
2 35674  74.0552 105.5260 0092363  74.9819 286.1545 14.57083132904996
COSMOS 2251 DEB         
1 35701U 93036APW 26282.00968654  .00001404  00000+0  97180-3 0  9991
2 35701  74.0025 156.9289 0287952 301.1032  56.2127 13.81896964663057
COSMOS 2251 DEB         
1 35703U 93036APY 26281.35072229  .00003281  00000+0  29798-3 0  9999
2 35703  74.0396 160.8622 0062011 152.7227 207.7238 14.94247386710869
COSMOS 2251 DEB         
1 35705U 93036AQA 26279.27595726  .00013105  00000+0  16245-2 0  9999
2 35705  74.2678 279.8930 0017839 143.1028 217.1383 14.82597667903227
COSMOS 2251 DEB         
1 35706U 93036AQB 26283.25564637  .00000906  00000+0  74069-3 0  9994
2 35706  73.8849 284.2533 0346846 279.2528  76.9520 13.66638353661809
COSMOS 2251 DEB         
1 35711U 93036AQG 26282.57489845  .00000586  00000+0  11115-3 0  9998
2 35711  74.0478   2.8305 0083451  26.1829 334.3521 14.64459825921748
COSMOS 2251 DEB         
1 35716U 93036AQM 26280.57448010  .00000194  00000+0  44378-4 0  9993
2 35716  73.9955 342.1882 0087840 111.6887 318.8214 14.60400970919893
COSMOS 2251 DEB         
1 35717U 93036AQN 26282.60726134  .00002950  00000+0  90753-3 0  9995
2 35717  74.1622  26.0862 0074134 161.0652 199.3288 14.40373238784296
COSMOS 2251 DEB         
1 35718U 93036AQP 26277.26865027  .00003609  00000+0  56574-3 0  9992
2 35718  74.0288 275.6791 0013868 258.0540 101.9078 14.73008150701869
COSMOS 2251 DEB         
1 35721U 93036AQS 26279.44216095  .00001671  00000+0  51692-3 0  9996
2 35721  73.9510 348.4379 0141306  68.5395 293.0759 14.36431955620615
COSMOS 2251 DEB         
1 35724U 93036AQV 26282.18210684  .00000720  00000+0  15677-3 0  9999
2 35724  74.0298  90.5632 0059906 169.0928 191.1553 14.58763607919092
COSMOS 2251 DEB         
1 35759U 93036ARD 26272.55092416  .00000591  00000+0  11019-3 0  9990
2 35759  74.0399  16.3643 0074872  60.4192 300.4411 14.65660004703955
COSMOS 2251 DEB         
1 35764U 93036ARJ 26269.89088928  .00005241  00000+0  67969-3 0  9994
2 35764  74.0208 136.0943 0025054 183.3695 176.7317 14.80825635703087
COSMOS 2251 DEB         
1 35771U 93036ARR 26282.61219764  .00004566  00000+0  18096-2 0  9996
2 35771  74.1553 138.9530 0201839 357.5940   2.4211 14.18610744871209
COSMOS 2251 DEB         
1 35773U 93036ART 26282.28978374  .00001354  00000+0  26343-3 0  9997
2 35773  74.0041 123.6061 0046341 207.6402 152.2301 14.63491336912344
COSMOS 2251 DEB         
1 35777U 93036ARX 26282.48260509  .00000471  00000+0  48521-3 0  9998
2 35777  73.7708 202.1609 0448672  52.2732  61.1750 13.41568725837173
COSMOS 2251 DEB         
1 35784U 93036ASE 26281.57831332  .00000609  00000+0  16105-3 0  9999
2 35784  74.0362 246.3960 0042327 299.4585  60.2355 14.50554928700530
COSMOS 2251 DEB         
1 35786U 93036ASG 26282.45524224  .00002463  00000+0  42204-3 0  9997
2 35786  74.0131 181.9050 0035944 233.6523 126.1329 14.68944320778209
COSMOS 2251 DEB         
1 35789U 93036ASK 26282.47013672  .00000165  00000+0  64650-4 0  9999
2 35789  74.0362  92.2810 0047036 120.2204 240.3619 14.36154368655449
COSMOS 2251 DEB         
1 35793U 93036ASP 26282.50285558  .00009584  00000+0  11113-2 0  9990
2 35793  74.0389 185.4017 0007188 197.6107 336.8729 14.85525864702545
COSMOS 2251 DEB         
1 35824U 93036ASW 26280.26331780  .00001442  00000+0  92961-3 0  9991
2 35824  73.8421 255.1299 0254350 287.3877  69.9582 13.89328612883723
COSMOS 2251 DEB         
1 35825U 93036ASX 26281.94337824  .00000659  00000+0  48249-3 0  9992
2 35825  74.1137   8.6154 0351772  32.7175 329.5204 13.71878166866241
COSMOS 2251 DEB         
1 35829U 93036ATB 26279.54428136  .00008771  00000+0  10811-2 0  9992
2 35829  74.0210 231.6176 0010344 232.6865 127.3371 14.82997127921818
COSMOS 2251 DEB         
1 35830U 93036ATC 26282.73150441  .00001039  00000+0  41277-3 0  9991
2 35830  73.8587  77.5138 0121358 348.2653  11.5668 14.26086131655523
COSMOS 2251 DEB         
1 35834U 93036ATG 26283.33707299  .00000112  00000+0  69622-4 0  9997
2 35834  73.9308 127.7460 0110538 225.0929 311.6424 14.13177077705235
COSMOS 2251 DEB         
1 35835U 93036ATH 26280.90079358  .00000800  00000+0  53545-3 0  9996
2 35835  74.0605 124.9929 0292202 197.6689 161.4108 13.83669655658368
COSMOS 2251 DEB         
1 35836U 93036ATJ 26282.74219652  .00007129  00000+0  10141-2 0  9999
2 35836  74.0296 305.0400 0024993 288.6264  71.2196 14.76824953679568
COSMOS 2251 DEB         
1 35837U 93036ATK 26280.11901829  .00002078  00000+0  14375-2 0  9994
2 35837  73.7237  70.2139 0410856 308.9809 169.2155 13.65768627620479
COSMOS 2251 DEB         
1 35840U 93036ATN 26280.80312241  .00002470  00000+0  73111-3 0  9998
2 35840  73.9313 322.4169 0108519 161.6177 198.8949 14.40574865895945
COSMOS 2251 DEB         
1 35883U 93036ATW 26282.60660792  .00000597  00000+0  15140-3 0  9998
2 35883  74.0229 223.7244 0084350 277.7481 255.9006 14.51112189667495
COSMOS 2251 DEB         
1 35884U 93036ATX 26279.03653059  .00001723  00000+0  66805-3 0  9996
2 35884  73.9890 156.7658 0110824 234.1071 124.9751 14.27417726265977
COSMOS 2251 DEB         
1 35885U 93036ATY 26282.84031912  .00000473  00000+0  16468-3 0  9999
2 35885  74.0257 100.1824 0023200 112.1529 248.2090 14.37934222693437
COSMOS 2251 DEB         
1 35887U 93036AUA 26282.72014354  .00004252  00000+0  10547-2 0  9999
2 35887  73.9764 298.8243 0076020  19.4762 340.9274 14.50436191688868
COSMOS 2251 DEB         
1 35888U 93036AUB 26281.30857037  .00000738  00000+0  16023-3 0  9997
2 35888  74.0312 145.9347 0049908 202.2163 157.6841 14.59234128906422
COSMOS 2251 DEB         
1 35890U 93036AUD 26279.70590608  .00004196  00000+0  84276-3 0  9996
2 35890  73.9361  30.9417 0052200  88.7846 271.9299 14.61114744694988
COSMOS 2251 DEB         
1 35891U 93036AUE 26275.04412054  .00683608  20731-3  14675-2 0  9991
2 35891  73.9649 164.6126 0020914 193.6834 166.3840 15.98013474717759
COSMOS 2251 DEB         
1 35895U 93036AUJ 26276.14786387  .00001028  00000+0  56607-3 0  9995
2 35895  74.0463 196.2490 0204995 226.0905 132.3152 14.02764578631393
COSMOS 2251 DEB         
1 35898U 93036AUM 26283.61482606  .00008274  00000+0  65081-3 0  9991
2 35898  73.9905  44.9764 0074875 111.6778 262.0048 14.98747395713273
COSMOS 2251 DEB         
1 35902U 93036AUR 26278.81130882  .00001436  00000+0  55624-3 0  9994
2 35902  73.9820  54.7409 0101226 102.6547 258.5942 14.28108968653697
COSMOS 2251 DEB         
1 35905U 93036AUU 26281.45307373  .00003849  00000+0  26959-3 0  9991
2 35905  74.0311 320.2414 0084702 319.8368  39.6578 15.02723572930807
COSMOS 2251 DEB         
1 35956U 93036AUW 26282.43993372  .00005124  00000+0  21981-2 0  9993
2 35956  74.0701  84.1090 0226180  88.8104 273.8938 14.12200813661026
COSMOS 2251 DEB         
1 35959U 93036AUZ 26283.28658114  .00000179  00000+0  72920-4 0  9998
2 35959  74.0300 119.9592 0021664 132.1806 228.1190 14.34295951892514
COSMOS 2251 DEB         
1 35961U 93036AVB 26282.98105148  .00001849  00000+0  96310-3 0  9994
2 35961  73.9281  33.6884 0187305 266.1686  91.8018 14.06701247669164
COSMOS 2251 DEB         
1 35966U 93036AVG 26283.20794502  .00005407  00000+0  14970-2 0  9998
2 35966  74.0275  93.6472 0113398 112.9520 248.3650 14.43105846178585
COSMOS 2251 DEB         
1 35975U 93036AVR 26279.33259513  .00001693  00000+0  64229-3 0  9991
2 35975  74.0480 150.9246 0111652 158.7267 201.8579 14.28435317683493
COSMOS 2251 DEB         
1 35979U 93036AVV 26278.02771211  .00003548  00000+0  49039-3 0  9997
2 35979  74.0106  17.2313 0056740  75.1980  98.8418 14.77374233930058
COSMOS 2251 DEB         
1 35980U 93036AVW 26279.31797114  .00004063  00000+0  79643-3 0  9999
2 35980  73.9089 269.5203 0052726 334.2863  25.5682 14.62220663658325
COSMOS 2251 DEB         
1 35982U 93036AVY 26282.57185322  .00001503  00000+0  28339-3 0  9997
2 35982  74.0545 130.2686 0063699 120.2817 240.4676 14.64141081905670
COSMOS 2251 DEB         
1 35987U 93036AWD 26274.32610028  .00001092  00000+0  31909-3 0  9992
2 35987  73.9954 141.2396 0049210 197.5469 162.3991 14.44577502652883
COSMOS 2251 DEB         
1 35989U 93036AWF 26279.23697501  .00000253  00000+0  93390-4 0  9991
2 35989  74.0350  96.6230 0021491 109.7411 250.6063 14.37362528914536
COSMOS 2251 DEB         
1 35993U 93036AWK 26283.24286220  .00002244  00000+0  40188-3 0  9992
2 35993  74.0109 110.7804 0029547 220.4371 139.4603 14.67169158648629
COSMOS 2251 DEB         
1 35996U 93036AWN 26277.09314259  .00005381  00000+0  27035-3 0  9996
2 35996  74.0322 210.9995 0084769 226.0665 133.3514 15.14387800767904
COSMOS 2251 DEB         
1 35997U 93036AWP 26277.49582488  .00001024  00000+0  25659-3 0  9992
2 35997  74.0451 350.2984 0015731 347.7471  12.3306 14.52630089751777
COSMOS 2251 DEB         
1 36000U 93036AWS 26275.55218687  .00016580  00000+0  11412-2 0  9994
2 36000  73.9837 209.5580 0030147 245.7312 114.0728 15.05500919645706
COSMOS 2251 DEB         
1 36005U 93036AWX 26283.19068867  .00000414  00000+0  11724-3 0  9997
2 36005  74.0249 249.8142 0061917 311.2728  48.3107 14.47660838919469
COSMOS 2251 DEB         
1 36008U 93036AXA 26275.18414862  .00004809  00000+0  16885-2 0  9994
2 36008  74.0019  97.6107 0162654 173.4300 186.9038 14.28076322648099
COSMOS 2251 DEB         
1 36045U 93036AXG 26283.04577548  .00008721  00000+0  12347-2 0  9996
2 36045  73.7609 181.5579 0044133 146.4205 213.9780 14.76523768128274
COSMOS 2251 DEB         
1 36046U 93036AXH 26282.71424860  .00002031  00000+0  36278-3 0  9996
2 36046  74.0151  55.8394 0055405 127.4099 296.2737 14.66634109684143
COSMOS 2251 DEB         
1 36047U 93036AXJ 26283.11361301  .00032742  00000+0  17221-2 0  9990
2 36047  74.0131  75.3409 0009538  50.2981 309.9053 15.15477532704770
COSMOS 2251 DEB         
1 36048U 93036AXK 26282.21038256  .00000365  00000+0  12825-3 0  9993
2 36048  74.0542 106.5198 0025685  84.9726  36.6104 14.38220760898218
COSMOS 2251 DEB         
1 36049U 93036AXL 26282.36104396  .00002493  00000+0  47200-3 0  9998
2 36049  74.0276 261.8540 0014120 272.2140  87.7411 14.64832617897635
COSMOS 2251 DEB         
1 36050U 93036AXM 26283.33051790  .00006290  00000+0  41204-3 0  9994
2 36050  74.0292 297.4803 0082639 295.9826  63.2867 15.05118207715670
COSMOS 2251 DEB         
1 36053U 93036AXQ 26283.29900631  .00003293  00000+0  67856-3 0  9990
2 36053  73.8693 292.1350 0028189 184.4387 175.6533 14.60678376918433
COSMOS 2251 DEB         
1 36058U 93036AXV 26279.46525020  .00001070  00000+0  22629-3 0  9994
2 36058  74.0220 185.3469 0046444 243.4823 116.1577 14.59946379704548
COSMOS 2251 DEB         
1 36060U 93036AXX 26279.68602959  .00000500  00000+0  15848-3 0  9990
2 36060  74.0301  41.7427 0014253  68.4318 291.8355 14.42533033893058
COSMOS 2251 DEB         
1 36061U 93036AXY 26277.96975372  .00000333  00000+0  12730-3 0  9993
2 36061  74.0246 177.3374 0039112 196.1726 163.8181 14.34112866693508
COSMOS 2251 DEB         
1 36073U 93036AYL 26282.30839584  .00000304  00000+0  11502-3 0  9998
2 36073  74.0301 131.4223 0024119 131.3543 228.9689 14.35251017745198
COSMOS 2251 DEB         
1 36074U 93036AYM 26282.28317823  .00001194  00000+0  34290-3 0  9990
2 36074  73.9889 139.2914 0043882 161.9336 198.3394 14.45447815902505
COSMOS 2251 DEB         
1 36366U 93036AYT 26282.80323884  .00002591  00000+0  86983-3 0  9994
2 36366  74.0626  82.4201 0087296  37.1247 323.5899 14.35555496906061
COSMOS 2251 DEB         
1 36367U 93036AYU 26282.13565223  .00000832  00000+0  55186-3 0  9993
2 36367  74.1018  84.2346 0263183  85.1171 277.9948 13.87247302616940
COSMOS 2251 DEB         
1 36369U 93036AYW 26283.49453074  .00006653  00000+0  90647-3 0  9993
2 36369  74.0288 199.2175 0014256 209.7450 150.2916 14.78824595903769
COSMOS 2251 DEB         
1 36371U 93036AYY 26282.76346703  .00007590  00000+0  10932-2 0  9994
2 36371  74.0094 293.2914 0012612 267.8441  92.1289 14.76437115758808
COSMOS 2251 DEB         
1 36379U 93036AZG 26277.28253681  .00000312  00000+0  11397-3 0  9997
2 36379  74.0101 123.1963 0046337 183.1431 294.7123 14.36462299690719
COSMOS 2251 DEB         
1 36385U 93036AZN 26282.43792458  .00009091  00000+0  10937-2 0  9998
2 36385  73.9656 283.4766 0127940  23.9036 336.8006 14.78291537895381
COSMOS 2251 DEB         
1 36420U 93036AZT 26283.14518697  .00000240  00000+0  89466-4 0  9990
2 36420  74.0355  81.2871 0017407  99.8542  18.6993 14.37114988893668
COSMOS 2251 DEB         
1 36430U 93036BAD 26270.78761350  .00000441  00000+0  17832-3 0  9993
2 36430  74.0033 303.6092 0095403  25.0572 335.5161 14.28251484686834
COSMOS 2251 DEB         
1 36437U 93036BAL 26278.39195921  .00005758  00000+0  85047-3 0  9999
2 36437  73.9398 172.3347 0019269 321.2925  38.6866 14.75365666704201
COSMOS 2251 DEB         
1 36439U 93036BAN 26278.25791976  .00000494  00000+0  47183-3 0  9999
2 36439  73.9660 283.1652 0427370 198.6247 159.8805 13.48572146626095
COSMOS 2251 DEB         
1 36441U 93036BAQ 26282.77638776  .00008673  00000+0  45916-3 0  9991
2 36441  73.8296  81.1624 0100599 116.8374 244.3148 15.11193162915079
COSMOS 2251 DEB         
1 36451U 93036BBA 26258.52384170  .00001671  00000+0  67851-3 0  9997
2 36451  73.9525 197.9457 0183507 321.0354  37.7681 14.19719852881529
COSMOS 2251 DEB         
1 36453U 93036BBC 26283.37783829  .00001830  00000+0  42348-3 0  9995
2 36453  73.9221 298.5933 0066338 137.0216 286.2882 14.54547059888512
COSMOS 2251 DEB         
1 36459U 93036BBJ 26272.46391952  .00001918  00000+0  72513-3 0  9995
2 36459  74.0425 193.5984 0116713 219.1768 140.0891 14.28226125120305
COSMOS 2251 DEB         
1 36528U 93036BCN 26279.44243133  .00001051  00000+0  38884-3 0  9995
2 36528  74.0164 322.2415 0086138 300.4525  58.8137 14.31558931686868
COSMOS 2251 DEB         
1 36529U 93036BCP 26278.27652870  .00049743  00000+0  40980-2 0  9997
2 36529  74.0024 119.2207 0047888 121.6696 353.8824 14.97910167655545
COSMOS 2251 DEB         
1 36531U 93036BCR 26275.21001904  .00003845  00000+0  11891-2 0  9999
2 36531  74.0859 196.8091 0151842 142.2039 218.9896 14.35138108637002
COSMOS 2251 DEB         
1 36533U 93036BCT 26283.29404522  .00001088  00000+0  28092-3 0  9990
2 36533  74.0089 267.4439 0048394 340.6456  19.2864 14.50561942888563
COSMOS 2251 DEB         
1 36539U 93036BCZ 26283.19002401  .00001852  00000+0  38288-3 0  9992
2 36539  74.0220 199.2771 0028643 263.8712  95.9190 14.60840193883470
COSMOS 2251 DEB         
1 36540U 93036BDA 26283.44322921  .00002766  00000+0  56840-3 0  9993
2 36540  74.0284 324.5260 0016344 316.5639  43.4238 14.61030231904130
COSMOS 2251 DEB         
1 36550U 93036BDL 26283.57679837  .00000851  00000+0  34238-3 0  9999
2 36550  74.0465   6.3163 0078182 342.9929  16.8600 14.27990340889038
COSMOS 2251 DEB         
1 36551U 93036BDM 26283.22471256  .00013703  00000+0  71574-3 0  9991
2 36551  73.8931 107.0248 0031901 350.1632   9.8933 15.15481292714810
COSMOS 2251 DEB         
1 36557U 93036BDT 26283.59948324  .00022813  00000+0  24234-2 0  9994
2 36557  73.9773 245.5937 0020592 307.0125  52.9171 14.88792178383751
COSMOS 2251 DEB         
1 36558U 93036BDU 26283.33957124  .00001911  00000+0  43038-3 0  9995
2 36558  74.0408 302.5994 0014446 308.3228  51.6637 14.57039424896593
COSMOS 2251 DEB         
1 36559U 93036BDV 26282.24129053  .00002467  00000+0  12996-2 0  9992
2 36559  74.1224 214.3857 0260558 175.1828 185.1910 13.98519895852916
COSMOS 2251 DEB         
1 36614U 93036BEC 26278.40778017  .00003380  00000+0  66246-3 0  9990
2 36614  74.0232 326.1789 0016782 319.7120  40.2803 14.63091074699481
COSMOS 2251 DEB         
1 36622U 93036BEL 26282.34406634  .00002622  00000+0  35291-3 0  9994
2 36622  74.0112 274.8958 0066667 332.4904  27.2747 14.78248222711890
COSMOS 2251 DEB         
1 36632U 93036BEW 26282.85218324  .00001454  00000+0  42739-3 0  9995
2 36632  73.9984  91.2873 0033557 129.9340 230.4775 14.44337737695611
COSMOS 2251 DEB         
1 37084U 93036BFE 26282.30377241  .00004884  00000+0  31987-3 0  9994
2 37084  74.0244 267.1743 0092008 267.0020  92.0637 15.04556947707839
COSMOS 2251 DEB         
1 37089U 93036BFK 26281.32926047  .00005278  00000+0  10394-2 0  9990
2 37089  74.0352 297.7817 0130184 321.2284  37.9590 14.57499754704694
COSMOS 2251 DEB         
1 37094U 93036BFQ 26279.71512265  .00001109  00000+0  35241-3 0  9997
2 37094  74.1069 294.1592 0081815 183.6573 176.3995 14.39197673887913
COSMOS 2251 DEB         
1 37095U 93036BFR 26283.64345975  .00001000  00000+0  54472-3 0  9994
2 37095  73.8474  17.5295 0192191  20.8579 340.0261 14.04525150668735
COSMOS 2251 DEB         
1 37101U 93036BFX 26283.55332123  .00004053  00000+0  70191-3 0  9990
2 37101  74.0309 231.4601 0044968 241.1189 118.5466 14.67985390700977
COSMOS 2251 DEB         
1 37108U 93036BGE 26283.25568779  .00002019  00000+0  57902-3 0  9997
2 37108  74.0408 241.4558 0094078 243.2809 115.8695 14.43049520898540
COSMOS 2251 DEB         
1 37118U 93036BGQ 26283.51548572  .00011804  00000+0  13665-2 0  9995
2 37118  74.0127 205.8978 0007246 218.8738 141.1921 14.85546601700239
COSMOS 2251 DEB         
1 37126U 93036BGY 26279.95355618  .00000526  00000+0  76944-4 0  9994
2 37126  73.9493 129.9655 0121371 297.1400  61.7437 14.73866723124913
COSMOS 2251 DEB         
1 37132U 93036BHE 26278.57024262  .00004312  00000+0  54660-3 0  9993
2 37132  74.0015   8.1150 0038138  89.1655 271.3892 14.81553175668076
COSMOS 2251 DEB         
1 37269U 93036BHH 26276.12334208  .00001971  00000+0  73306-3 0  9993
2 37269  74.1651 220.3714 0102026  16.4710 343.9713 14.29847670102722
COSMOS 2251 DEB         
1 37270U 93036BHJ 26282.21446998  .00001574  00000+0  12402-2 0  9990
2 37270  73.9300 204.6117 0393187 161.0336 200.5907 13.61674583811574
COSMOS 2251 DEB         
1 37278U 93036BHS 26267.49067481  .00003569  00000+0  11770-2 0  9990
2 37278  73.7861 193.0581 0295717 325.9007 154.5821 14.16537554678733
COSMOS 2251 DEB         
1 37280U 93036BHU 26279.58153311  .00001830  00000+0  78844-3 0  9999
2 37280  74.0280 243.9277 0133477 299.7591  59.0330 14.20626933615518
COSMOS 2251 DEB         
1 37284U 93036BHY 26277.45172569  .00001291  00000+0  61579-3 0  9991
2 37284  74.0169 352.6399 0156853  74.7053 299.2712 14.13936573633538
COSMOS 2251 DEB         
1 37292U 93036BJG 26279.26185616  .00001461  00000+0  76038-3 0  9993
2 37292  74.1241 253.6482 0207288 182.3697 177.6481 14.04995787640252
COSMOS 2251 DEB         
1 37293U 93036BJH 26282.10219762  .00002053  00000+0  56165-3 0  9998
2 37293  73.9254  76.9921 0064813 281.4304  77.9579 14.46663411697152
COSMOS 2251 DEB         
1 37295U 93036BJK 26281.82673306  .00002428  00000+0  43523-3 0  9996
2 37295  74.0048  62.3004 0044244 167.2404 192.9897 14.66724952867022
COSMOS 2251 DEB         
1 37305U 93036BJV 26283.14212191  .00000973  00000+0  33310-3 0  9992
2 37305  73.8665  90.9435 0047425 350.7077   9.3192 14.37039830711951
COSMOS 2251 DEB         
1 37312U 93036BKC 26282.58397395  .00000853  00000+0  24166-3 0  9993
2 37312  74.0335   2.1696 0017346  29.3122 330.9006 14.46944324905145
COSMOS 2251 DEB         
1 37316U 93036BKG 26282.53464189  .00034015  00000+0  19135-2 0  9994
2 37316  74.0117 124.9036 0027369 126.6033 233.7684 15.12788422906665
COSMOS 2251 DEB         
1 37320U 93036BKL 26279.58603629  .00002821  00000+0  35406-3 0  9994
2 37320  74.0476 351.1716 0044461 359.4672   0.6449 14.81985401705550
COSMOS 2251 DEB         
1 37326U 93036BKS 26282.87861005  .00001496  00000+0  29260-3 0  9998
2 37326  74.0209 117.4929 0056219 172.1531 188.0530 14.62811228898859
COSMOS 2251 DEB         
1 37330U 93036BKW 26282.12943240  .00001029  00000+0  21465-3 0  9994
2 37330  74.0155  81.2421 0057660 214.3416 145.4018 14.60283543907525
COSMOS 2251 DEB         
1 37331U 93036BKX 26282.13653292  .00000872  00000+0  30443-3 0  9992
2 37331  74.0720 238.0835 0056445 179.5771 180.5441 14.35821948890701
COSMOS 2251 DEB         
1 37336U 93036BLC 26283.33104645  .00000108  00000+0  48700-4 0  9991
2 37336  74.0398 140.5847 0029320 148.2825 212.0101 14.32857873694396
COSMOS 2251 DEB         
1 37340U 93036BLG 26283.15960175  .00000318  00000+0  11537-3 0  9994
2 37340  74.0233  82.4717 0017416 109.6885 250.6149 14.37190181883970
COSMOS 2251 DEB         
1 37483U 93036BLL 26283.32970897  .00000416  00000+0  12368-3 0  9995
2 37483  73.9730 300.4395 0090716  77.7385 283.3912 14.43967658696327
COSMOS 2251 DEB         
1 37484U 93036BLM 26278.02788784  .00001196  00000+0  36205-3 0  9991
2 37484  73.8247  11.5510 0038738 348.9713 186.4874 14.43046516696515
COSMOS 2251 DEB         
1 37486U 93036BLP 26282.76926757  .00002264  00000+0  92616-3 0  9998
2 37486  73.6900 288.9213 0214936 113.2444  59.6033 14.16056510676275
COSMOS 2251 DEB         
1 37487U 93036BLQ 26283.38763208  .00023628  00000+0  20269-2 0  9999
2 37487  73.8904 303.6091 0021304  52.2367 308.0743 14.97246923857371
COSMOS 2251 DEB         
1 37491U 93036BLU 26282.82947073  .00000928  00000+0  68152-3 0  9998
2 37491  73.9033 129.0111 0313492  65.2749 298.0655 13.76042977598879
COSMOS 2251 DEB         
1 37496U 93036BLZ 26281.04678089  .00016302  00000+0  10671-2 0  9999
2 37496  73.9440  69.4884 0050354  11.5980 348.6356 15.06679428705070
COSMOS 2251 DEB         
1 37498U 93036BMB 26279.85094310  .00002053  00000+0  46556-3 0  9996
2 37498  74.0371 338.7358 0012608 324.4319  35.6004 14.56692794696939
COSMOS 2251 DEB         
1 37499U 93036BMC 26283.28716591  .00000230  00000+0  90204-4 0  9996
2 37499  74.0357 130.0419 0027293 136.5452 223.7858 14.34556836894738
COSMOS 2251 DEB         
1 37528U 93036BNH 26283.34292307  .00000981  00000+0  25280-3 0  9994
2 37528  74.0346 274.9081 0020615 341.2644  18.7756 14.51298687903052
COSMOS 2251 DEB         
1 37530U 93036BNK 26281.98780301  .00000334  00000+0  12648-3 0  9997
2 37530  74.0345 143.6189 0026249 137.2779 290.2358 14.34804869895383
COSMOS 2251 DEB         
1 37531U 93036BNL 26269.82599630  .00007210  00000+0  12186-2 0  9996
2 37531  74.0062  68.3923 0034449  82.4911 278.0171 14.69150999742765
COSMOS 2251 DEB         
1 37532U 93036BNM 26281.98013980  .00000408  00000+0  13022-3 0  9990
2 37532  74.0529  19.0798 0014700  44.4974  73.1606 14.42795104892455
COSMOS 2251 DEB         
1 37533U 93036BNN 26273.72434355  .00001070  00000+0  51620-3 0  9999
2 37533  74.0690  36.3927 0157885  22.3592 338.4330 14.13500029670457
COSMOS 2251 DEB         
1 37535U 93036BNQ 26283.18643698  .00002020  00000+0  42452-3 0  9993
2 37535  74.0217 218.3754 0029069 277.0011 148.6349 14.60018749897223
COSMOS 2251 DEB         
1 37537U 93036BNS 26283.09374122  .00000413  00000+0  14354-3 0  9992
2 37537  74.0109  69.5587 0050633 139.5707 220.9227 14.37795998893643
COSMOS 2251 DEB         
1 37546U 93036BPB 26282.25023701  .00015436  00000+0  15944-2 0  9999
2 37546  74.0185 219.9286 0007470 206.8855 153.1940 14.90134781703518
COSMOS 2251 DEB         
1 37959U 93036BPJ 26282.23965556  .00001454  00000+0  30524-3 0  9995
2 37959  74.0093 203.5157 0058404 270.0208 242.2379 14.59553132845094
COSMOS 2251 DEB         
1 37960U 93036BPK 26283.50786398  .00001246  00000+0  55632-3 0  9999
2 37960  74.0606  17.5709 0247953 323.9583  34.5050 14.08726892816540
COSMOS 2251 DEB         
1 37961U 93036BPL 26282.42993392  .00002018  00000+0  42207-3 0  9996
2 37961  74.0375 284.2313 0041834 287.0533  72.6051 14.59953104844519
COSMOS 2251 DEB         
1 37967U 93036BPS 26283.30500100  .00003162  00000+0  84168-3 0  9994
2 37967  74.0129 297.4829 0146472   2.1769 357.9991 14.42742367690825
COSMOS 2251 DEB         
1 37968U 93036BPT 26282.50811605  .00007181  00000+0  46488-3 0  9999
2 37968  74.0008  14.8063 0073103  52.9630 307.8217 15.06098413647401
COSMOS 2251 DEB         
1 37969U 93036BPU 26280.17680831  .00005110  00000+0  12973-2 0  9997
2 37969  73.9719  95.2808 0101419 223.4225 135.8915 14.47965387557812
COSMOS 2251 DEB         
1 37971U 93036BPW 26279.50924257  .00003410  00000+0  82842-3 0  9992
2 37971  73.9909 200.5925 0068798 264.8945  94.4361 14.51832952649955
COSMOS 2251 DEB         
1 37973U 93036BPY 26278.88245995  .00000852  00000+0  26149-3 0  9994
2 37973  74.0283 112.2462 0036633 117.9189 242.5684 14.42786832692733
COSMOS 2251 DEB         
1 37975U 93036BQA 26283.13471596  .00016663  00000+0  17120-2 0  9993
2 37975  73.9945  85.9265 0071487   3.3237 356.8402 14.88444046742149
COSMOS 2251 DEB         
1 37985U 93036BQL 26283.65812297  .00000060  00000+0  29722-4 0  9995
2 37985  74.0241  71.5412 0020551 126.0539 234.2521 14.35554853692493
COSMOS 2251 DEB         
1 37988U 93036BQP 26283.39529948  .00003261  00000+0  51254-3 0  9997
2 37988  74.0603 159.4421 0061182 120.2774 240.4473 14.71730169278307
COSMOS 2251 DEB         
1 37993U 93036BQU 26278.79167081  .00002787  00000+0  55069-3 0  9997
2 37993  74.0229 318.1246 0022754 328.0145  31.9640 14.62744701696577
COSMOS 2251 DEB         
1 37994U 93036BQV 26282.83224840  .00000621  00000+0  20439-3 0  9993
2 37994  74.0342  79.4194 0022348  88.8481 271.5234 14.40121170813988
COSMOS 2251 DEB         
1 37996U 93036BQX 26275.04460150  .00003155  00000+0  13189-2 0  9994
2 37996  74.0610  45.1398 0219404  85.5144 277.1025 14.14336268602775
COSMOS 2251 DEB         
1 37998U 93036BQZ 26281.99491555  .00000953  00000+0  27220-3 0  9995
2 37998  74.0371  34.8883 0018894  36.7724 323.4726 14.46397172686273
COSMOS 2251 DEB         
1 38001U 93036BRC 26282.39152490  .00003848  00000+0  47724-3 0  9995
2 38001  73.9974 258.2272 0063070 330.3730 181.2585 14.81623599791573
COSMOS 2251 DEB         
1 38006U 93036BRH 26278.43453331  .00003738  00000+0  95412-3 0  9993
2 38006  73.8440 196.0919 0066374  90.0105 270.8660 14.49560031672558
COSMOS 2251 DEB         
1 38054U 93036BRL 26283.36874137  .00002232  00000+0  18594-2 0  9998
2 38054  73.9503 131.6138 0352393  50.7840   6.5413 13.63925563712902
COSMOS 2251 DEB         
1 38055U 93036BRM 26282.43109027  .00002479  00000+0  32262-3 0  9997
2 38055  74.0089 334.6512 0062524  25.5096 347.5304 14.79864470651278
COSMOS 2251 DEB         
1 38056U 93036BRN 26280.00016856  .00002585  00000+0  15146-2 0  9995
2 38056  73.9156 124.3255 0279657  53.3538 309.2951 13.90938596684189
COSMOS 2251 DEB         
1 38057U 93036BRP 26279.26190838  .00003511  00000+0  13707-2 0  9996
2 38057  73.9971 257.9437 0140360 338.0642  21.4531 14.24733238641732
COSMOS 2251 DEB         
1 38058U 93036BRQ 26283.33464532  .00001752  00000+0  13138-2 0  9998
2 38058  74.0000 159.1434 0398187 340.3647  18.2490 13.63542420624384
COSMOS 2251 DEB         
1 38060U 93036BRS 26278.72771317  .00001278  00000+0  23840-3 0  9995
2 38060  74.0393  84.6205 0057825 116.0796 244.6340 14.65031925763125
COSMOS 2251 DEB         
1 38062U 93036BRU 26283.57206501  .00034157  00000+0  21029-2 0  9992
2 38062  74.0033  33.1936 0013798  76.4577 294.5967 15.09767522675641
COSMOS 2251 DEB         
1 38064U 93036BRW 26283.25131056  .00002393  00000+0  51970-3 0  9997
2 38064  74.0193 270.7645 0047694 312.4413  47.2721 14.57959110762578
COSMOS 2251 DEB         
1 38067U 93036BRZ 26279.10773470  .00001038  00000+0  20660-3 0  9998
2 38067  74.0155  64.9042 0069268 139.3117 342.8782 14.61911504669006
COSMOS 2251 DEB         
1 38068U 93036BSA 26280.96856918  .00000336  00000+0  12333-3 0  9992
2 38068  74.0194 118.2392 0025561 138.8443 221.4643 14.36357970709427
COSMOS 2251 DEB         
1 38197U 93036BSM 26283.25370144  .00009718  00000+0  10331-2 0  9990
2 38197  73.9318 119.2439 0096869 282.6530  76.3831 14.85646730902164
COSMOS 2251 DEB         
1 38199U 93036BSP 26278.36175338  .00000364  00000+0  30050-3 0  9995
2 38199  73.9538 294.6681 0365933 163.1853 198.1782 13.65197787650695
COSMOS 2251 DEB         
1 38208U 93036BSY 26282.21531994  .00015390  00000+0  14101-2 0  9992
2 38208  74.0015 196.3851 0008440 219.2592 291.8512 14.94902019756341
COSMOS 2251 DEB         
1 38212U 93036BTC 26281.22047297  .00001087  00000+0  14133-3 0  9999
2 38212  74.0500 208.4728 0092119 196.5454 163.2713 14.79135947857363
COSMOS 2251 DEB         
1 38220U 93036BTL 26278.10169065  .00056584  00000+0  31356-2 0  9996
2 38220  74.0055 181.4357 0005515 180.9887 179.1297 15.13505998758253
COSMOS 2251 DEB         
1 38479U 93036BTP 26278.54473788  .00002179  00000+0  66438-3 0  9991
2 38479  74.0082 355.0295 0081446  31.9078  28.9614 14.40652417689595
COSMOS 2251 DEB         
1 38481U 93036BTR 26278.07550142  .00001249  00000+0  75122-3 0  9999
2 38481  73.9310 214.9188 0225267  96.1958 266.4885 13.95895197631943
COSMOS 2251 DEB         
1 38483U 93036BTT 26276.05069131  .00001064  00000+0  39395-3 0  9997
2 38483  74.2597 204.3559 0113818 221.5529 137.6931 14.29927984676833
COSMOS 2251 DEB         
1 38486U 93036BTW 26282.41553725  .00009075  00000+0  11475-2 0  9992
2 38486  73.9394 330.8919 0029104  35.8658 336.9312 14.81660512798779
COSMOS 2251 DEB         
1 38487U 93036BTX 26277.28061132  .00346431  00000+0  25619-2 0  9993
2 38487  73.9499 115.0163 0014463 171.9256 188.2204 15.71720366713418
COSMOS 2251 DEB         
1 39109U 93036BTY 26283.58070781  .00001685  00000+0  26450-3 0  9999
2 39109  74.0438 358.4553 0057347  23.4544  39.7767 14.72383678696145
COSMOS 2251 DEB         
1 39110U 93036BTZ 26283.43905414  .00001584  00000+0  23292-3 0  9994
2 39110  73.9579 190.9118 0093860 351.0536 131.4238 14.73456799669260
COSMOS 2251 DEB         
1 39546U 93036BUC 26283.27217549  .00012683  00000+0  10233-2 0  9996
2 39546  73.9954 246.0987 0039217 324.4922  35.3654 14.99300940689468
COSMOS 2251 DEB         
1 39553U 93036BUK 26276.41471586  .00000839  00000+0  48178-3 0  9995
2 39553  74.0278 179.0909 0205245 247.3551 110.5763 14.00859059797428
COSMOS 2251 DEB         
1 39583U 93036BUN 26283.61538732  .00005915  00000+0  98698-3 0  9997
2 39583  73.9341  24.4184 0127990  70.4380 291.0555 14.64833468661940
COSMOS 2251 DEB         
1 39585U 93036BUQ 26279.21827267  .00000628  00000+0  13544-3 0  9997
2 39585  74.0384  94.7176 0065963 141.1304 219.4633 14.59240646668598
COSMOS 2251 DEB         
1 39586U 93036BUR 26278.66332361  .00000477  00000+0  21696-3 0  9991
2 39586  74.0093  54.9365 0100079 121.4688 253.1358 14.21683025651916
COSMOS 2251 DEB         
1 39591U 93036BUW 26278.65928963  .00000683  00000+0  21338-3 0  9997
2 39591  74.0199  55.6544 0028589  99.1337 274.6001 14.42435597660570
COSMOS 2251 DEB         
1 40218U 93036BUX 26281.71245282  .00000626  00000+0  19795-3 0  9993
2 40218  74.0307  52.6425 0015846  66.0610 294.2203 14.42159740631857
COSMOS 2251 DEB         
1 40228U 93036BVH 26281.74240832  .00000515  00000+0  16615-3 0  9998
2 40228  74.0539  65.6832 0022790  53.8802   9.1130 14.41472668632437
COSMOS 2251 DEB         
1 40230U 93036BVK 26283.52787373  .00001540  00000+0  39823-3 0  9990
2 40230  74.0465  20.3546 0017376   1.7405  11.7114 14.50669719633463
COSMOS 2251 DEB         
1 40233U 93036BVN 26281.89453751  .00002852  00000+0  58161-3 0  9994
2 40233  73.9365 247.0811 0047305 253.8607 105.7349 14.60770533635177
COSMOS 2251 DEB         
1 40235U 93036BVQ 26275.16574152  .00003838  00000+0  59509-3 0  9990
2 40235  74.0152 236.0114 0012702 267.6943 105.1656 14.73466460636809
COSMOS 2251 DEB         
1 40236U 93036BVR 26281.69511972  .00000778  00000+0  85587-3 0  9992
2 40236  73.5426  30.7513 0534466 243.8737 110.6444 13.25188684575974
COSMOS 2251 DEB         
1 40238U 93036BVT 26280.47585469  .00001338  00000+0  13649-2 0  9993
2 40238  73.9885 324.4881 0549629 239.4728 115.1027 13.25949830579955
COSMOS 2251 DEB         
1 40239U 93036BVU 26276.19114079  .00000892  00000+0  17196-3 0  9999
2 40239  74.0292  71.4389 0084371 109.3520  64.1433 14.62837054639154
COSMOS 2251 DEB         
1 40792U 93036BVV 26278.04363576  .00003288  00000+0  54641-3 0  9995
2 40792  74.0436 193.9149 0018979 222.1524 150.4772 14.70444248675367
COSMOS 2251 DEB         
1 40793U 93036BVW 26276.97113809  .00000384  00000+0  20149-3 0  9998
2 40793  73.9820   6.7328 0211180  98.4484 264.0650 14.06425209723952
COSMOS 2251 DEB         
1 40794U 93036BVX 26283.59743332  .00089500  00000+0  40628-2 0  9995
2 40794  73.9688 222.2051 0010935 247.0958 285.5191 15.20300041664692
COSMOS 2251 DEB         
1 40796U 93036BVZ 26277.75918242  .00003888  00000+0  44963-3 0  9994
2 40796  74.0095 274.8934 0053632 333.6078 200.9509 14.84891094805487
COSMOS 2251 DEB         
1 40797U 93036BWA 26274.50996380  .00008181  00000+0  36984-3 0  9999
2 40797  73.9327 201.4857 0055951  39.7932 320.7346 15.19647753690801
COSMOS 2251 DEB         
1 40799U 93036BWC 26283.49939238  .00004777  00000+0  34458-3 0  9999
2 40799  73.9260 202.4339 0111607  12.5261 347.8656 14.99487335544964
COSMOS 2251 DEB         
1 40802U 93036BWF 26279.30672086  .00002372  00000+0  30936-3 0  9990
2 40802  74.0380 287.9527 0061709 307.6721  51.8867 14.79847734688086
COSMOS 2251 DEB         
1 40803U 93036BWG 26277.11092765  .00000553  00000+0  14178-3 0  9997
2 40803  74.0127 214.5342 0032439 355.2225   4.8622 14.52411582630402
COSMOS 2251 DEB         
1 40808U 93036BWM 26283.36007240  .00005288  00000+0  85172-3 0  9992
2 40808  74.0384 280.8596 0011786 252.5624 173.5397 14.71707807680512
COSMOS 2251 DEB         
1 40810U 93036BWP 26281.25193464  .00001644  00000+0  34575-3 0  9998
2 40810  74.0341 223.5017 0019504 290.4031  69.5040 14.60274282660532
COSMOS 2251 DEB         
1 46271U 93036BWT 26274.63218602  .00000546  00000+0  14092-3 0  9993
2 46271  74.0441 246.9908 0041584 291.5209  68.1522 14.51977110888925
COSMOS 2251 DEB         
1 46430U 93036BWU 26277.91061408  .00004416  00000+0  97371-3 0  9995
2 46430  73.9117 152.7059 0090725   8.4192 351.8466 14.55136672839860
COSMOS 2251 DEB         
1 46432U 93036BWW 26275.59875383  .00000044  00000+0  62873-4 0  9997
2 46432  73.8741   8.0934 0471541  75.5272 348.8158 13.36973536708935
COSMOS 2251 DEB         
1 47045U 93036BWZ 26282.85138644  .00000129  00000+0  50099-4 0  9998
2 47045  74.0581 314.4736 0028857  18.2024 156.6816 14.39026594121361
COSMOS 2251 DEB         
1 47048U 93036BXC 26282.85504944  .00004022  00000+0  83967-3 0  9996
2 47048  73.9743 107.9514 0128775 223.5287 202.5989 14.55116320640669
COSMOS 2251 DEB         
1 47051U 93036BXF 26268.22428162  .00001245  00000+0  99312-3 0  9997
2 47051  74.0980  74.9811 0341565 121.4512  52.2255 13.67921555638548
COSMOS 2251 DEB         
1 47052U 93036BXG 26281.38313712  .00000332  00000+0  12119-3 0  9990
2 47052  74.0480 150.8954 0058976 153.0655  21.4241 14.35870351660895
COSMOS 2251 DEB         
1 47053U 93036BXH 26258.44354346  .00000439  00000+0  38508-3 0  9998
2 47053  74.0603 165.8997 0378198 278.2241 204.1965 13.60254609326507
COSMOS 2251 DEB         
1 47062U 93036BXS 26282.81902733  .00001372  00000+0  10414-2 0  9997
2 47062  74.0800 301.2749 0324476 356.5991 180.7353 13.72660237597320
COSMOS 2251 DEB         
1 47067U 93036BXX 26281.43758395  .00005185  00000+0  15219-2 0  9996
2 47067  74.2039 319.8442 0158398  87.9002 334.0645 14.36955721743532
COSMOS 2251 DEB         
1 47068U 93036BXY 26282.93881461  .00001895  00000+0  44569-3 0  9999
2 47068  74.0257 353.5732 0018208   4.2195 355.9118 14.54996388661350
COSMOS 2251 DEB         
1 47069U 93036BXZ 26280.19319424  .00011821  00000+0  11982-2 0  9993
2 47069  74.0076 237.9095 0005405 210.0667 150.0205 14.90954430769322
COSMOS 2251 DEB         
1 47073U 93036BYD 26278.07979378  .00000164  00000+0  10367-3 0  9997
2 47073  74.0830  46.0372 0161292  12.0365 348.4552 14.05194609645235
COSMOS 2251 DEB         
1 47074U 93036BYE 26283.30320411  .00003503  00000+0  10395-2 0  9998
2 47074  74.0893 115.7853 0139491  66.8248 105.8754 14.38118599 70147
COSMOS 2251 DEB         
1 47116U 93036BYJ 26282.87932006  .00027369  00000+0  15215-2 0  9997
2 47116  74.0264 342.0278 0018692 357.6094 124.8397 15.13430252640459
COSMOS 2251 DEB         
1 47119U 93036BYM 26282.74163285  .00015304  00000+0  26050-2 0  9996
2 47119  74.0857 297.6883 0095187 251.0443 231.6247 14.66098519646030
COSMOS 2251 DEB         
1 53093U 93036BYP 26282.93995739  .00001202  00000+0  36483-3 0  9996
2 53093  74.0326 102.5139 0020465 112.3907 247.9421 14.43131687220691
