IRIDIUM 33              
1 24946U 97051C   26283.33412683  .00000180  00000+0  56072-4 0  9990
2 24946  86.3832 301.6321 0006338 322.6690  37.4065 14.35184438521601
IRIDIUM 33 DEB          
1 33773U 97051L   26283.31246051  .00000600  00000+0  17039-3 0  9996
2 33773  86.3959 292.7566 0009353 227.2434 132.7981 14.43785969926987
IRIDIUM 33 DEB          
1 33775U 97051N   26283.30993236  .00000851  00000+0  25221-3 0  9991
2 33775  86.3574 280.7196 0010503 240.9545 182.5221 14.42224669924861
IRIDIUM 33 DEB          
1 33776U 97051P   26283.34669537  .00000511  00000+0  16050-3 0  9993
2 33776  86.4024 314.0850 0012268 290.0839  80.4754 14.38648498924180
IRIDIUM 33 DEB          
1 33777U 97051Q   26282.99629215  .00002896  00000+0  63401-3 0  9993
2 33777  86.3721 263.9358 0005450 340.3726  19.7272 14.57411959929195
IRIDIUM 33 DEB          
1 33850U 97051T   26283.30779236  .00001057  00000+0  31067-3 0  9991
2 33850  86.3361 260.4077 0009307 249.8700 159.8671 14.42876519925003
IRIDIUM 33 DEB          
1 33853U 97051W   26282.80951495  .00001477  00000+0  81339-3 0  9990
2 33853  86.0002 217.6592 0213849  32.5978 356.7384 14.00035038895577
IRIDIUM 33 DEB          
1 33860U 97051AD  26282.94765538  .00006591  00000+0  10651-2 0  9994
2 33860  86.3775 253.3921 0010292  34.5197  19.6476 14.71199215931462
IRIDIUM 33 DEB          
1 33862U 97051AF  26283.02275230  .00003617  00000+0  53324-3 0  9992
2 33862  86.4044 264.0139 0051211 100.4711 327.8604 14.74158323932573
IRIDIUM 33 DEB          
1 33866U 97051AK  26283.40774176  .00001164  00000+0  44352-3 0  9997
2 33866  86.3048 325.2576 0110237 270.0254 101.1203 14.26849531911104
IRIDIUM 33 DEB          
1 33870U 97051AP  26283.06801123  .00001418  00000+0  38288-3 0  9990
2 33870  86.3693 288.9593 0018065 259.5144 162.3750 14.47121610924930
IRIDIUM 33 DEB          
1 33881U 97051BA  26283.41418238  .00005021  00000+0  93962-3 0  9996
2 33881  86.3871 334.7123 0054877 226.8378 145.2610 14.63704085919048
IRIDIUM 33 DEB          
1 33884U 97051BD  26283.28381398  .00008467  00000+0  99574-3 0  9992
2 33884  86.3647 232.7065 0011155 350.9987 139.5489 14.84708108933129
IRIDIUM 33 DEB          
1 33886U 97051BF  26283.33649966  .00000350  00000+0  11281-3 0  9990
2 33886  86.3790 300.2755 0013335 348.9331  22.1135 14.36331745923815
IRIDIUM 33 DEB          
1 33887U 97051BG  26283.61827637  .00000339  00000+0  10690-3 0  9995
2 33887  86.3041 233.2667 0005746 354.3712 130.3418 14.37455873925013
IRIDIUM 33 DEB          
1 33953U 97051BN  26283.05287485  .00002446  00000+0  53120-3 0  9994
2 33953  86.3795 282.7317 0016932 156.5101 270.7442 14.57641744926908
IRIDIUM 33 DEB          
1 33960U 97051BV  26283.38450529  .00013433  00000+0  11753-2 0  9992
2 33960  86.2554 145.8043 0003569  91.6732  81.0777 14.96631979933650
IRIDIUM 33 DEB          
1 33966U 97051CB  26283.00490185  .00001266  00000+0  31763-3 0  9994
2 33966  86.3861 276.6197 0005098 280.5747 133.4218 14.50630700928089
IRIDIUM 33 DEB          
1 34071U 97051CE  26283.60862889  .00001501  00000+0  37720-3 0  9993
2 34071  86.3419 246.4448 0007383 160.0770 200.0725 14.50662516927091
IRIDIUM 33 DEB          
1 34077U 97051CL  26283.24617270  .00005473  00000+0  92601-3 0  9992
2 34077  86.3790 278.1400 0011869  74.2172 296.7218 14.69141707927548
IRIDIUM 33 DEB          
1 34079U 97051CN  26282.82577781  .00016596  00000+0  16335-2 0  9996
2 34079  86.3738 230.5845 0008082  19.8650   9.6395 14.91968737934568
IRIDIUM 33 DEB          
1 34088U 97051CX  26283.65195230  .00047951  00000+0  28685-2 0  9993
2 34088  86.3633 249.5058 0007939 118.4693  56.6312 15.10814003932726
IRIDIUM 33 DEB          
1 34091U 97051DA  26283.02345964  .00048284  00000+0  36996-2 0  9993
2 34091  86.3412 286.5993 0021231 302.2163  57.7011 15.01452129923613
IRIDIUM 33 DEB          
1 34097U 97051DG  26282.30176646  .00002526  00000+0  82101-3 0  9997
2 34097  86.1987 228.4704 0082740  97.8642 263.1957 14.36512551914323
IRIDIUM 33 DEB          
1 34145U 97051DY  26283.52242655  .00002008  00000+0  57146-3 0  9996
2 34145  86.2165 197.8836 0050956 175.1141 185.0569 14.44114012919919
IRIDIUM 33 DEB          
1 34146U 97051DZ  26283.28224523  .00002741  00000+0  69092-3 0  9991
2 34146  86.2850 216.3778 0024508 304.9202 187.0728 14.50637484924765
IRIDIUM 33 DEB          
1 34159U 97051EN  26283.27478464  .00000825  00000+0  25938-3 0  9991
2 34159  86.3449 279.6167 0028549  21.6814 338.5586 14.39109006922954
IRIDIUM 33 DEB          
1 34350U 97051ES  26282.62068700  .00000887  00000+0  24273-3 0  9999
2 34350  86.3272 232.1480 0019173 215.8813 320.2777 14.46046827926405
IRIDIUM 33 DEB          
1 34366U 97051FJ  26283.01694138  .00002927  00000+0  65291-3 0  9992
2 34366  86.3626 277.9629 0018543 198.5954 216.2175 14.56455200925641
IRIDIUM 33 DEB          
1 34375U 97051FT  26283.64744608  .00000723  00000+0  32534-3 0  9995
2 34375  86.4275  60.8789 0099956 246.8285 125.4853 14.18465711909911
IRIDIUM 33 DEB          
1 34376U 97051FU  26283.58064913  .00007209  00000+0  12668-2 0  9994
2 34376  86.2952 230.1401 0021611 214.9978 144.9817 14.67402501924277
IRIDIUM 33 DEB          
1 34486U 97051GB  26283.62999279  .00045223  00000+0  24584-2 0  9991
2 34486  86.3777 230.2482 0010257  88.4947  86.4844 15.14250417935282
IRIDIUM 33 DEB          
1 34487U 97051GC  26283.64002230  .00000459  00000+0  12899-3 0  9995
2 34487  86.3411 242.3396 0029441 208.2937 325.6809 14.43580655926035
IRIDIUM 33 DEB          
1 34492U 97051GH  26281.77120337  .00011244  00000+0  35939-2 0  9995
2 34492  86.4708 212.8006 0179895 350.8542  36.7328 14.30709879893425
IRIDIUM 33 DEB          
1 34497U 97051GN  26281.98420333  .00000945  00000+0  35799-3 0  9993
2 34497  86.2721 284.0547 0081128  90.3439 299.9389 14.28290050911688
IRIDIUM 33 DEB          
1 34508U 97051GZ  26283.16719613  .00001892  00000+0  58017-3 0  9990
2 34508  86.3724 334.6307 0061270 261.2951  98.1304 14.40160424916456
IRIDIUM 33 DEB          
1 34521U 97051HN  26283.22493738  .00003598  00000+0  64480-3 0  9995
2 34521  86.3739 257.3783 0002880  13.0304 347.0983 14.66561146928875
IRIDIUM 33 DEB          
1 34525U 97051HS  26283.00177782  .00000758  00000+0  21801-3 0  9998
2 34525  86.3668 278.1912 0005140 148.6080 265.1205 14.43535246924334
IRIDIUM 33 DEB          
1 34529U 97051HW  26282.97350796  .00000358  00000+0  10543-3 0  9992
2 34529  86.3579 266.9556 0002879 308.4432  51.6509 14.40946223924794
IRIDIUM 33 DEB          
1 34538U 97051JF  26281.90667303  .00001681  00000+0  48249-3 0  9993
2 34538  86.2751 233.8827 0037291  52.6365  11.0870 14.43961280920866
IRIDIUM 33 DEB          
1 34540U 97051JH  26283.20381206  .00006554  00000+0  84668-3 0  9995
2 34540  86.3139 169.1316 0012364 190.8720 296.0912 14.80764235934755
IRIDIUM 33 DEB          
1 34648U 97051JZ  26283.14774869  .00003124  00000+0  13927-2 0  9997
2 34648  86.3977 159.9273 0167941  66.9420 294.9373 14.15272481892201
IRIDIUM 33 DEB          
1 34651U 97051KC  26283.00499717  .00002864  00000+0  10226-2 0  9991
2 34651  86.2853  11.8396 0128615 312.7351  46.3072 14.29343976901950
IRIDIUM 33 DEB          
1 34652U 97051KD  26282.57239647  .00002869  00000+0  53775-3 0  9999
2 34652  86.3349 205.7798 0027991 353.5557 127.3888 14.64221871928837
IRIDIUM 33 DEB          
1 34690U 97051KM  26282.97870860  .00003466  00000+0  77368-3 0  9991
2 34690  86.3715 265.9075 0011837  78.7369 336.2947 14.56531899924772
IRIDIUM 33 DEB          
1 34696U 97051KT  26283.19137795  .00030462  00000+0  36689-2 0  9991
2 34696  86.1768 244.8825 0045045 195.1690 227.0926 14.82997873911173
IRIDIUM 33 DEB          
1 34765U 97051LJ  26282.69949396  .00000822  00000+0  24871-3 0  9998
2 34765  86.3336 263.5303 0014507 313.2132 172.6940 14.41132690919470
IRIDIUM 33 DEB          
1 34833U 97051MH  26282.44909425  .00001589  00000+0  37171-3 0  9994
2 34833  86.3869 281.2144 0019836 159.4350 353.5905 14.53947930920825
IRIDIUM 33 DEB          
1 34870U 97051MQ  26278.51258282  .00005753  00000+0  73035-3 0  9992
2 34870  86.3146 177.5640 0013021 234.7062 245.2200 14.81472038932987
IRIDIUM 33 DEB          
1 34896U 97051MY  26283.06408659  .00003104  00000+0  52696-3 0  9999
2 34896  86.3344 191.2575 0022843 264.9610 158.8941 14.68729065920394
IRIDIUM 33 DEB          
1 34926U 97051NF  26283.08885163  .00019304  00000+0  35024-2 0  9998
2 34926  86.1309 227.1498 0072448 356.9749 132.7570 14.64424310908555
IRIDIUM 33 DEB          
1 34985U 97051NR  26282.00789030  .00001159  00000+0  33933-3 0  9997
2 34985  86.3643 288.6809 0019301 317.3915  71.8791 14.43052915915041
IRIDIUM 33 DEB          
1 35051U 97051NX  26283.60695920  .00001520  00000+0  39750-3 0  9998
2 35051  86.3227 237.1152 0008618 145.0400 215.1372 14.48767966913655
IRIDIUM 33 DEB          
1 35052U 97051NY  26282.88193206  .00000395  00000+0  12208-3 0  9996
2 35052  86.3269 251.3229 0011724 163.5280 196.6302 14.38804759916052
IRIDIUM 33 DEB          
1 35297U 97051PM  26279.82608211  .00001041  00000+0  28522-3 0  9999
2 35297  86.3820 295.4359 0013902 228.1747 131.8269 14.46244431747335
IRIDIUM 33 DEB          
1 35299U 97051PP  26282.90446017  .00001662  00000+0  48295-3 0  9996
2 35299  86.2834 261.7973 0053457 185.0962 203.6975 14.42931995906713
IRIDIUM 33 DEB          
1 35480U 97051QA  26282.65261604  .00001477  00000+0  36830-3 0  9993
2 35480  86.3515 254.2836 0013277 168.4664 191.6848 14.50966989913934
IRIDIUM 33 DEB          
1 35484U 97051QE  26283.52990935  .00093563  00000+0  34662-2 0  9997
2 35484  86.3452 207.9634 0016331  84.0033 276.3075 15.27138245665787
IRIDIUM 33 DEB          
1 35488U 97051QJ  26280.13161518  .00005620  00000+0  59621-3 0  9992
2 35488  86.3280 162.6665 0026287  62.1291 298.2593 14.88635343926982
IRIDIUM 33 DEB          
1 35616U 97051QN  26282.04883530  .00010741  00000+0  11348-2 0  9995
2 35616  86.3556 207.7264 0006181 177.7459 182.3796 14.89131059920345
IRIDIUM 33 DEB          
1 35618U 97051QQ  26281.56483989  .00001178  00000+0  27701-3 0  9992
2 35618  86.3428 222.2462 0030007  90.0338 270.4307 14.53281640697479
IRIDIUM 33 DEB          
1 35620U 97051QS  26282.44022136  .00006384  00000+0  17075-2 0  9992
2 35620  86.3817  89.9923 0126719 348.4127  11.4162 14.43474967642978
IRIDIUM 33 DEB          
1 35625U 97051QX  26282.19884553  .00003202  00000+0  11121-2 0  9990
2 35625  86.1847 250.9074 0100705 308.6142 109.5814 14.32465163703396
IRIDIUM 33 DEB          
1 35628U 97051RA  26282.61658035  .00005663  00000+0  90864-3 0  9999
2 35628  86.3546 234.3490 0013009  24.6694 335.5141 14.71463752908668
IRIDIUM 33 DEB          
1 35631U 97051RD  26282.89005385  .00000836  00000+0  21982-3 0  9999
2 35631  86.3631 251.2056 0015804 188.6063 201.1727 14.47929308915549
IRIDIUM 33 DEB          
1 35680U 97051RJ  26283.64548042  .00004735  00000+0  18381-2 0  9999
2 35680  86.1002 247.4867 0151511  37.7498 138.5208 14.23626287649930
IRIDIUM 33 DEB          
1 35744U 97051RX  26283.48864035  .00004242  00000+0  63391-3 0  9990
2 35744  86.3339 188.6688 0017673 232.8461 127.1143 14.74443988917730
IRIDIUM 33 DEB          
1 35797U 97051SF  26283.04088765  .00011261  00000+0  11543-2 0  9998
2 35797  86.3390 190.5777 0009261 159.0768 201.0840 14.90334242918186
IRIDIUM 33 DEB          
1 35806U 97051SQ  26279.19819440  .00003078  00000+0  63691-3 0  9991
2 35806  86.3393 249.2919 0014819 131.0204 229.2290 14.59953453906612
IRIDIUM 33 DEB          
1 35809U 97051ST  26282.00709027  .00007529  00000+0  96215-3 0  9990
2 35809  86.3308 197.8914 0009366 291.0904  68.9316 14.81261395912457
IRIDIUM 33 DEB          
1 35846U 97051SW  26282.29417640  .00000977  00000+0  27915-3 0  9990
2 35846  86.3697 290.4850 0015369 259.1492 100.7980 14.44113418756656
IRIDIUM 33 DEB          
1 35848U 97051SY  26283.62816509  .00010198  00000+0  11933-2 0  9995
2 35848  86.3860 239.5023 0004455 204.1861 155.9154 14.84968190711622
IRIDIUM 33 DEB          
1 35850U 97051TA  26282.53319903  .00009817  00000+0  11472-2 0  9997
2 35850  86.3512 206.5900 0005740 216.3968 143.6866 14.85015592758139
IRIDIUM 33 DEB          
1 35915U 97051TY  26283.52016604  .00011389  00000+0  12367-2 0  9992
2 35915  86.3461 204.0981 0007116 207.2171 152.8683 14.88016994125643
IRIDIUM 33 DEB          
1 35918U 97051UB  26282.38779087  .00002014  00000+0  47869-3 0  9990
2 35918  86.3987 306.5502 0023642 239.1018 184.9597 14.53275833895715
IRIDIUM 33 DEB          
1 35929U 97051UN  26279.42194078  .00053519  00000+0  19681-2 0  9990
2 35929  86.3415 169.0391 0010781  16.1201 344.0387 15.27615719922864
IRIDIUM 33 DEB          
1 36011U 97051US  26283.27604463  .00001086  00000+0  32397-3 0  9997
2 36011  86.3351 265.8133 0016702 312.7273 106.3790 14.42119353688852
IRIDIUM 33 DEB          
1 36012U 97051UT  26283.47395124  .00010187  00000+0  35100-2 0  9997
2 36012  86.4410 185.5144 0227301  17.2481 343.6269 14.22324100697692
IRIDIUM 33 DEB          
1 36028U 97051VK  26283.39790602  .00023166  00000+0  14215-2 0  9990
2 36028  86.3114 162.9618 0016102  45.5535 314.7017 15.09899988916560
IRIDIUM 33 DEB          
1 36080U 97051VM  26276.63346295  .00001247  00000+0  33298-3 0  9991
2 36080  86.3168 239.3519 0014434 263.2716  96.6844 14.47608717516796
IRIDIUM 33 DEB          
1 36083U 97051VQ  26282.65663160  .00001217  00000+0  34848-3 0  9995
2 36083  86.3378 264.4874 0024528 314.5297  45.3900 14.44122907897913
IRIDIUM 33 DEB          
1 36390U 97051VU  26276.96722501  .00002823  00000+0  39561-3 0  9999
2 36390  86.2929 163.7004 0027159 222.2331 137.6797 14.76914589706152
IRIDIUM 33 DEB          
1 36483U 97051VZ  26283.26305502  .00001190  00000+0  32375-3 0  9993
2 36483  86.3735 283.3294 0008223 193.5550 166.5433 14.46724203695047
IRIDIUM 33 DEB          
1 36490U 97051WG  26282.61069417  .00011107  00000+0  13783-2 0  9991
2 36490  86.3614 233.8877 0005961  76.8104 283.3783 14.82531963909348
IRIDIUM 33 DEB          
1 36493U 97051WK  26282.61710221  .00004820  00000+0  82406-3 0  9993
2 36493  86.3542 237.5261 0012868  45.0077 315.2178 14.68656480789301
IRIDIUM 33 DEB          
1 36497U 97051WP  26281.81987346  .00005820  00000+0  10084-2 0  9995
2 36497  86.1511 113.2714 0044504 171.0730 189.1286 14.67479798700473
IRIDIUM 33 DEB          
1 37136U 97051XG  26281.09755106  .00000972  00000+0  36792-3 0  9991
2 37136  86.1755 205.7919 0078126 102.9596 258.0335 14.28527404687715
IRIDIUM 33 DEB          
1 37548U 97051XH  26281.24749645  .00002129  00000+0  50823-3 0  9993
2 37548  86.3479 272.8006 0021177 269.3668  90.5111 14.53154055698798
IRIDIUM 33 DEB          
1 37550U 97051XK  26283.62731698  .00005432  00000+0  88200-3 0  9999
2 37550  86.3727 249.5598 0004664 114.1555 246.0150 14.70994178907665
IRIDIUM 33 DEB          
1 37562U 97051XX  26282.27496707  .00002477  00000+0  52204-3 0  9992
2 37562  86.3683 272.2457 0024010 162.7385 259.9434 14.58920990907073
IRIDIUM 33 DEB          
1 37565U 97051YA  26281.14894301  .00001169  00000+0  28017-3 0  9994
2 37565  86.3470 238.9789 0013400 146.0387 214.1680 14.52637431701825
IRIDIUM 33 DEB          
1 38017U 97051YD  26283.58014783  .00022149  00000+0  48159-2 0  9994
2 38017  86.3303  34.0280 0080680 176.1238 184.0614 14.55879345657846
IRIDIUM 33 DEB          
1 38022U 97051YJ  26283.62332156  .00002382  00000+0  69536-3 0  9992
2 38022  86.2654 243.9630 0045225 129.1601 231.3632 14.43113143735452
IRIDIUM 33 DEB          
1 38028U 97051YQ  26282.57430527  .00001043  00000+0  28068-3 0  9990
2 38028  86.3256 229.3806 0026378 198.9274 161.0951 14.46917362698446
IRIDIUM 33 DEB          
1 38228U 97051ZC  26278.79106869  .00000559  00000+0  21474-3 0  9995
2 38228  86.2886 282.1388 0062098 315.5222 219.2468 14.27704790890190
IRIDIUM 33 DEB          
1 38241U 97051ZR  26283.59142395  .00002077  00000+0  46295-3 0  9993
2 38241  86.3244 217.2124 0005199  92.5948 267.5855 14.56448834645928
IRIDIUM 33 DEB          
1 38474U 97051AAB 26282.14257583  .00001381  00000+0  33650-3 0  9995
2 38474  86.3422 238.9841 0025686 153.1484 207.1058 14.51835521696752
IRIDIUM 33 DEB          
1 38477U 97051AAE 26274.65479199  .00002343  00000+0  17467-2 0  9990
2 38477  86.4110 357.0763 0397986 107.2998 257.2101 13.62752373586646
IRIDIUM 33 DEB          
1 39777U 97051AAJ 26283.56371650  .00006466  00000+0  12466-2 0  9991
2 39777  85.9597  27.5844 0055728 240.4301 119.1349 14.62377834645894
IRIDIUM 33 DEB          
1 39778U 97051AAK 26281.94659757  .00002484  00000+0  55688-3 0  9999
2 39778  86.3716 272.6563 0009583  91.8955 268.3351 14.56234016650595
IRIDIUM 33 DEB          
1 39781U 97051AAN 26283.34671677  .00002193  00000+0  77672-3 0  9998
2 39781  86.3779 133.2210 0172259  26.6287  95.1798 14.26151480123994
IRIDIUM 33 DEB          
1 40996U 97051ABJ 26283.54363406  .00081139  00000+0  34407-2 0  9993
2 40996  86.3475 217.3274 0008332  51.8622 308.3372 15.22753025670415
IRIDIUM 33 DEB          
1 40998U 97051ABL 26280.32448009  .00000879  00000+0  24131-3 0  9997
2 40998  86.3772 286.0223 0008292 151.2168 266.5080 14.45965475109954
IRIDIUM 33 DEB          
1 46435U 97051ABN 26283.16124167  .00008756  00000+0  21736-2 0  9999
2 46435  86.2720  62.8719 0194652   4.4188 116.1836 14.40884407122487
IRIDIUM 33 DEB          
1 46734U 97051ABR 26283.61193743  .00002379  00000+0  69026-3 0  9997
2 46734  86.2634 230.1021 0041188  55.7187 119.2586 14.43512112673630
IRIDIUM 33 DEB          
1 46965U 97051ABX 26281.27006894  .00001903  00000+0  37363-3 0  9994
2 46965  86.3390 207.6252 0020814  31.0795 120.8381 14.62055510666421
IRIDIUM 33 DEB          
1 46971U 97051ACD 26269.05356433  .00070065  00000+0  33011-2 0  9990
2 46971  86.3136 195.2376 0007836  39.3222 333.1067 15.19190577685618
IRIDIUM 33 DEB          
1 46972U 97051ACE 26278.73590455  .00001064  00000+0  25966-3 0  9994
2 46972  86.3814 271.4204 0008798 176.3183 308.9957 14.51749801658809
IRIDIUM 33 DEB          
1 46974U 97051ACG 26283.39053543  .00006262  00000+0  15484-2 0  9994
2 46974  86.3001 332.9097 0083817 260.7785  98.3932 14.49773029618729
