IRIDIUM 106             
1 41917U 17003A   26283.56238654  .00000069  00000+0  17447-4 0  9994
2 41917  86.3987  40.2879 0001891 101.0745 259.0664 14.34217751509744
IRIDIUM 103             
1 41918U 17003B   26283.61947572  .00000191  00000+0  61091-4 0  9997
2 41918  86.3986  40.1636 0002076  89.7822 270.3611 14.34217575509773
IRIDIUM 109             
1 41919U 17003C   26283.62583154  .00000219  00000+0  71251-4 0  9991
2 41919  86.3990  40.2224 0002095  94.6252 265.5183 14.34218946509746
IRIDIUM 102             
1 41920U 17003D   26283.59410074 -.00000051  00000+0 -25372-4 0  9998
2 41920  86.3984  40.1572 0001993  96.5276 263.6147 14.34216907509822
IRIDIUM 105             
1 41921U 17003E   26283.48293098 -.00000066  00000+0 -30565-4 0  9998
2 41921  86.4020   8.6719 0002262  91.9524 268.1931 14.34216222511668
IRIDIUM 104             
1 41922U 17003F   26283.60678524  .00000040  00000+0  71761-5 0  9998
2 41922  86.3987  40.1954 0002256  87.4755 272.6699 14.34217893509811
IRIDIUM 114             
1 41923U 17003G   26283.61312794  .00000004  00000+0 -54919-5 0  9991
2 41923  86.3984  40.1763 0001971  92.2429 267.8992 14.34217419509795
IRIDIUM 108             
1 41924U 17003H   26283.78095441  .00000195  00000+0  62683-4 0  9993
2 41924  86.4019   8.4302 0002214  95.8935 264.2513 14.34217722511671
IRIDIUM 112             
1 41925U 17003J   26283.60044256 -.00000026  00000+0 -16228-4 0  9992
2 41925  86.3983  40.0179 0002155  92.8224 267.3219 14.34217242509814
IRIDIUM 111             
1 41926U 17003K   26283.86683183 -.00000049  00000+0 -24501-4 0  9997
2 41926  86.3983  39.9803 0001966  94.0969 266.0452 14.34217041509839
IRIDIUM 113             
1 42803U 17039A   26283.91656451 -.00000073  00000+0 -33273-4 0  9998
2 42803  86.3912 273.7881 0002165  87.4004 272.7439 14.34216620487777
IRIDIUM 123             
1 42804U 17039B   26283.81850554  .00000117  00000+0  34578-4 0  9994
2 42804  86.3935 305.3195 0002097  91.5205 268.6232 14.34217895486528
IRIDIUM 120             
1 42805U 17039C   26283.84044645  .00000143  00000+0  44031-4 0  9998
2 42805  86.3901 273.5873 0002176  91.3896 268.7549 14.34219365487755
IRIDIUM 115             
1 42806U 17039D   26283.97040100  .00000152  00000+0  39264-4 0  9997
2 42806  86.4438 273.6774 0002101  88.1978 271.9463 14.43281166490962
IRIDIUM 118             
1 42807U 17039E   26283.78044920  .00000008  00000+0 -40293-5 0  9997
2 42807  86.3934 305.3327 0002133  93.3766 266.7674 14.34217878486519
IRIDIUM 117             
1 42808U 17039F   26283.79947537  .00000143  00000+0  44084-4 0  9995
2 42808  86.3935 305.2821 0002174  92.2926 267.8519 14.34217593486547
IRIDIUM 126             
1 42809U 17039G   26283.82484854  .00000002  00000+0 -63600-5 0  9999
2 42809  86.3933 305.3238 0002076  89.6144 270.5289 14.34217141486524
IRIDIUM 124             
1 42810U 17039H   26283.62689918  .00000202  00000+0  53983-4 0  9990
2 42810  86.4469 242.0640 0002210  84.9973 275.1480 14.43278814491763
IRIDIUM 128             
1 42811U 17039J   26283.81558713  .00000227  00000+0  73961-4 0  9995
2 42811  86.3994 336.8400 0002127  96.9515 263.1923 14.34218491486559
IRIDIUM 121             
1 42812U 17039K   26283.70433954 -.00000047  00000+0 -23821-4 0  9995
2 42812  86.3936 305.4028 0002095  94.0230 266.1205 14.34217113486388
IRIDIUM 133             
1 42955U 17061A   26283.42868896  .00000114  00000+0  33799-4 0  9992
2 42955  86.4000 337.1226 0002133  95.4060 264.7380 14.34217166471290
IRIDIUM 100             
1 42956U 17061B   26283.91072544  .00000061  00000+0  14566-4 0  9996
2 42956  86.3996 336.8373 0002197  95.1875 264.9572 14.34218141471361
IRIDIUM 122             
1 42957U 17061C   26283.94878148  .00000225  00000+0  73176-4 0  9998
2 42957  86.3995 336.8218 0002155  93.1473 266.9969 14.34218467471379
IRIDIUM 129             
1 42958U 17061D   26283.83461572 -.00000015  00000+0 -12339-4 0  9999
2 42958  86.3991 336.9373 0002287  91.9128 268.2330 14.34217344471378
IRIDIUM 119             
1 42959U 17061E   26283.87266827  .00000092  00000+0  25793-4 0  9991
2 42959  86.3997 336.9180 0002179  93.0340 267.1106 14.34217042471396
IRIDIUM 107             
1 42960U 17061F   26283.68239199  .00000146  00000+0  45093-4 0  9999
2 42960  86.3997 337.0194 0002013  92.9795 267.1631 14.34218355471373
IRIDIUM 132             
1 42961U 17061G   26283.89804152 -.00000045  00000+0 -23310-4 0  9998
2 42961  86.3993 336.9077 0002111  94.3480 265.7957 14.34216984471409
IRIDIUM 136             
1 42962U 17061H   26283.85998509  .00000110  00000+0  32230-4 0  9997
2 42962  86.3997 336.9313 0002210  95.7033 264.4415 14.34218194471417
IRIDIUM 139             
1 42963U 17061J   26283.86632726  .00000093  00000+0  26256-4 0  9996
2 42963  86.3999 336.9926 0002161  95.9057 264.2385 14.34217970471429
IRIDIUM 125             
1 42964U 17061K   26283.85364324 -.00000060  00000+0 -28424-4 0  9997
2 42964  86.3996 337.0606 0001954  81.9491 278.1926 14.34216920471430
IRIDIUM 135             
1 43070U 17083A   26283.96730456 -.00000010  00000+0 -10633-4 0  9993
2 43070  86.3909 273.5964 0002107  88.8679 271.2759 14.34217180460748
IRIDIUM 138             
1 43071U 17083B   26283.92290611 -.00000002  00000+0 -77323-5 0  9995
2 43071  86.3920 273.3277 0002157  85.9340 274.2102 14.34217319460722
IRIDIUM 116             
1 43072U 17083C   26283.96096148 -.00000007  00000+0 -97030-5 0  9991
2 43072  86.3904 273.5834 0002113  95.0674 265.0763 14.34217362460763
IRIDIUM 130             
1 43073U 17083D   26283.92924873  .00000027  00000+0  25099-5 0  9999
2 43073  86.3914 273.8835 0002050  90.4514 269.6917 14.34217654460700
IRIDIUM 151             
1 43074U 17083E   26283.69457259  .00000036  00000+0  57156-5 0  9992
2 43074  86.3907 273.7553 0002235  90.5634 269.5818 14.34217587460690
IRIDIUM 134             
1 43075U 17083F   26283.94193499  .00000047  00000+0  96094-5 0  9990
2 43075  86.3909 273.6614 0002182  88.6899 271.4547 14.34217443460694
IRIDIUM 137             
1 43076U 17083G   26283.95461946  .00000122  00000+0  36453-4 0  9993
2 43076  86.3909 273.7510 0002359  96.8739 263.2726 14.34217987460760
IRIDIUM 141             
1 43077U 17083H   26283.94827536  .00000037  00000+0  62901-5 0  9997
2 43077  86.3904 273.5778 0002269  87.7066 272.4390 14.34217502460764
IRIDIUM 153             
1 43078U 17083J   26283.62138166  .00000191  00000+0  61148-4 0  9999
2 43078  86.3948 242.1832 0002260  82.3778 277.7675 14.34218092461825
IRIDIUM 131             
1 43079U 17083K   26283.93559183 -.00000067  00000+0 -30940-4 0  9990
2 43079  86.3912 273.7770 0002169  88.9014 271.2430 14.34216658460699
IRIDIUM 144             
1 43249U 18030A   26283.90679793  .00000094  00000+0  26640-4 0  9999
2 43249  86.3944 241.9900 0002178  88.8806 271.2640 14.34217863446723
IRIDIUM 149             
1 43250U 18030B   26283.91314151 -.00000001  00000+0 -75567-5 0  9999
2 43250  86.3947 241.9537 0002121  83.1896 276.9541 14.34217321446742
IRIDIUM 157             
1 43251U 18030C   26283.93216919  .00000170  00000+0  53513-4 0  9996
2 43251  86.3947 242.0011 0002213  83.8625 276.2823 14.34218062446728
IRIDIUM 140             
1 43252U 18030D   26283.95119741 -.00000015  00000+0 -12455-4 0  9994
2 43252  86.3950 242.0059 0002095  84.7101 275.4334 14.34217159446782
IRIDIUM 145             
1 43253U 18030E   26283.93851067  .00000102  00000+0  29282-4 0  9998
2 43253  86.3947 241.9828 0002073  91.3992 268.7441 14.34217782446718
IRIDIUM 146             
1 43254U 18030F   26283.91948241 -.00000024  00000+0 -15776-4 0  9996
2 43254  86.3948 242.0028 0002052  87.5958 272.5473 14.34217634446725
IRIDIUM 148             
1 43255U 18030G   26283.95753930  .00000058  00000+0  13734-4 0  9997
2 43255  86.3948 242.0316 0002292  86.8970 273.2488 14.34217876446764
IRIDIUM 142             
1 43256U 18030H   26283.92582666 -.00000045  00000+0 -23067-4 0  9999
2 43256  86.3947 241.9299 0002048  89.0549 271.0881 14.34217179446723
IRIDIUM 150             
1 43257U 18030J   26283.96388197  .00000010  00000+0 -33521-5 0  9995
2 43257  86.3948 242.0334 0002154  86.1755 273.9687 14.34217533446754
IRIDIUM 143             
1 43258U 18030K   26283.94485418 -.00000018  00000+0 -13362-4 0  9997
2 43258  86.3951 242.1390 0002013  86.2455 273.8971 14.34217207446689
IRIDIUM 161             
1 43478U 18047C   26283.60483937  .00000226  00000+0  61294-4 0  9992
2 43478  86.4508  40.1774 0002274  92.6669 267.4793 14.43281232441787
IRIDIUM 152             
1 43479U 18047D   26282.73150718  .00000112  00000+0  32963-4 0  9999
2 43479  86.3982  40.4049 0002131  96.0566 264.0872 14.34217014438905
IRIDIUM 147             
1 43480U 18047E   26283.85414581  .00000126  00000+0  38093-4 0  9991
2 43480  86.3988  39.9431 0002068  97.7145 262.4285 14.34218077439069
IRIDIUM 110             
1 43481U 18047F   26283.58141541 -.00000049  00000+0 -24517-4 0  9997
2 43481  86.3983  40.1523 0002219  91.0594 269.0857 14.34217239439016
IRIDIUM 162             
1 43482U 18047G   26283.59853704  .00000276  00000+0  75919-4 0  9992
2 43482  86.4507  40.0699 0002129  93.1432 267.0013 14.43280953441778
IRIDIUM 160             
1 43569U 18061A   26283.73655414  .00000156  00000+0  48583-4 0  9992
2 43569  86.4027   8.4899 0002169  94.6842 265.4601 14.34217479429938
IRIDIUM 166             
1 43570U 18061B   26283.76192792 -.00000024  00000+0 -15677-4 0  9996
2 43570  86.4018   8.4286 0002042  98.0831 262.0597 14.34217166429969
IRIDIUM 158             
1 43571U 18061C   26283.73021417  .00000078  00000+0  20786-4 0  9993
2 43571  86.4023   8.4518 0002156  94.0066 266.1376 14.34217678429920
IRIDIUM 165             
1 43572U 18061D   26283.47651073 -.00000016  00000+0 -12705-4 0  9998
2 43572  86.4019   8.6063 0002011  97.5057 262.6367 14.34217379429919
IRIDIUM 155             
1 43573U 18061E   26283.50822906  .00000201  00000+0  64580-4 0  9990
2 43573  86.4019   8.4564 0002109  95.3798 264.7638 14.34218441429881
IRIDIUM 154             
1 43574U 18061F   26283.76826913  .00000004  00000+0 -55181-5 0  9991
2 43574  86.4019   8.4872 0002035  98.0315 262.1112 14.34217647429973
IRIDIUM 163             
1 43575U 18061G   26283.81901042 -.00000022  00000+0 -14894-4 0  9991
2 43575  86.4015   8.3775 0002076  94.3556 265.7877 14.34217426429952
IRIDIUM 156             
1 43576U 18061H   26283.79363989  .00000039  00000+0  69192-5 0  9999
2 43576  86.4021   8.3956 0002053  95.5320 264.6110 14.34217726429948
IRIDIUM 164             
1 43577U 18061J   26283.77461218  .00000012  00000+0 -28331-5 0  9994
2 43577  86.4017   8.4455 0002084  99.1040 261.0392 14.34217588429985
IRIDIUM 159             
1 43578U 18061K   26283.53359315  .00000007  00000+0 -44241-5 0  9995
2 43578  86.4016   8.4808 0002105  94.3479 265.7958 14.34217719429912
IRIDIUM 180             
1 43922U 19002A   26283.81216418 -.00000054  00000+0 -26396-4 0  9994
2 43922  86.3934 305.2814 0002155  92.4846 267.6597 14.34217015405564
IRIDIUM 176             
1 43923U 19002B   26283.77205701  .00000546  00000+0  82647-4 0  9998
2 43923  86.6055 305.2253 0002340  91.3536 268.7949 14.72250840416255
IRIDIUM 168             
1 43924U 19002C   26283.80581995  .00000044  00000+0  86366-5 0  9991
2 43924  86.3936 305.3647 0002265  92.3411 267.8045 14.34218105405541
IRIDIUM 173             
1 43925U 19002D   26283.58383035 -.00000044  00000+0 -22837-4 0  9996
2 43925  86.3932 305.3413 0002079  92.0349 268.1085 14.34217135405493
IRIDIUM 169             
1 43926U 19002E   26283.85393279  .00000283  00000+0  86037-4 0  9993
2 43926  86.4251 336.8684 0001868  89.5870 270.5542 14.38609160406856
IRIDIUM 172             
1 43927U 19002F   26283.57748598  .00000176  00000+0  55959-4 0  9991
2 43927  86.3933 305.3526 0002224  92.1423 268.0027 14.34217715405508
IRIDIUM 175             
1 43928U 19002G   26283.96048648  .00000282  00000+0  77299-4 0  9993
2 43928  86.4500 242.0993 0003085 158.1227 202.0107 14.43653496415683
IRIDIUM 171             
1 43929U 19002H   26283.76776512 -.00000075  00000+0 -33772-4 0  9990
2 43929  86.3943 305.5922 0002069  94.6078 265.5354 14.34217041405522
IRIDIUM 170             
1 43930U 19002J   26283.77824399  .00000438  00000+0  65543-4 0  9992
2 43930  86.6054 305.2240 0002409  91.2184 268.9309 14.72255074416269
IRIDIUM 167             
1 43931U 19002K   26283.76142147 -.00000028  00000+0 -16975-4 0  9998
2 43931  86.3932 305.2988 0001945  95.5360 264.6057 14.34217506405524
IRIDIUM 181             
1 56726U 23068S   26283.95588020  .00000296  00000+0  82008-4 0  9991
2 56726  86.4559   8.4038 0002352  96.7147 263.4321 14.43310874179131
IRIDIUM 177             
1 56727U 23068T   26280.01235837  .00000280  00000+0  35922-4 0  9997
2 56727  86.1909 275.7619 0002463  86.3827 273.7674 14.77173851182896
IRIDIUM 174             
1 56728U 23068U   26283.76587783  .00000261  00000+0  37481-4 0  9994
2 56728  86.6063 305.3885 0002363  88.0208 272.1280 14.72255040183027
IRIDIUM 178             
1 56729U 23068V   26283.85674875  .00000917  00000+0  11783-3 0  9998
2 56729  86.6564 337.0667 0002385  89.4415 270.7080 14.80046915183472
IRIDIUM 179             
1 56730U 23068W   26283.91898000  .00000850  00000+0  10890-3 0  9999
2 56730  86.6820 346.3611 0002266  93.9902 266.1578 14.80039117183488
