STARLINK-38033          
1 69739U 26150A   26213.25002315 -.02355572  00000+0 -26231-1 0  9995
2 69739  97.2843  52.5257 0002150  90.3163 158.8394 15.66014115  6032
STARLINK-38076          
1 69740U 26150B   26213.25573627 -.01048987  00000+0 -85735-2 0  9999
2 69740  97.2845  52.4070 0001270  95.3849 264.7560 15.73005594  6004
STARLINK-38074          
1 69741U 26150C   26213.28711510  .00194555  00000+0  12861-2 0  9998
2 69741  97.2837  52.5188 0005383  53.1038 307.0720 15.74988160  6018
STARLINK-38041          
1 69742U 26150D   26213.29660725  .00114256  00000+0  75756-3 0  9994
2 69742  97.2859  52.5083 0001326  96.7559 263.3857 15.75163282  6017
STARLINK-38087          
1 69743U 26150E   26213.09860590  .00176155  00000+0  11583-2 0  9998
2 69743  97.2837  52.3142 0002005  67.5157 292.6321 15.75177640  5982
STARLINK-38078          
1 69744U 26150F   26213.25002315 -.00724394  00000+0 -76205-2 0  9998
2 69744  97.2844  52.5162 0001747  83.2564 145.4835 15.66437838  6034
STARLINK-38047          
1 69745U 26150G   26213.29483749  .00229237  00000+0  14921-2 0  9998
2 69745  97.2849  52.5097 0002602  71.1116 289.0431 15.75262013  6013
STARLINK-38046          
1 69746U 26150H   26213.08765384  .00139629  00000+0  92492-3 0  9999
2 69746  97.2816  52.3316 0001697 126.2037 233.9385 15.75110823  5989
STARLINK-38067          
1 69747U 26150J   26213.25002315 -.02536117  00000+0 -23954-1 0  9999
2 69747  97.2850  52.4275 0001610  76.5969 311.4348 15.70280576  6035
STARLINK-37988          
1 69748U 26150K   26213.25002315 -.02512570  00000+0 -23904-1 0  9992
2 69748  97.2846  52.4306 0001745  74.4058 322.8731 15.70073028  6035
STARLINK-37987          
1 69749U 26150L   26213.30118225  .00190831  00000+0  12493-2 0  9997
2 69749  97.2844  52.4988 0000604  49.1414 310.9904 15.75238832  6017
STARLINK-38037          
1 69750U 26150M   26213.25002315 -.02405518  00000+0 -28075-1 0  9992
2 69750  97.2848  52.5063 0002179  87.5795 116.8506 15.64916188  6033
STARLINK-38049          
1 69751U 26150N   26213.25002315 -.00836570  00000+0 -10096-1 0  9991
2 69751  97.2844  52.5598 0001747  89.0099 240.3680 15.63335582  6035
STARLINK-38029          
1 69752U 26150P   26213.09403364  .00050620  00000+0  34659-3 0  9998
2 69752  97.2835  52.3223 0000716  92.3457 267.7890 15.74624152  5984
STARLINK-37965          
1 69753U 26150Q   26213.29130384  .00187685  00000+0  12279-2 0  9995
2 69753  97.2839  52.5128 0001675  73.9306 286.2144 15.75261597  6012
STARLINK-38048          
1 69754U 26150R   26213.25002315 -.02414710  00000+0 -37066-1 0  9990
2 69754  97.2848  52.5659 0001710 105.2324 238.5702 15.57883298  6031
STARLINK-38006          
1 69755U 26150S   26213.09154702  .00173104  00000+0  11398-2 0  9997
2 69755  97.2833  52.3263 0002551  83.8716 276.2840 15.75152176  5984
STARLINK-38036          
1 69756U 26150T   26213.25002315 -.02556900  00000+0 -23983-1 0  9993
2 69756  97.2844  52.5075 0001989  93.7733 114.8106 15.70469800  6032
STARLINK-38058          
1 69757U 26150U   26213.25002315 -.00798577  00000+0 -86084-2 0  9992
2 69757  97.2842  52.5182 0001533  91.0383 146.3629 15.66057856  6036
STARLINK-38066          
1 69758U 26150V   26213.25002315 -.02384024  00000+0 -28309-1 0  9998
2 69758  97.2839  52.5265 0002079  95.2568 161.4430 15.64453187  6035
STARLINK-38035          
1 69759U 26150W   26213.25002315 -.02198719  00000+0 -23160-1 0  9993
2 69759  97.2841  52.5573 0001367  83.0732 239.3765 15.67724078  6037
STARLINK-38056          
1 69760U 26150X   26213.25080194 -.00978877  00000+0 -12468-1 0  9994
2 69760  97.2847  52.5705 0001792  30.7912 329.3451 15.61940353  6013
STARLINK-38069          
1 69761U 26150Y   26213.25002315 -.02446854  00000+0 -33061-1 0  9993
2 69761  97.2844  52.5261 0002096  88.2436 157.4961 15.61261247  6031
STARLINK-38019          
1 69762U 26150Z   26213.09084172  .00156830  00000+0  10331-2 0  9991
2 69762  97.2837  52.3263 0001926  79.8038 280.3445 15.75189462  5988
KUIPER-00258            
1 69763U 26151A   26213.06891788  .00027695  00000+0  83422-3 0  9997
2 69763  51.8688  99.3054 0010630 231.5169 128.4864 15.34078004  4601
KUIPER-00526            
1 69764U 26151B   26213.25002315 -.02268449  00000+0 -12556+0 0  9993
2 69764  51.8885  98.7572 0003907 227.8614 246.4172 15.16877078  4769
KUIPER-00558            
1 69765U 26151C   26213.25002315 -.01735803  00000+0 -89079-1 0  9992
2 69765  51.8806  99.2223 0006888 212.6159  45.0284 15.19652631  5249
KUIPER-00569            
1 69766U 26151D   26213.25002315 -.01862469  00000+0 -72196-1 0  9994
2 69766  51.8801  98.1331 0005362 232.2358 227.4701 15.29232218  3736
KUIPER-00589            
1 69767U 26151E   26213.25002315 -.02601579  00000+0 -12462+0 0  9997
2 69767  51.8877  98.5453 0003515 213.9049 352.2196 15.22328819  5272
KUIPER-00598            
1 69768U 26151F   26212.94248491 -.00000697  00000+0 -97625-5 0  9992
2 69768  51.8657  99.9467 0008592 219.9064 140.1290 15.33276525  4582
KUIPER-00604            
1 69769U 26151G   26213.26590169 -.00301901  00000+0 -83033-2 0  9998
2 69769  51.8811  97.6617 0003082 180.8500 179.2483 15.37832163  4641
KUIPER-00609            
1 69770U 26151H   26213.25002315  .00002983  00000+0  88328-4 0  9990
2 69770  51.8804  97.6752 0000587  51.1108 253.3083 15.38199803  3979
KUIPER-00611            
1 69771U 26151J   26212.09065502  .00037361  00000+0  96150-3 0  9998
2 69771  51.8818 103.2841 0001225 155.6022 204.5024 15.38880315  4466
KUIPER-00612            
1 69772U 26151K   26213.25002315  .00004396  00000+0  16514-3 0  9999
2 69772  51.8816  97.9832 0002462 192.5266 327.7239 15.29227061  1970
KUIPER-00614            
1 69773U 26151L   26213.25002315 -.00941737  00000+0 -29661-1 0  9996
2 69773  51.8821  97.7551 0001262 208.4313  50.4716 15.35210670  5171
KUIPER-00615            
1 69774U 26151M   26213.25002315 -.02021298  00000+0 -88237-1 0  9994
2 69774  51.8815  98.4919 0006384 220.7552  70.4891 15.25054164  3473
KUIPER-00616            
1 69775U 26151N   26213.06714992  .00022643  00000+0  58950-3 0  9997
2 69775  51.8797  98.5831 0002517 193.1161 166.9761 15.38792487  4615
KUIPER-00617            
1 69776U 26151P   26212.94793756  .00025971  00000+0  68825-3 0  9998
2 69776  51.8815  99.2814 0004090 198.0765 162.0077 15.38161461  4594
KUIPER-00619            
1 69777U 26151Q   26213.00001157  .00012763  00000+0  35408-3 0  9990
2 69777  51.8810  98.9098 0001682 133.5124 213.0649 15.37272985  4626
KUIPER-00621            
1 69778U 26151R   26213.06773411  .00028495  00000+0  74057-3 0  9998
2 69778  51.8801  98.5844 0002073 176.8521 183.2480 15.38714678  4619
KUIPER-00622            
1 69779U 26151S   26213.25002315 -.01324159  00000+0 -52790-1 0  9995
2 69779  51.8770  98.3658 0006644 217.4400 111.1324 15.27708164  5273
KUIPER-00623            
1 69780U 26151T   26213.25002315 -.00005602  00000+0 -18227-3 0  9994
2 69780  51.8818  98.0622 0003874 210.0586 246.6268 15.29243954  5399
KUIPER-00626            
1 69781U 26151U   26213.06492009  .00017663  00000+0  53011-3 0  9995
2 69781  51.8730  99.2883 0010118 227.6453 132.3676 15.34484338  4607
KUIPER-00627            
1 69782U 26151V   26213.25002315 -.00012531  00000+0 -37447-3 0  9990
2 69782  51.8699  98.4397 0008582 234.1792  45.5847 15.33115707  1932
KUIPER-00629            
1 69783U 26151W   26213.25002315 -.00022729  00000+0 -15833-2 0  9995
2 69783  51.8893 100.0248 0007656 263.9528  27.6780 15.04635380  4967
KUIPER-00631            
1 69784U 26151X   26213.25002315 -.00057569  00000+0 -41784-2 0  9990
2 69784  51.8881  99.9883 0007677 234.4005  41.4012 15.03565312  2362
KUIPER-00634            
1 69785U 26151Y   26213.25002315 -.01215132  00000+0 -46558-1 0  9997
2 69785  51.8818  98.0540 0002308 239.7350 232.0623 15.28789369  4365
KUIPER-00639            
1 69786U 26151Z   26213.06107096  .00021061  00000+0  62972-3 0  9992
2 69786  51.8696  99.2579 0009412 222.5460 137.4797 15.34486374  4604
KUIPER-00641            
1 69787U 26151AA  26213.07603740 -.00059629  00000+0 -18408-2 0  9998
2 69787  51.8696  99.3495 0011323 223.4537 136.5556 15.33018049  4604
KUIPER-00644            
1 69788U 26151AB  26213.10358295  .00031510  00000+0  87248-3 0  9991
2 69788  51.8741  98.8116 0008052 225.7626 134.2700 15.36675653  4608
KUIPER-00646            
1 69789U 26151AC  26213.05915077 -.00080898  00000+0 -24741-2 0  9996
2 69789  51.8720  99.2454 0009724 230.7713 129.2410 15.33473704  4608
KUIPER-00647            
1 69790U 26151AD  26213.06767541  .00025409  00000+0  77695-3 0  9992
2 69790  51.8673  99.2946 0011388 227.1010 132.9020 15.33641535  4609
KUIPER-00662            
1 69791U 26151AE  26213.25002315 -.01863400  00000+0 -14006+0 0  9992
2 69791  51.8933  99.6668 0007814 233.4664 100.6897 15.05773400  3641
LINK                    
1 69792U 26152A   26213.28579467  .00207699  00000+0  14256-2 0  9993
2 69792  20.5900 195.4463 0020706 221.2936 138.5945 15.72467158  4547
2026-152B               
1 69793U 26152B   26213.27008912  .00057087  00000+0  50515-3 0  9998
2 69793  20.5966 196.4367 0022461 226.0102 133.8492 15.66480368  4537
ISS OBJECT YJ           
1 69794U 98067YJ  26213.00148897  .00032065  00000+0  54616-3 0  9996
2 69794  51.6310  78.0715 0007488   5.8580 354.2495 15.51061185  4609
ISS OBJECT YK           
1 69795U 98067YK  26212.98660798  .00059868  00000+0  95867-3 0  9995
2 69795  51.6301  77.9739 0005675   3.8782 356.2251 15.52515268  4601
ISS OBJECT YL           
1 69796U 98067YL  26212.92770498  .00045587  00000+0  74999-3 0  9995
2 69796  51.6314  78.3303 0008151   4.8637 355.2431 15.51861361  4583
ISS OBJECT YM           
1 69797U 98067YM  26212.92707179  .00045903  00000+0  75427-3 0  9991
2 69797  51.6308  78.3223 0009406 356.7372   3.3555 15.51880516  4577
ISS OBJECT YN           
1 69798U 98067YN  26212.93202106  .00029689  00000+0  50272-3 0  9997
2 69798  51.6313  78.3586 0008941  10.8778 349.2403 15.51255602  4595
PROVES-ELECTRA          
1 69799U 98067YP  26212.92686229  .00045983  00000+0  75408-3 0  9992
2 69799  51.6316  78.3169 0009019 355.9910   4.1006 15.51939601  4587
QIANFAN-201             
1 69800U 26153A   26213.19072015  .00000087  00000+0  32655-4 0  9998
2 69800  88.9943 357.0953 0009517 128.9056 231.2985 14.22102414  3960
QIANFAN-202             
1 69801U 26153B   26212.96708549  .00000077  00000+0  30008-4 0  9990
2 69801  88.9942 357.1364 0008447 129.4883 230.7055 14.18850945  3924
QIANFAN-203             
1 69802U 26153C   26213.16447021  .00000084  00000+0  33101-4 0  9994
2 69802  88.9942 357.1100 0009035 130.3765 229.8215 14.19395400  3958
QIANFAN-204             
1 69803U 26153D   26212.94969925 -.01937781  00000+0 -10625+1 0  9990
2 69803  88.9937 357.1342 0007045 161.7872 198.3569 14.15787908  3920
QIANFAN-205             
1 69804U 26153E   26212.67636689 -.01933062  00000+0 -10863+1 0  9991
2 69804  88.9936 357.1671 0008685 138.0901 222.0952 14.14438744  3882
QIANFAN-206             
1 69805U 26153F   26213.15555703  .00000085  00000+0  34042-4 0  9999
2 69805  88.9941 357.1086 0009524 130.3992 229.8030 14.18788394  3950
QIANFAN-207             
1 69806U 26153G   26213.07358253 -.02045463  00000+0 -11185+1 0  9994
2 69806  88.9936 357.1151 0007775 169.4907 190.6445 14.16151286  3949
QIANFAN-208             
1 69807U 26153H   26212.97405529  .00000085  00000+0  31326-4 0  9992
2 69807  88.9941 357.1184 0010219 132.6946 227.5108 14.22853266  3933
QIANFAN-209             
1 69808U 26153J   26213.15072819  .00000086  00000+0  33752-4 0  9992
2 69808  88.9942 357.1078 0009363 128.5980 231.6050 14.19697407  3950
QIANFAN-210             
1 69809U 26153K   26213.14414153  .00000087  00000+0  34744-4 0  9996
2 69809  88.9941 357.1069 0009566 130.6594 229.5429 14.19132623  3950
QIANFAN-211             
1 69810U 26153L   26213.00013229  .00000085  00000+0  32887-4 0  9996
2 69810  88.9942 357.1225 0008930 129.9879 230.2097 14.20230231  3932
QIANFAN-212             
1 69811U 26153M   26212.98966395  .00000082  00000+0  31319-4 0  9990
2 69811  88.9942 357.1209 0010162 133.7704 226.4330 14.20826226  3937
QIANFAN-213             
1 69812U 26153N   26213.19746204  .00000086  00000+0  32911-4 0  9993
2 69812  88.9942 357.0963 0009028 129.5866 230.6124 14.21105942  3962
QIANFAN-214             
1 69813U 26153P   26212.94691324  .00000094  00000+0  33724-4 0  9990
2 69813  88.9942 357.1143 0009690 134.3013 225.8976 14.25499387  3938
QIANFAN-215             
1 69814U 26153Q   26213.28708564  .00000496  00000+0  19909-3 0  9998
2 69814  88.9941 357.0718 0010005 135.3552 224.8449 14.26649309  3987
QIANFAN-216             
1 69815U 26153R   26213.07565362 -.01940715  00000+0 -94096+0 0  9999
2 69815  88.9937 357.0967 0012124 128.9717 231.2556 14.22339867  3953
QIANFAN-217             
1 69816U 26153S   26213.28561129  .00000457  00000+0  18280-3 0  9992
2 69816  88.9941 357.0716 0009549 133.2472 226.9520 14.26776554  3982
QIANFAN-218             
1 69817U 26153T   26213.21464495  .00000452  00000+0  18058-3 0  9992
2 69817  88.9944 357.0806 0009267 131.2241 228.9753 14.26820449  3977
CZ-6A R/B               
1 69818U 26153U   26213.32558604  .00000319  00000+0  68878-4 0  9999
2 69818  89.0186 356.9589 0085706  29.6026 330.9993 14.53457672  4062
STARLINK-37520          
1 69819U 26154A   26213.25002315 -.02364464  00000+0 -25591-1 0  9996
2 69819  53.1598 207.6349 0001448  85.6049 118.1520 15.66206973  5419
STARLINK-37553          
1 69820U 26154B   26213.25002315 -.03057351  00000+0 -56009-1 0  9991
2 69820  53.1599 208.0466 0001365  50.4013 310.9486 15.52946125  5414
STARLINK-37561          
1 69821U 26154C   26213.25002315 -.02385395  00000+0 -24736-1 0  9995
2 69821  53.1601 207.6299 0001609  85.3851 120.9456 15.67281584  5419
STARLINK-37521          
1 69822U 26154D   26213.25002315 -.02282681  00000+0 -40683-1 0  9999
2 69822  53.1595 207.9861 0000881  98.9688 291.9542 15.53157492  5419
STARLINK-37628          
1 69823U 26154E   26213.25002315 -.02419962  00000+0 -29818-1 0  9991
2 69823  53.1597 207.6646 0001469  80.3888 108.4850 15.63060889  5418
STARLINK-37695          
1 69824U 26154F   26213.25002315 -.02393752  00000+0 -30527-1 0  9999
2 69824  53.1598 207.6072 0001454  83.1374 133.1695 15.62150459  5412
STARLINK-37690          
1 69825U 26154G   26213.25002315 -.02382942  00000+0 -37434-1 0  9993
2 69825  53.1601 207.9633 0000903  88.9892 313.3883 15.56721640  5410
STARLINK-37710          
1 69826U 26154H   26213.25002315 -.03032261  00000+0 -55568-1 0  9999
2 69826  53.1602 207.9866 0001894  47.5197 342.9058 15.52892034  5413
STARLINK-38031          
1 69827U 26154J   26213.25002315  .00016825  00000+0  30978-3 0  9993
2 69827  53.1595 208.4060 0001634 107.1529  76.5265 15.49322058  5411
STARLINK-38001          
1 69828U 26154K   26213.25002315  .00016394  00000+0  30232-3 0  9998
2 69828  53.1602 208.1768 0001655 101.6522 194.8059 15.49298234  5411
STARLINK-37622          
1 69829U 26154L   26213.25002315  .00023208  00000+0  42454-3 0  9990
2 69829  53.1600 208.2008 0001827  61.1713 223.4157 15.49278961  5414
STARLINK-37621          
1 69830U 26154M   26213.25002315  .00020040  00000+0  36766-3 0  9992
2 69830  53.1597 208.2729 0001548  74.4640 174.6689 15.49293165  5417
STARLINK-37918          
1 69831U 26154N   26213.25002315  .00019077  00000+0  35042-3 0  9997
2 69831  53.1595 208.3387 0001327  87.9889 128.5482 15.49293389  5413
STARLINK-37887          
1 69832U 26154P   26213.25002315 -.02565248  00000+0 -48376-1 0  9990
2 69832  53.1599 207.9651 0000825  96.6914 304.3501 15.51433877  5412
STARLINK-37624          
1 69833U 26154Q   26213.25002315  .00016507  00000+0  30441-3 0  9992
2 69833  53.1600 208.1935 0001629  70.5171 217.1336 15.49291392  5422
STARLINK-37769          
1 69834U 26154R   26213.25002315  .00015707  00000+0  29007-3 0  9990
2 69834  53.1604 208.1009 0001730  90.9701 242.0772 15.49292444  5427
STARLINK-37247          
1 69835U 26154S   26213.25002315  .00027570  00000+0  50297-3 0  9997
2 69835  53.1604 208.0879 0002237  84.8055 255.0278 15.49253951  5525
STARLINK-37569          
1 69836U 26154T   26213.25002315  .00024601  00000+0  44983-3 0  9995
2 69836  53.1600 208.0651 0001080  61.7777 289.2074 15.49254788  5421
STARLINK-37587          
1 69837U 26154U   26213.25002315  .00025080  00000+0  45818-3 0  9996
2 69837  53.1602 208.0596 0000838 113.2346 239.8827 15.49269643  5396
STARLINK-37590          
1 69838U 26154V   26213.25002315  .00025067  00000+0  45795-3 0  9996
2 69838  53.1605 208.0491 0001772  83.8776 274.5467 15.49268656  5255
STARLINK-37589          
1 69839U 26154W   26213.25002315 -.01486371  00000+0 -28387-1 0  9995
2 69839  53.1599 207.9282 0001111 108.7473 309.3306 15.50369770  5397
STARLINK-37487          
1 69840U 26154X   26213.25002315 -.02312329  00000+0 -33075-1 0  9999
2 69840  53.1597 207.1502 0000871  90.0259 344.9315 15.59075463  5398
STARLINK-37433          
1 69841U 26154Y   26213.25002315  .00028389  00000+0  51752-3 0  9990
2 69841  53.1597 207.5112 0001722  74.9494 182.1033 15.49259592  5528
STARLINK-37588          
1 69842U 26154Z   26213.25002315  .00018326  00000+0  33712-3 0  9997
2 69842  53.1597 207.6201 0001539  69.1698 133.7440 15.49281216  5428
STARLINK-37579          
1 69843U 26154AA  26213.25002315 -.00461101  00000+0 -86942-2 0  9995
2 69843  53.1599 207.4934 0001602  81.4091 183.8667 15.49588517  5428
STARLINK-37584          
1 69844U 26154AB  26213.25002315 -.02711104  00000+0 -49694-1 0  9991
2 69844  53.1606 207.3751 0000752  68.1949 255.1279 15.52426669  5428
STARLINK-37606          
1 69845U 26154AC  26213.25002315  .00025216  00000+0  46050-3 0  9995
2 69845  53.1596 207.5693 0002094  88.9520 138.3963 15.49276146  5421
STARLINK-37603          
1 69846U 26154AD  26213.25002315 -.02158675  00000+0 -33787-1 0  9997
2 69846  53.1605 207.2062 0001100  78.6811 327.3473 15.56457327  5422
STARLINK-37595          
1 69847U 26154AE  26213.25002315  .00012988  00000+0  24134-3 0  9998
2 69847  53.1598 208.0784 0001591  86.1320 249.3189 15.49291692  5427
QIANFAN-219             
1 69848U 26155A   26213.22251093  .00000081  00000+0  29523-4 0  9995
2 69848  89.0052  59.0115 0031949 164.8604 195.3551 14.22316046  3806
QIANFAN-220             
1 69849U 26155B   26213.30672539  .00000089  00000+0  36583-4 0  9999
2 69849  89.0053  59.0236 0031462 165.7531 194.4553 14.17601768  3805
QIANFAN-221             
1 69850U 26155C   26213.26725543  .00000114  00000+0  41028-4 0  9999
2 69850  89.0052  58.9992 0032508 166.2826 193.9259 14.26652803  3812
QIANFAN-222             
1 69851U 26155D   26213.07905224 -.01970954  00000+0 -11161+1 0  9997
2 69851  89.0045  59.0461 0031266 168.3802 191.8113 14.13866217  3778
QIANFAN-223             
1 69852U 26155E   26213.07371219 -.02043119  00000+0 -11523+1 0  9996
2 69852  89.0050  59.0457 0031198 170.8176 189.3588 14.14237240  3773
QIANFAN-224             
1 69853U 26155F   26213.05701487 -.01977076  00000+0 -10799+1 0  9990
2 69853  89.0035  59.0393 0031784 176.7844 183.3554 14.15819922  3775
QIANFAN-225             
1 69854U 26155G   26213.20321068  .00000099  00000+0  40045-4 0  9991
2 69854  89.0052  59.0265 0030942 166.1987 194.0056 14.19335530  3799
QIANFAN-226             
1 69855U 26155H   26213.19909445  .00000094  00000+0  37412-4 0  9990
2 69855  89.0052  59.0259 0031707 166.5448 193.6595 14.19639805  3794
QIANFAN-227             
1 69856U 26155J   26213.12019007 -.01990392  00000+0 -11021+1 0  9996
2 69856  89.0045  59.0331 0031958 172.4973 187.6699 14.15108639  3784
QIANFAN-228             
1 69857U 26155K   26213.04604264 -.02038108  00000+0 -11240+1 0  9995
2 69857  89.0048  59.0407 0028400 173.8878 186.2662 14.15483367  3777
QIANFAN-229             
1 69858U 26155L   26213.09741540 -.02062794  00000+0 -10879+1 0  9995
2 69858  89.0046  59.0294 0034073 176.8863 183.2545 14.17839872  3786
QIANFAN-230             
1 69859U 26155M   26213.08916053 -.02011894  00000+0 -11497+1 0  9990
2 69859  89.0040  59.0456 0031069 166.3785 193.8247 14.13461261  3774
QIANFAN-231             
1 69860U 26155N   26213.22531145  .00000097  00000+0  35838-4 0  9991
2 69860  89.0054  59.0120 0032579 165.2000 195.0154 14.23688254  3803
QIANFAN-232             
1 69861U 26155P   26213.22092423  .00000103  00000+0  38402-4 0  9991
2 69861  89.0052  59.0105 0031778 166.5182 193.6867 14.23945747  3808
QIANFAN-233             
1 69862U 26155Q   26213.07956091 -.02005296  00000+0 -10410+1 0  9992
2 69862  89.0048  59.0271 0033106 173.9893 186.1700 14.18586897  3787
QIANFAN-234             
1 69863U 26155R   26213.07434848 -.02093364  00000+0 -10899+1 0  9998
2 69863  89.0043  59.0274 0034617 173.2407 186.9257 14.18583440  3784
QIANFAN-235             
1 69864U 26155S   26213.26521128  .00000099  00000+0  34590-4 0  9995
2 69864  89.0053  58.9991 0032391 166.3854 193.8221 14.26769832  3818
QIANFAN-236             
1 69865U 26155T   26213.09902424 -.01975518  00000+0 -10648+1 0  9993
2 69865  89.0041  59.0309 0031039 177.1168 183.0205 14.16545320  3789
QIANFAN-237             
1 69866U 26155U   26213.21364754  .00000081  00000+0  29440-4 0  9991
2 69866  89.0051  59.0117 0031460 165.8541 194.3539 14.23056601  3798
QIANFAN-238             
1 69867U 26155V   26213.12459867 -.01986150  00000+0 -97210+0 0  9990
2 69867  89.0047  59.0154 0032700 162.3709 197.8625 14.21685895  3796
CZ-8A R/B               
1 69868U 26155W   26213.28423282  .00000405  00000+0  96489-4 0  9999
2 69868  88.9643  58.7975 0105386  47.1823 313.8181 14.48282148  3860
CAS500-4                
1 69869U 26156A   26213.27916393  .00000053  00000+0  65734-4 0  9998
2 69869  98.9921 113.0645 0012323 150.8693 209.3161 13.99858864  3490
ICEYE-X79               
1 69870U 26156B   26213.29598711  .00002074  00000+0  21155-3 0  9995
2 69870  97.7497 113.3297 0008456  69.7835 290.4292 14.91712092  3728
PELICAN-11              
1 69871U 26156C   26213.16097358  .00000537  00000+0  58550-4 0  9995
2 69871  97.7536 113.2132 0006441  70.4617 289.7297 14.91976498  3514
TOM-1                   
1 69872U 26156D   26213.31173270  .00001045  00000+0  11199-3 0  9993
2 69872  97.7499 113.3108 0004625  45.6172 314.5425 14.90739134  3725
FIRESAT2                
1 69873U 26156E   26212.96187221  .00000567  00000+0  62054-4 0  9990
2 69873  97.7540 113.0128 0007351  70.9978 289.2036 14.91590329  3678
TRANSPORTER-17 OBJECT F 
1 69874U 26156F   26213.30927827  .00000663  00000+0  72783-4 0  9991
2 69874  97.7505 113.3158 0004436  61.1661 299.0003 14.90894820  3729
TRANSPORTER-17 OBJECT G 
1 69875U 26156G   26213.30848376  .00001667  00000+0  17447-3 0  9993
2 69875  97.7487 113.3131 0004822  56.3595 303.8083 14.90944708  3724
ION SCV-023             
1 69876U 26156H   26212.95665057  .00000903  00000+0  94726-4 0  9995
2 69876  97.6750 112.9424 0009123  79.9905 280.2343 14.91887103  3679
TRANSPORTER-17 OBJECT J 
1 69877U 26156J   26213.30112725  .00002365  00000+0  24218-3 0  9997
2 69877  97.7530 113.3348 0006469  67.0899 293.1002 14.91423561  3722
GRUS-3G                 
1 69878U 26156K   26213.29497600  .00000889  00000+0  93756-4 0  9997
2 69878  97.7494 113.3306 0008291  70.6868 289.5247 14.91738520  3721
ANDURIL-216             
1 69879U 26156L   26213.29867907  .00001339  00000+0  13919-3 0  9992
2 69879  97.7532 113.3389 0007107  69.0121 291.1858 14.91527798  3725
TRANSPORTER-17 OBJECT M 
1 69880U 26156M   26213.30648398  .00001547  00000+0  16179-3 0  9999
2 69880  97.7433 113.2993 0005945  49.5166 310.6570 14.91072141  3722
TRANSPORTER-17 OBJECT N 
1 69881U 26156N   26213.30663634  .00000494  00000+0  55535-4 0  9990
2 69881  97.7472 113.3098 0005468  55.8241 304.3495 14.91035848  3726
TRANSPORTER-17 OBJECT P 
1 69882U 26156P   26213.30595313  .00003253  00000+0  33338-3 0  9991
2 69882  97.7547 113.3335 0005090  73.2759 286.9018 14.91141998  3723
HYPERION GR-1           
1 69883U 26156Q   26213.30185610  .00000819  00000+0  87712-4 0  9998
2 69883  97.7527 113.3326 0006405  66.1706 294.0183 14.91324190  3726
YAM-17                  
1 69884U 26156R   26212.69468690  .00001495  00000+0  15881-3 0  9990
2 69884  97.7281 112.7209 0001557  89.0456 271.0940 14.90485604  3639
GRUS-3A                 
1 69885U 26156S   26213.23246031  .00000834  00000+0  88914-4 0  9999
2 69885  97.7503 113.2618 0007271  65.2563 294.9411 14.91463869  3717
FIRESAT1                
1 69886U 26156T   26213.29307698  .00000925  00000+0  97113-4 0  9995
2 69886  97.7533 113.3463 0008320  76.0232 284.1912 14.91848530  3718
TRANSPORTER-17 OBJECT U 
1 69887U 26156U   26213.29358168  .00000330  00000+0  38191-4 0  9995
2 69887  97.7531 113.3450 0008111  75.6707 284.5412 14.91809402  3728
TRANSPORTER-17 OBJECT V 
1 69888U 26156V   26213.23434278  .00001635  00000+0  16936-3 0  9998
2 69888  97.7540 113.2729 0006395  68.5847 291.6053 14.91375940  3551
ICEYE-X81               
1 69889U 26156W   26213.29957118  .00001584  00000+0  16374-3 0  9997
2 69889  97.7533 113.3372 0007019  67.5591 292.6371 14.91490283  3729
FIRESAT3                
1 69890U 26156X   26213.29224042  .00000948  00000+0  99229-4 0  9996
2 69890  97.7526 113.3450 0008561  75.8908 284.3262 14.91898587  3723
GRUS-3C                 
1 69891U 26156Y   26213.29817452  .00000847  00000+0  90012-4 0  9999
2 69891  97.7495 113.3267 0007634  66.2477 293.9542 14.91546696  3728
ICEYE-X77               
1 69892U 26156Z   26213.29149415  .00001471  00000+0  15067-3 0  9997
2 69892  97.7513 113.3418 0008841  75.3109 284.9089 14.91960959  3720
ICEYE-X80               
1 69893U 26156AA  26213.30029950  .00001948  00000+0  20035-3 0  9991
2 69893  97.7526 113.3338 0006902  66.0079 294.1862 14.91451914  3723
GRUS-3F                 
1 69894U 26156AB  26213.29795496  .00000851  00000+0  90384-4 0  9992
2 69894  97.7534 113.3407 0007198  70.0298 290.1695 14.91559944  3728
MIKROGLOB-1 (PIRX-1)    
1 69895U 26156AC  26213.29768760  .00000926  00000+0  97864-4 0  9990
2 69895  97.7499 113.3285 0007789  66.9376 293.2664 14.91577746  3720
BRO-31                  
1 69896U 26156AD  26213.29015355  .00001440  00000+0  14733-3 0  9991
2 69896  97.7513 113.3436 0009219  76.2012 284.0233 14.92039630  3723
TRANSPORTER-17 OBJECT AE
1 69897U 26156AE  26213.24432041  .00001479  00000+0  15605-3 0  9993
2 69897  97.7553 113.2609 0003673  78.1962 281.9668 14.90767188  3713
GRUS-3E                 
1 69898U 26156AF  26213.29915432  .00000839  00000+0  89323-4 0  9997
2 69898  97.7531 113.3378 0006982  68.6919 291.5045 14.91488010  3728
FOSSASAT-2E26           
1 69899U 26156AG  26212.96842778  .00000582  00000+0  64185-4 0  9997
2 69899  97.7497 112.9906 0006444  59.4066 300.7787 14.91198341  3671
TRANSPORTER-17 OBJECT AH
1 69900U 26156AH  26213.23688412  .00001844  00000+0  19102-3 0  9994
2 69900  97.7547 113.2709 0005941  63.9873 296.1957 14.91226395  3715
TRANSPORTER-17 OBJECT AJ
1 69901U 26156AJ  26213.30557335  .00000764  00000+0  82671-4 0  9994
2 69901  97.7510 113.3221 0005928  57.3623 302.8166 14.91102969  3729
TRANSPORTER-17 OBJECT AK
1 69902U 26156AK  26213.23975256  .00001747  00000+0  18205-3 0  9996
2 69902  97.7478 113.2446 0005549  55.9837 304.1907 14.91045989  3716
BALKAN-3                
1 69903U 26156AL  26213.30709413  .00001742  00000+0  18166-3 0  9996
2 69903  97.7558 113.3356 0004907  66.9777 293.1959 14.91033803  3726
TRANSPORTER-17 OBJECT AM
1 69904U 26156AM  26213.29718381  .00001279  00000+0  13289-3 0  9995
2 69904  97.7495 113.3275 0007679  68.6409 291.5629 14.91615142  3613
TRANSPORTER-17 OBJECT AN
1 69905U 26156AN  26213.30623350  .00003045  00000+0  31262-3 0  9993
2 69905  97.7549 113.3345 0005130  64.9849 295.1902 14.91119896  3720
TOM-3                   
1 69906U 26156AP  26213.17358009  .00001076  00000+0  11445-3 0  9998
2 69906  97.7458 113.1729 0005234  53.4863 306.6837 14.90975167  3701
TRANSPORTER-17 OBJECT AQ
1 69907U 26156AQ  26213.24091570  .00000555  00000+0  61760-4 0  9991
2 69907  97.7484 113.2454 0004987  58.0972 302.0731 14.90951377  3714
TRANSPORTER-17 OBJECT AR
1 69908U 26156AR  26213.29905755  .00001425  00000+0  14785-3 0  9997
2 69908  97.7502 113.3283 0007444  65.4854 294.7140 14.91506918  3729
TRANSPORTER-17 OBJECT AS
1 69909U 26156AS  26213.30030705  .00001051  00000+0  11076-3 0  9999
2 69909  97.7523 113.3330 0006881  65.6215 294.5722 14.91424106  3725
TRANSPORTER-17 OBJECT AT
1 69910U 26156AT  26213.30743675  .00003712  00000+0  38043-3 0  9997
2 69910  97.7530 113.3269 0004764  68.9803 291.1924 14.91054368  3729
TRANSPORTER-17 OBJECT AU
1 69911U 26156AU  26213.24487282  .00001204  00000+0  12826-3 0  9995
2 69911  97.7522 113.2515 0003571  67.5792 292.5804 14.90727471  3713
TRANSPORTER-17 OBJECT AV
1 69912U 26156AV  26213.24298430  .00001314  00000+0  13900-3 0  9997
2 69912  97.7539 113.2585 0004050  69.1109 291.0543 14.90843644  3717
TRANSPORTER-17 OBJECT AW
1 69913U 26156AW  26213.24156928  .00001289  00000+0  13625-3 0  9998
2 69913  97.7565 113.2681 0004339  76.7928 283.3774 14.90928092  3718
TOM-2                   
1 69914U 26156AX  26213.31124337  .00001020  00000+0  10943-3 0  9999
2 69914  97.7546 113.3250 0004122  54.0658 306.0943 14.90768801  3722
TRANSPORTER-17 OBJECT AY
1 69915U 26156AY  26213.29513423  .00001446  00000+0  14901-3 0  9995
2 69915  97.7496 113.3309 0008301  70.5285 289.6830 14.91741514  3728
KOYO                    
1 69916U 26156AZ  26213.24197895  .00002208  00000+0  22930-3 0  9990
2 69916  97.7499 113.2498 0004354  63.6613 296.5052 14.90928714  3712
TRANSPORTER-17 OBJECT BA
1 69917U 26156BA  26213.14752638  .00002194  00000+0  21864-3 0  9991
2 69917  97.7558 113.2359 0011453  81.7732 278.4786 14.92559959  3701
GRUS-3B                 
1 69918U 26156BB  26213.29459998  .00000887  00000+0  93488-4 0  9990
2 69918  97.7536 113.3455 0007867  74.9218 285.2871 14.91760811  3726
GRUS-3D                 
1 69919U 26156BC  26213.29245047  .00000926  00000+0  97089-4 0  9994
2 69919  97.7503 113.3374 0008682  73.9361 286.2814 14.91889822  3727
MARINA                  
1 69920U 26156BD  26213.22373467  .00002084  00000+0  21093-3 0  9995
2 69920  97.7508 113.2750 0009164  74.7560 285.4672 14.92018156  3714
TRANSPORTER-17 OBJECT BE
1 69921U 26156BE  26213.29171941  .00003518  00000+0  35238-3 0  9995
2 69921  97.7533 113.3487 0008539  77.9172 282.3003 14.91994150  3721
POSIDONIA               
1 69922U 26156BF  26213.29078580  .00000661  00000+0  70674-4 0  9991
2 69922  97.7503 113.3393 0009097  74.6006 285.6217 14.91983842  3724
TRANSPORTER-17 OBJECT BG
1 69923U 26156BG  26213.22345994  .00001397  00000+0  14321-3 0  9994
2 69923  97.7497 113.2722 0009214  74.0472 286.1762 14.92014721  3716
CENTAURI-9              
1 69924U 26156BH  26213.22119547  .00001085  00000+0  11208-3 0  9993
2 69924  97.7505 113.2779 0009815  73.4501 286.7796 14.92142978  3711
TRANSPORTER-17 OBJECT BJ
1 69925U 26156BJ  26213.28720048  .00004678  00000+0  46299-3 0  9993
2 69925  97.7496 113.3423 0010316  72.6165 287.6182 14.92298943  3727
TRANSPORTER-17 OBJECT BK
1 69926U 26156BK  26213.28643711  .00004244  00000+0  42041-3 0  9995
2 69926  97.7565 113.3643 0010198  81.8647 278.3729 14.92316057  3725
REPLICATOR 2            
1 69927U 26156BL  26213.21980538  .00001110  00000+0  11429-3 0  9995
2 69927  97.7521 113.2843 0009900  79.1653 281.0680 14.92226660  3542
TRANSPORTER-17 OBJECT BM
1 69928U 26156BM  26213.28599064  .00004623  00000+0  45705-3 0  9999
2 69928  97.7559 113.3619 0010545  78.5420 281.6983 14.92347190  3722
TRANSPORTER-17 OBJECT BN
1 69929U 26156BN  26213.21755070  .00005180  00000+0  51023-3 0  9993
2 69929  97.7532 113.2904 0010767  77.5148 282.7275 14.92436266  3710
TRANSPORTER-17 OBJECT BP
1 69930U 26156BP  26213.28413262  .00004149  00000+0  40962-3 0  9990
2 69930  97.7548 113.3620 0010837  80.7448 279.4996 14.92456145  3724
TRANSPORTER-17 OBJECT BQ
1 69931U 26156BQ  26213.21747913  .00001200  00000+0  12268-3 0  9990
2 69931  97.7503 113.2820 0010802  73.0185 287.2217 14.92367047  3716
LEMUR-2-NURAY           
1 69932U 26156BR  26212.94916851  .00001641  00000+0  16569-3 0  9996
2 69932  97.7453 113.0036 0011086  71.8941 288.3485 14.92378741  3676
TRANSPORTER-17 OBJECT BS
1 69933U 26156BS  26213.28338357  .00004277  00000+0  42165-3 0  9993
2 69933  97.7534 113.3585 0011238  76.3771 283.8699 14.92499023  3729
TRANSPORTER-17 OBJECT BT
1 69934U 26156BT  26213.28296757  .00004141  00000+0  40819-3 0  9995
2 69934  97.7526 113.3568 0011290  78.8827 281.3661 14.92522596  3723
KOSTKA                  
1 69935U 26156BU  26213.21508755  .00002930  00000+0  29026-3 0  9994
2 69935  97.7464 113.2732 0011662  73.8970 286.3532 14.92546667  3710
TRANSPORTER-17 OBJECT BV
1 69936U 26156BV  26213.28236867  .00001830  00000+0  18348-3 0  9997
2 69936  97.7464 113.3386 0011504  73.3302 286.9180 14.92509602  3720
LEONAV-1                
1 69937U 26156BW  26213.27834233  .00002876  00000+0  28338-3 0  9999
2 69937  97.7495 113.3543 0012570  73.1441 287.1156 14.92771311  3720
CYBERCUBE               
1 69938U 26156BX  26213.28198795  .00002122  00000+0  21172-3 0  9990
2 69938  97.7475 113.3448 0011669  70.3652 289.8825 14.92552700  3725
CLOUDCT-PRECURSOR       
1 69939U 26156BY  26213.28178782  .00001481  00000+0  14947-3 0  9994
2 69939  97.7556 113.3676 0011268  81.1126 279.1368 14.92536360  3728
LEMUR-2-ELEONORE        
1 69940U 26156BZ  26213.28026400  .00001723  00000+0  17262-3 0  9997
2 69940  97.7540 113.3640 0011935  75.5067 284.7476 14.92628083  3722
TRANSPORTER-17 OBJECT CA
1 69941U 26156CA  26213.22045505  .00004414  00000+0  43757-3 0  9997
2 69941  97.7495 113.2757 0010239  72.8164 287.4175 14.92269675  3717
TRANSPORTER-17 OBJECT CB
1 69942U 26156CB  26213.28777352  .00004398  00000+0  43622-3 0  9998
2 69942  97.7494 113.3411 0010134  72.7473 287.4854 14.92246134  3721
STARLINK-37886          
1 69943U 26157A   26213.24725870  .00200213  00000+0  99358-3 0  9995
2 69943  53.1582 210.3734 0001085 110.0561 250.0579 15.80894505  3630
STARLINK-37937          
1 69944U 26157B   26213.25002315 -.02424760  00000+0 -19544-1 0  9995
2 69944  53.1598 210.3794 0001006  77.3324 288.4793 15.73899835  4906
STARLINK-37903          
1 69945U 26157C   26213.25002315 -.02395489  00000+0 -37204-1 0  9994
2 69945  53.1595 210.7242 0001527  86.6968 109.7204 15.57037916  4909
STARLINK-37905          
1 69946U 26157D   26213.25002315 -.02415464  00000+0 -19564-1 0  9990
2 69946  53.1597 210.3290 0001095  90.4264 300.0294 15.73772409  4909
STARLINK-37904          
1 69947U 26157E   26213.24079404  .00047680  00000+0  24445-3 0  9996
2 69947  53.1581 210.3281 0000992  70.0047 290.1082 15.80812262  3634
STARLINK-37891          
1 69948U 26157F   26213.25002315 -.02474114  00000+0 -20986-1 0  9999
2 69948  53.1600 210.3268 0001069  71.7957 319.3684 15.72196221  4900
STARLINK-37923          
1 69949U 26157G   26213.25002315 -.02416437  00000+0 -40301-1 0  9997
2 69949  53.1596 210.6947 0001653  90.0595 120.0350 15.55170415  4908
STARLINK-37895          
1 69950U 26157H   26213.25002315 -.02417188  00000+0 -31209-1 0  9990
2 69950  53.1602 210.4730 0001086  95.3595 223.6008 15.61876123  4900
STARLINK-37841          
1 69951U 26157J   26213.25002315 -.02393565  00000+0 -35814-1 0  9999
2 69951  53.1605 210.5626 0001573  95.5226 179.5205 15.58017734  4902
STARLINK-37899          
1 69952U 26157K   26213.25002315 -.02436344  00000+0 -22287-1 0  9993
2 69952  53.1595 210.2641 0001116  72.6141 348.7222 15.70369845  4906
STARLINK-37900          
1 69953U 26157L   26213.25002315 -.02364877  00000+0 -24002-1 0  9992
2 69953  53.1595 210.2862 0000674  90.5153 319.7164 15.67784957  4906
STARLINK-37882          
1 69954U 26157M   26213.25002315 -.02402970  00000+0 -32529-1 0  9993
2 69954  53.1603 210.4298 0001132  94.8886 244.6907 15.60641528  4902
STARLINK-37928          
1 69955U 26157N   26213.22947907  .00055886  00000+0  31954-3 0  9995
2 69955  53.1566 210.2515 0001980 128.7166 231.4033 15.78336815  3632
STARLINK-37824          
1 69956U 26157P   26213.25002315 -.02425780  00000+0 -24621-1 0  9993
2 69956  53.1595 210.2610 0001009  69.2057 353.1440 15.67866895  4900
STARLINK-37919          
1 69957U 26157Q   26213.25002315 -.02408411  00000+0 -35310-1 0  9993
2 69957  53.1601 210.4824 0001251 103.5128 209.9618 15.58579040  4906
STARLINK-37964          
1 69958U 26157R   26213.25002315 -.02322246  00000+0 -39454-1 0  9998
2 69958  53.1597 210.6658 0001607  83.5809 139.9418 15.54516101  4901
STARLINK-37907          
1 69959U 26157S   26213.25002315 -.02371071  00000+0 -23645-1 0  9994
2 69959  53.1593 210.2285 0001112  67.1462  10.9219 15.68214991  4908
STARLINK-37901          
1 69960U 26157T   26213.25002315 -.02376521  00000+0 -18479-1 0  9990
2 69960  53.1590 210.1187 0001338  77.4760  54.0775 15.74634809  4909
STARLINK-37910          
1 69961U 26157U   26213.25002315 -.02410858  00000+0 -38361-1 0  9995
2 69961  53.1602 210.4835 0001153  98.1933 214.2030 15.56423937  4906
STARLINK-37925          
1 69962U 26157V   26213.25002315 -.02387521  00000+0 -18627-1 0  9999
2 69962  53.1591 210.0973 0001257  83.1159  59.1100 15.74577220  4901
STARLINK-37931          
1 69963U 26157W   26213.25002315 -.01424552  00000+0 -10176-1 0  9996
2 69963  53.1593 210.0782 0001395  89.1984  62.0558 15.75924864  4908
STARLINK-37914          
1 69964U 26157X   26213.25002315 -.02380603  00000+0 -36636-1 0  9995
2 69964  53.1604 210.4187 0001154 107.3333 236.6993 15.57260238  4909
STARLINK-37840          
1 69965U 26157Y   26213.25002315 -.02399020  00000+0 -40278-1 0  9996
2 69965  53.1607 210.4553 0001378  97.9898 227.7986 15.54965620  4905
STARLINK-37894          
1 69966U 26157Z   26213.25002315 -.02410697  00000+0 -37192-1 0  9992
2 69966  53.1596 210.3934 0000969  89.5503 266.6143 15.57245224  4901
STARLINK-37875          
1 69967U 26157AA  26213.25002315 -.02473504  00000+0 -23981-1 0  9990
2 69967  53.1597 210.0818 0001461  79.6528  69.0935 15.69033615  4902
STARLINK-36218          
1 69968U 26157AB  26213.25002315 -.02348512  00000+0 -20521-1 0  9998
2 69968  53.1596 210.0148 0001341  87.2596  93.9835 15.71904150  4555
STARLINK-37921          
1 69969U 26157AC  26213.25002315 -.02439929  00000+0 -25029-1 0  9990
2 69969  53.1597 210.0432 0001452  81.2741  85.5615 15.67624710  4900
STARLINK-37896          
1 69970U 26157AD  26213.25002315 -.02465116  00000+0 -25189-1 0  9996
2 69970  53.1594 210.0369 0001515  80.3571  89.4740 15.67755065  4909
STARLINK-37922          
1 69971U 26157AE  26213.25002315 -.01010517  00000+0 -98745-2 0  9996
2 69971  53.1595 210.0252 0001183  77.7360  97.9039 15.68108783  4904
CHUANG XIN 26 (CX-26)   
1 69972U 26158A   26213.23693774  .00000123  00000+0  11967-3 0  9992
2 69972  49.9811 208.4960 0004943 358.5422   1.5476 14.25118516  3139
CZ-10B DEB              
1 69973U 26158B   26213.24050833  .00000476  00000+0  27053-3 0  9991
2 69973  49.9822 208.5165 0005933   9.2741 350.8281 14.24899882  3139
CZ-10B R/B              
1 69974U 26158C   26213.19268736  .00000162  00000+0  57482-4 0  9991
2 69974  49.9620 202.4922 0197967 264.5189  93.3131 14.64311948  3219
STARLINK-38024          
1 69975U 26159A   26213.10054417  .00243144  00000+0  12336-2 0  9999
2 69975  97.2840  52.7468 0001179  80.7670 279.3732 15.80842339  4534
STARLINK-37993          
1 69976U 26159B   26213.25002315  .00027306  00000+0  14294-3 0  9992
2 69976  97.2844  52.9074 0001466  91.1456  43.3729 15.80801231  4598
STARLINK-37995          
1 69977U 26159C   26213.06932405  .00169811  00000+0  11175-2 0  9996
2 69977  97.2836  52.6345 0001576  77.0744 283.0697 15.75176525  4528
STARLINK-38057          
1 69978U 26159D   26213.22612821 -.01038161  00000+0 -71465-2 0  9996
2 69978  97.2848  52.8812 0000834  85.0507 275.0854 15.76922916  4558
STARLINK-38063          
1 69979U 26159E   26213.25002315 -.00073996  00000+0 -49891-3 0  9994
2 69979  97.2845  52.8825 0001424  92.7908 345.3161 15.75218297  4591
STARLINK-38093          
1 69980U 26159F   26213.28669285  .00246690  00000+0  12478-2 0  9995
2 69980  97.2838  52.9521 0001697  79.3117 280.8342 15.80898923  4561
STARLINK-38050          
1 69981U 26159G   26213.06650017  .00177405  00000+0  11660-2 0  9994
2 69981  97.2833  52.6382 0001199 106.2208 253.9190 15.75185514  4524
STARLINK-38065          
1 69982U 26159H   26213.31637663  .00228105  00000+0  14870-2 0  9995
2 69982  97.2834  52.9106 0001987 121.5020 238.6439 15.75230892  4560
STARLINK-38077          
1 69983U 26159J   26213.09453280  .00269584  00000+0  13643-2 0  9995
2 69983  97.2832  52.7547 0001520  97.1135 263.0306 15.80829110  4539
STARLINK-38068          
1 69984U 26159K   26213.29732011  .00186253  00000+0  12206-2 0  9995
2 69984  97.2849  52.9370 0002174 114.9999 245.1492 15.75226209  4560
STARLINK-38089          
1 69985U 26159L   26213.30684912  .00162073  00000+0  10636-2 0  9993
2 69985  97.2835  52.9246 0001167  77.5439 282.5957 15.75262886  4564
STARLINK-38073          
1 69986U 26159M   26213.25002315 -.00097210  00000+0 -65832-3 0  9990
2 69986  97.2845  52.9004 0001270 105.7660  16.3771 15.75189410  4594
STARLINK-38099          
1 69987U 26159N   26212.55086895  .00130120  00000+0  86034-3 0  9991
2 69987  97.2836  52.1144 0001447  57.7885 302.3520 15.75181412  4441
STARLINK-38064          
1 69988U 26159P   26213.30190970  .00155583  00000+0  10231-2 0  9991
2 69988  97.2838  52.9304 0001697  78.2678 281.8778 15.75234915  4561
STARLINK-38080          
1 69989U 26159Q   26213.10497421  .00186417  00000+0  12237-2 0  9999
2 69989  97.2828  52.7400 0001305  81.1087 279.0326 15.75188720  4536
STARLINK-38070          
1 69990U 26159R   26213.10779810  .00197710  00000+0  12958-2 0  9994
2 69990  97.2836  52.7350 0001582  79.5654 280.5790 15.75193079  4534
STARLINK-38042          
1 69991U 26159S   26213.25002315 -.00069921  00000+0 -47123-3 0  9997
2 69991  97.2845  52.9038 0001317  96.2167  31.8854 15.75215682  4590
STARLINK-38071          
1 69992U 26159T   26213.11274055  .00181666  00000+0  11932-2 0  9992
2 69992  97.2834  52.7279 0002170  67.0546 293.0948 15.75186319  4533
STARLINK-38082          
1 69993U 26159U   26213.29378992  .00178663  00000+0  11706-2 0  9999
2 69993  97.2840  52.9410 0002065  61.3949 298.7524 15.75253315  4563
STARLINK-38090          
1 69994U 26159V   26213.25002315 -.00045165  00000+0 -30342-3 0  9999
2 69994  97.2850  52.9296 0001235 106.0683  82.0319 15.75198733  4598
STARLINK-38084          
1 69995U 26159W   26213.30897155  .00167122  00000+0  10979-2 0  9999
2 69995  97.2847  52.9220 0002453  70.5836 289.5694 15.75223852  4568
STARLINK-38085          
1 69996U 26159X   26213.25002315 -.00057072  00000+0 -38399-3 0  9991
2 69996  97.2842  52.9136 0000858  92.8012  55.2998 15.75211290  4591
STARLINK-38091          
1 69997U 26159Y   26213.08401351  .00235921  00000+0  11990-2 0  9992
2 69997  97.2822  52.7687 0001936  99.9447 260.2040 15.80823623  4532
STARLINK-38086          
1 69998U 26159Z   26213.29167629  .00149693  00000+0  98543-3 0  9993
2 69998  97.2840  52.9455 0001657  79.9609 280.1843 15.75226144  4560
