HST                     
1 20580U 90037B   26283.95144126  .00008494  00000+0  26031-3 0  9996
2 20580  28.4737   8.6621 0001735  14.6522 345.4124 15.31895111806335
POLAR                   
1 23802U 96013A   26279.72274735  .00000022  00000+0  00000+0 0  9999
2 23802  80.0081 225.7074 6585650 205.2585  97.6829  1.29845635146301
SWAS                    
1 25560U 98071A   26283.75009955  .00002395  00000+0  15263-3 0  9992
2 25560  69.8938 289.3622 0002685  56.2767 303.8653 15.10210139514718
CXO                     
1 25867U 99040B   26285.73356490  .00000685  00000+0  00000+0 0  9997
2 25867  57.7813 113.5954 7652945 309.1386   0.2050  0.37805872 17765
XMM-NEWTON              
1 25989U 99066A   26285.03543818  .00000037  00000+0  00000+0 0  9996
2 25989  63.8740 281.4730 4642736  62.7983   0.2142  0.50128242 23597
TERRA                   
1 25994U 99068A   26283.96656343  .00000350  00000+0  80115-4 0  9990
2 25994  97.9324 328.8481 0001688 187.3231 293.5243 14.61173793426515
TIMED                   
1 26998U 01055B   26283.47800357  .00001085  00000+0  10151-3 0  9994
2 26998  74.0697   2.8415 0001033 225.6892 134.4208 14.95501880348053
CORIOLIS                
1 27640U 03001A   26283.96998181  .00000108  00000+0  71186-4 0  9990
2 27640  98.7169 289.1122 0013052 237.3428 122.6490 14.19971756230656
SORCE                   
1 27651U 03004A   26283.81237782  .00003199  00000+0  23620-3 0  9994
2 27651  39.9914 321.7194 0016916 166.1780 193.9480 15.04218661289318
MOST                    
1 27843U 03031D   26283.94268779  .00000056  00000+0  45838-4 0  9996
2 27843  98.7082 290.0743 0008752 279.5995  80.4193 14.21341880207155
SCISAT 1                
1 27858U 03036A   26283.22404760  .00000455  00000+0  62647-4 0  9990
2 27858  73.9288 302.7564 0008008 329.7273  30.3440 14.81556892248484
SWIFT                   
1 28485U 04047A   26283.88571029  .00479567  00000+0  13541-2 0  9996
2 28485  20.5518   2.0935 0003768 125.8608 234.2192 15.91063071205141
HINODE (SOLAR-B)        
1 29479U 06041A   26283.93634100  .00000494  00000+0  93136-4 0  9991
2 29479  98.0535 298.3862 0016086 281.6784  78.2616 14.68742216 71861
SHIJIAN-6 02A (SJ-6 02A)
1 29505U 06046A   26283.94665874  .00004466  00000+0  22296-3 0  9990
2 29505  97.6244 325.9007 0004621  97.8780 262.2978 15.18016211 89822
SHIJIAN-6 02B (SJ-6 02B)
1 29506U 06046B   26283.97270454  .00001468  00000+0  11793-3 0  9999
2 29506  97.6964 312.1890 0014834  46.1552 314.0895 15.01526509 88114
FGRST (GLAST)           
1 33053U 08029A   26283.90884237  .00003663  00000+0  13146-3 0  9990
2 33053  25.5811 120.6434 0007506 252.6242 107.3475 15.24465328 13369
SDO                     
1 36395U 10005A   26277.11916721 -.00000067  00000+0  00000+0 0  9996
2 36395  34.8784  84.6864 0001797  82.1576 147.3231  1.00273214 61155
CRYOSAT 2               
1 36508U 10013A   26283.93618132  .00000145  00000+0  35369-4 0  9990
2 36508  92.0236 305.3843 0002180  93.2658 266.8798 14.51906466874878
X-SAT                   
1 37389U 11015C   26283.92291264 -.00000274  00000+0 -98940-4 0  9992
2 37389  98.3671 255.5188 0014356   8.4513 351.6907 14.25232686804169
GCOM-W1 (SHIZUKU)       
1 38337U 12025A   26282.59461932  .00000347  00000+0  87148-4 0  9998
2 38337  98.2109 221.4505 0001588  74.2658  99.0110 14.57116137765697
NUSTAR                  
1 38358U 12031A   26284.00003472  .00011543  00000+0  64103-3 0  9992
2 38358   6.0256 244.7785 0007260  27.6430 321.9379 15.09739652  1307
NEOSSAT                 
1 39089U 13009D   26283.95734886  .00000181  00000+0  77192-4 0  9992
2 39089  98.4226 101.2910 0009841 260.5668  99.4406 14.35861338713354
BRITE-AUSTRIA           
1 39091U 13009F   26283.75892645  .00000131  00000+0  58997-4 0  9998
2 39091  98.4049 100.3908 0009044 253.4637 106.5556 14.36578725713643
IRIS                    
1 39197U 13033A   26283.31056160  .00000883  00000+0  10679-3 0  9996
2 39197  97.9245 122.2138 0023271 304.3224  55.5788 14.86073075717474
HISAKI (SPRINT-A)       
1 39253U 13049A   26283.53566081  .00000119  00000+0  70433-4 0  9995
2 39253  29.7221 353.5642 0136540 232.0823 126.7336 13.55552922647086
CASSIOPE                
1 39265U 13055A   26283.84916847  .00055940 -16040-6  54513-3 0  9999
2 39265  80.9084 285.3940 0262816  30.4319 331.1873 15.33333253685345
STSAT-3                 
1 39422U 13066G   26283.95136675  .00002448  00000+0  18495-3 0  9996
2 39422  97.6350 252.0934 0010165  11.6064 348.5394 15.03272380701597
SWARM B                 
1 39451U 13067A   26283.92076468  .00003560  00000+0  12469-3 0  9990
2 39451  87.7393 307.1579 0002752  81.4299 278.7263 15.29150661700921
SWARM A                 
1 39452U 13067B   26283.92205633  .00015690  00000+0  26748-3 0  9991
2 39452  87.3381  13.2549 0003089  98.6887 261.4725 15.51222407724183
SWARM C                 
1 39453U 13067C   26283.92196701  .00015835  00000+0  26997-3 0  9994
2 39453  87.3382  11.8388 0003117  98.3198 261.8417 15.51221029724141
BRITE-CA1 (TORONTO)     
1 40020U 14033L   26283.60441603  .00000758  00000+0  12131-3 0  9992
2 40020  97.9898  50.5162 0077029 267.3673  91.8716 14.72840994659208
OCO 2                   
1 40059U 14035A   26283.93202573  .00000396  00000+0  97953-4 0  9997
2 40059  98.2111 223.5014 0001284  68.9025 291.2310 14.57105660652909
BRITE-PL2 (HEWELIUSZ)   
1 40119U 14049B   26283.57925987  .00001426  00000+0  13591-3 0  9990
2 40119  97.9195  36.5554 0015181  87.2764 273.0193 14.94921394658689
MMS 1                   
1 40482U 15011A   26284.00003472 -.00001072  00000+0  00000+0 0  9993
2 40482  73.0481 347.4900 8241627 169.9402 232.2389  0.28347960  1369
MMS 2                   
1 40483U 15011B   26284.00003472 -.00001073  00000+0  00000+0 0  9995
2 40483  73.0528 347.4888 8244476 169.9410 232.2133  0.28347901  1374
MMS 3                   
1 40484U 15011C   26284.00003472 -.00001073  00000+0  00000+0 0  9996
2 40484  73.0520 347.5009 8242845 169.9499 232.1877  0.28347902  1351
MMS 4                   
1 40485U 15011D   26284.00003472 -.00001073  00000+0  00000+0 0  9997
2 40485  73.0468 347.4852 8243073 169.9612 232.1756  0.28348855  1375
ASTROSAT                
1 40930U 15052A   26283.72769647  .00001586  00000+0  11058-3 0  9995
2 40930   5.9975  43.5469 0008747 248.6597 111.2597 14.82678028597004
DAMPE                   
1 41173U 15078A   26283.99097039  .00001086  00000+0  38767-4 0  9993
2 41173  97.4597 290.0754 0012932  31.9441 328.2581 15.31026246602260
PISAT                   
1 41784U 16059B   26283.93303785  .00000820  00000+0  14666-3 0  9999
2 41784  97.8263 279.4737 0028527 192.9753 167.0722 14.69157317536733
HXMT (HUIYAN)           
1 42758U 17034A   26283.93839292  .00005798  00000+0  27740-3 0  9998
2 42758  43.0143 258.0836 0030985 162.5596 197.6323 15.19315373515262
FLYING LAPTOP           
1 42831U 17042G   26283.94673198  .00003106  00000+0  24260-3 0  9996
2 42831  97.5026  75.3971 0019144  87.7980 272.5437 15.01681605503820
ZHANGHENG 1-01 (CSES-1) 
1 43194U 18015C   26283.94011922  .00011122  00000+0  50510-3 0  9995
2 43194  97.6967  91.9827 0013237 230.7330 129.2732 15.20882730482238
SALSAT                  
1 46495U 20068K   26283.93088808  .00009609  00000+0  32119-3 0  9991
2 46495  97.8875 294.1975 0007630 252.7955 107.2450 15.31215962333061
IXPE                    
1 49954U 21121A   26284.00003472  .00026721  00000+0  14848-2 0  9990
2 49954   0.2286 160.7356 0006827  35.2930  88.8181 15.11171184  5856
SMILE                   
1 69123U 26109A   26281.27012189  .00000529  00000+0  00000+0 0  9992
2 69123  69.9849 206.1768 8121826 285.2826   5.8683  0.47511777   480
