ISS (ZARYA)             
1 25544U 98067A   26283.78925095  .00010839  00000+0  20582-3 0  9996
2 25544  51.6307  88.0087 0006720 246.7167 113.3114 15.48817123589672
POISK                   
1 36086U 09060A   26283.78925095  .00010839  00000+0  20582-3 0  9994
2 36086  51.6307  88.0087 0006720 246.7167 113.3114 15.48817123586357
CSS (TIANHE)            
1 48274U 21035A   26283.82865320  .00028340  00000+0  33640-3 0  9996
2 48274  41.4700 339.6647 0000756  15.6585 344.4277 15.60550432311220
ISS (NAUKA)             
1 49044U 21066A   26283.78925095  .00010839  00000+0  20582-3 0  9992
2 49044  51.6307  88.0087 0006720 246.7167 113.3114 15.48817123586399
FREGAT DEB              
1 49271U 11037PF  26282.66809842  .00016009  00000+0  22122-1 0  9993
2 49271  51.6488  16.7849 0943055 179.2091 181.0518 12.45106720239294
CSS (WENTIAN)           
1 53239U 22085A   26283.82865320  .00028340  00000+0  33640-3 0  9999
2 53239  41.4700 339.6647 0000756  15.6585 344.4277 15.60550432288231
CSS (MENGTIAN)          
1 54216U 22143A   26283.82865320  .00028340  00000+0  33640-3 0  9990
2 54216  41.4700 339.6647 0000756  15.6585 344.4277 15.60550432308027
HRC MONOBLOCK CAMERA    
1 66052U 98067XS  26282.70374424  .01198896  10270-2  84842-3 0  9993
2 66052  51.6097  39.7318 0009902 323.3069  36.7269 16.15583592 56184
SZ-21 MODULE            
1 66515U 25246C   26283.36277567  .00108733  00000+0  36398-3 0  9999
2 66515  41.4695 304.0464 0010215 136.8038 223.3614 15.88951015 51980
DUPLEX                  
1 66906U 98067XT  26282.01890377  .00067523  00000+0  50571-3 0  9995
2 66906  51.6244  70.8551 0004484 288.9484  71.1028 15.72002251 48501
KNACKSAT-2              
1 67683U 98067YA  26283.69509825  .00097262  00000+0  71490-3 0  9994
2 67683  51.6235  68.5732 0009014 280.9018  79.0966 15.72257394 38370
GXIBA-1                 
1 67685U 98067YC  26283.66649730  .00142125  00000+0  82115-3 0  9998
2 67685  51.6197  65.3281 0010233 284.7135  75.2731 15.77610008 38413
UITMSAT-2               
1 67686U 98067YD  26283.64909400  .00577256  15671-3  11362-2 0  9996
2 67686  51.6143  56.8336 0010763 303.5432  56.4549 15.99371106 38526
LEOPARD                 
1 67687U 98067YE  26282.96135789  .00298453  00000+0  12750-2 0  9999
2 67687  51.6196  68.9013 0010521 286.0867  73.8977 15.83729008 38226
HMU-SAT2                
1 67688U 98067YF  26281.81136246  .00200744  00000+0  80839-3 0  9992
2 67688  51.6209  70.9282 0008598 272.4059  87.5960 15.85246623 38094
CYGNUS NG-24            
1 68689U 26079A   26283.91895700  .00002839  00000+0  61738-4 0  9991
2 68689  51.6319  87.3750 0003057 243.1246 116.9430 15.47977007589699
PROGRESS-MS 34          
1 68837U 26093A   26283.78925095  .00010839  00000+0  20582-3 0  9998
2 68837  51.6307  88.0087 0006720 246.7167 113.3114 15.48817123587324
TIANZHOU-10             
1 69049U 26102A   26283.82865320  .00028340  00000+0  33640-3 0  9999
2 69049  41.4700 339.6647 0000756  15.6585 344.4277 15.60550432310963
SHENZHOU-23 (SZ-23)     
1 69180U 26113A   26283.82865320  .00028340  00000+0  33640-3 0  9997
2 69180  41.4700 339.6647 0000756  15.6585 344.4277 15.60550432307842
