ATLAS CENTAUR 2         
1 00694U 63047A   26283.75174732  .00002975  00000+0  34954-3 0  9996
2 00694  30.3540  72.9950 0544616 176.8857 183.5336 14.12799269162059
THOR AGENA D R/B        
1 00733U 64002A   26283.34761470  .00000137  00000+0  66002-4 0  9996
2 00733  99.1108 308.2717 0032664 355.1931   4.8933 14.34101271269063
SL-3 R/B                
1 00877U 64053B   26283.63501085  .00000199  00000+0  62745-4 0  9995
2 00877  65.0770  60.9961 0074943 224.2085 135.3013 14.61473127298203
SL-8 R/B                
1 02802U 67045B   26283.78528747  .00000142  00000+0  46957-4 0  9994
2 02802  74.0102 306.3418 0065503 262.1126  97.2594 14.45726886120103
SL-8 R/B                
1 03230U 68040B   26283.91865753  .00003366  00000+0  24308-3 0  9998
2 03230  74.0297 233.5036 0024171 351.5110   8.5666 15.04304799122369
OAO 2                   
1 03597U 68110A   26283.32778827  .00000159  00000+0  47766-4 0  9993
2 03597  34.9921 146.7553 0004892 124.2491 235.8663 14.47387211 50210
ISIS 1                  
1 03669U 69009A   26283.07663961  .00000113  00000+0  71675-4 0  9991
2 03669  88.4335 131.7720 1707517  16.3489 348.6251 11.30453383372751
SERT 2                  
1 04327U 70009A   26283.42887171 -.00000009  00000+0  44080-4 0  9990
2 04327  99.2905 214.9755 0004770 348.0953 110.1289 13.58747652809057
SL-3 R/B                
1 05118U 71028B   26283.87056190  .00159656  00000+0  70936-3 0  9999
2 05118  81.2248 142.2070 0007277 214.7679 145.3112 15.83862503 22469
ASTEX 1                 
1 05560U 71089A   26283.59344754  .00000313  00000+0  79263-4 0  9990
2 05560  92.7148 221.0929 0017818  79.7520 280.5694 14.50925531893468
SL-8 R/B                
1 05730U 71119B   26282.99194081  .00008028  00000+0  41111-3 0  9993
2 05730  73.8837 134.1112 0537108  56.3683 308.7526 14.40692365686327
OAO 3 (COPERNICUS)      
1 06153U 72065A   26283.93131685  .00000269  00000+0  59395-4 0  9993
2 06153  35.0045 150.8695 0005979 126.3867 250.5372 14.60113170877674
ATLAS CENTAUR R/B       
1 06155U 72065B   26283.85913692  .00000961  00000+0  13299-3 0  9993
2 06155  35.0004 124.3214 0033134  20.5456 339.6571 14.78078735873118
SL-8 R/B                
1 08459U 75112B   26283.92137266  .00000204  00000+0  75430-4 0  9997
2 08459  74.0625 342.9527 0015351  15.2238 344.9375 14.38286958662812
SL-3 R/B                
1 10114U 77057B   26283.91881832  .00018048  00000+0  32294-3 0  9997
2 10114  97.5858 106.3059 0005597 214.3784 145.7106 15.50036396701628
SEASAT 1                
1 10967U 78064A   26283.54065862  .00000251  00000+0  10842-3 0  9990
2 10967 108.0092 216.4082 0002586 288.2940  71.7924 14.46302014537574
SL-14 R/B               
1 11267U 79011B   26283.92675961  .00000529  00000+0  49424-4 0  9993
2 11267  82.5218 252.3071 0017376  61.1297 299.1664 14.92095289560877
SL-8 R/B                
1 11574U 79089B   26283.61301874  .00000202  00000+0  68771-4 0  9998
2 11574  74.0695  53.1736 0015485 174.2238 185.9100 14.42443972467096
SL-14 R/B               
1 11672U 80005B   26283.94750765  .00000544  00000+0  52243-4 0  9996
2 11672  82.5108 103.0291 0016103 160.2340 199.9507 14.91110735508562
SL-8 R/B                
1 12139U 81003B   26283.91284979  .00037888  00000+0  86431-3 0  9996
2 12139  82.9325  89.9204 0238189 145.4104 216.2895 15.18136774347256
SL-3 R/B                
1 12465U 81046B   26283.90216571  .00016679  00000+0  33489-3 0  9997
2 12465  81.2326  30.4157 0016596 349.4663  10.6231 15.46383184471642
SL-3 R/B                
1 12904U 81103B   26283.90788979  .00005100  00000+0  21525-3 0  9990
2 12904  81.1579 320.5940 0011371 279.8921  80.1028 15.23046239  5989
SL-3 R/B                
1 13068U 82013B   26283.91181821  .00004858  00000+0  20166-3 0  9996
2 13068  81.1705 268.1512 0021974 168.7184 191.4546 15.23418208437104
SL-3 R/B                
1 13154U 82039B   26283.93867280  .00003069  00000+0  18053-3 0  9997
2 13154  81.1496 327.3418 0030067 331.2738  28.6830 15.10997228414130
SL-3 R/B                
1 13403U 82079B   26283.89744831  .00005093  00000+0  19171-3 0  9990
2 13403  81.1431 298.5253 0024302 153.1281 207.1218 15.26633839410515
SL-14 R/B               
1 13553U 82092B   26283.83090168  .00000331  00000+0  34265-4 0  9994
2 13553  82.5652 300.0931 0019041 310.2985 222.8202 14.86813602360899
SL-3 R/B                
1 13819U 83010B   26283.95775238  .00021187  00000+0  35035-3 0  9998
2 13819  81.0972  97.0836 0014349  13.0567 347.1049 15.51956251391277
SL-3 R/B                
1 14208U 83075B   26283.94161837  .00014676  00000+0  33894-3 0  9991
2 14208  97.6102 297.3566 0019952 171.4862 188.6727 15.42427386363299
COSMOS 1536             
1 14699U 84013A   26283.92699992  .00008751  00000+0  33698-3 0  9993
2 14699  82.5415 253.4653 0011827 240.3739 119.6322 15.26148391305429
SL-14 R/B               
1 14820U 84027B   26282.34303994  .00000281  00000+0  29254-4 0  9997
2 14820  82.5428  44.6352 0017584 350.7961   9.2930 14.86122521279368
SL-8 R/B                
1 15483U 85006B   26283.92996296  .00000217  00000+0  80351-4 0  9993
2 15483  74.0452 225.0610 0017095  86.4677 337.7252 14.37874056184963
SL-12 R/B(2)            
1 15772U 85042D   26283.97023238  .00000115  00000+0  72951-4 0  9990
2 15772  71.1104 352.8910 0033988 153.9080  18.2351 14.22025361144996
SL-14 R/B               
1 15945U 85069B   26283.47379265  .00000322  00000+0  33470-4 0  9993
2 15945  82.5296 182.9435 0018174 196.2674 163.7962 14.86582633204743
SL-16 R/B               
1 16182U 85097B   26283.63744749 -.00000260  00000+0 -10608-3 0  9999
2 16182  71.0039  48.0153 0009821 284.7814  86.2969 14.16622576117677
SL-14 R/B               
1 16496U 86006B   26283.65862680  .00000496  00000+0  49986-4 0  9996
2 16496  82.5267  57.4234 0074704 280.0416  79.2378 14.87028437181152
COSMOS 1743             
1 16719U 86034A   26283.24312516  .00104959  00000+0  56334-3 0  9991
2 16719  82.5256 205.3103 0004592 127.2223 232.9464 15.79931732213875
SL-14 R/B               
1 16792U 86046B   26283.92697148  .00000400  00000+0  43167-4 0  9994
2 16792  82.4812 236.8029 0021727 234.3766 125.5427 14.85737620158364
SL-14 R/B               
1 16882U 86055B   26283.98232323  .00000402  00000+0  43347-4 0  9992
2 16882  82.5168 284.2642 0018381 344.5551  74.7186 14.85788416151331
AJISAI (EGS)            
1 16908U 86061A   26283.92679205 -.00000067  00000+0  21751-3 0  9998
2 16908  50.0072 151.4988 0011416 114.3313 265.1047 12.44517603494808
SL-14 R/B               
1 17567U 87024B   26283.94947574  .00000415  00000+0  44317-4 0  9999
2 17567  82.5260 250.4350 0016594 267.7466  92.1851 14.86279522120109
COSMOS 1833             
1 17589U 87027A   26283.91970588 -.00000140  00000+0 -49240-4 0  9991
2 17589  70.9146 233.6055 0025897 241.4294 118.4221 14.13038658 40721
SL-16 R/B               
1 17590U 87027B   26283.97361912  .00000225  00000+0  13529-3 0  9996
2 17590  71.0030 182.8311 0004495 179.7379 180.3748 14.17186246 45846
SL-14 R/B               
1 17912U 87038B   26283.92080281  .00000411  00000+0  44702-4 0  9993
2 17912  82.4979  94.0511 0019439 168.7796 191.3858 14.85508426111181
COSMOS 1844             
1 17973U 87041A   26283.29916013  .00000387  00000+0  22580-3 0  9996
2 17973  70.8987 301.4961 0028920  57.7782 302.6138 14.14589943 33938
SL-14 R/B               
1 18153U 87055B   26283.85972074  .00000347  00000+0  37035-4 0  9991
2 18153  82.4990 146.1977 0021266  25.8519 334.3755 14.85771605101886
COSMOS 1867             
1 18187U 87060A   26283.68277581 -.00000057  00000+0  16188-4 0  9991
2 18187  65.0105  64.6011 0019007 280.0170  79.8770 14.31525880 50715
SL-14 R/B               
1 18749U 88001B   26283.93689482  .00000384  00000+0  41448-4 0  9995
2 18749  82.5161 352.8611 0016645 244.3260 115.6237 14.85672630 73987
COSMOS 1933             
1 18958U 88020A   26283.57888620  .00003382  00000+0  15859-3 0  9990
2 18958  82.5149  38.0838 0004527 153.7844 206.3620 15.19341786 82848
SL-3 R/B                
1 19046U 88032B   26283.94640811  .00005096  00000+0  22707-3 0  9995
2 19046  97.5389 267.0212 0024376 198.7048 161.3294 15.21625781 84828
SL-16 R/B               
1 19120U 88039B   26283.88963899  .00000174  00000+0  10465-3 0  9992
2 19120  71.0160 333.5033 0021642   3.4835 356.6437 14.19639808988927
COSMOS 1953             
1 19210U 88050A   26283.79338575  .00006778  00000+0  22245-3 0  9997
2 19210  82.5044 301.3340 0012275  85.3674 274.8969 15.31333766 70675
SL-8 R/B                
1 19257U 88053B   26283.67956861  .00000267  00000+0  94837-4 0  9996
2 19257  74.0461  76.1567 0020484 206.0727 164.9093 14.39006431  7417
COSMOS 1975             
1 19573U 88093A   26283.91661393  .00009672  00000+0  32520-3 0  9990
2 19573  82.5154 261.1740 0012727 123.8537 236.3917 15.30588185 52306
SL-14 R/B               
1 19574U 88093B   26283.52372598  .00000347  00000+0  36920-4 0  9993
2 19574  82.5337 200.3602 0021853  49.8592 122.8803 14.85803373 32916
SL-16 R/B               
1 19650U 88102B   26283.63325473  .00000271  00000+0  16110-3 0  9995
2 19650  70.9995  59.2222 0012860  36.0306 324.1681 14.16175415957325
INTERCOSMOS 24          
1 20261U 89080A   26283.41867435  .00000533  00000+0  14919-3 0  9992
2 20261  82.6061 324.6434 1187700 154.3661 212.1586 12.59753300693831
SL-14 R/B               
1 20262U 89080C   26283.61083972  .00000143  00000+0  34444-4 0  9994
2 20262  82.5964  35.1461 1230385  53.4944 317.3251 12.50612275687014
DELTA 1 R/B             
1 20323U 89089B   26283.95280174  .00000404  00000+0  10814-3 0  9995
2 20323  97.0668  97.0222 0069418 160.8687 199.5143 14.50789893926940
ARIANE 40 R/B           
1 20443U 90005H   26283.87978946  .00000189  00000+0  73390-4 0  9999
2 20443  98.2827 337.8216 0008903 277.4960  82.5217 14.39971488923773
DELTA 2 R/B(1)          
1 20453U 90008B   26283.86033053  .08559283  20998-5  40088-3 0  9996
2 20453  35.5838 163.4141 0005069 244.1144 115.9097 16.43079013960065
COSMOS 2058             
1 20465U 90010A   26283.86106507  .00003585  00000+0  20385-3 0  9992
2 20465  82.4696 195.2327 0008485 323.6232  36.4421 15.12567127974758
SL-14 R/B               
1 20466U 90010B   26283.89788149  .00000376  00000+0  42531-4 0  9997
2 20466  82.5011  65.2534 0018616 313.5466  46.4202 14.83704400960398
SL-14 R/B               
1 20511U 90018B   26283.24540253  .00000310  00000+0  35777-4 0  9999
2 20511  82.5247  22.5358 0017485 105.1398 255.1752 14.82276432954369
HST                     
1 20580U 90037B   26283.95144126  .00008494  00000+0  26031-3 0  9996
2 20580  28.4737   8.6621 0001735  14.6522 345.4124 15.31895111806335
SL-16 R/B               
1 20625U 90046B   26283.95203188  .00000077  00000+0  64173-4 0  9999
2 20625  70.9999 205.8104 0015370 329.3577  30.6647 14.15039500878841
COSMOS 2084             
1 20663U 90055A   26283.23955659  .00001551  00000+0  11784-3 0  9996
2 20663  62.7893 323.2755 0021275 354.4531   5.6331 15.06505004968639
SL-6 R/B(2)             
1 20666U 90055D   26283.25791707  .00002008  00000+0  15276-3 0  9991
2 20666  62.7816 243.6815 0058503  19.5795 340.7532 15.04350279970464
SL-8 R/B                
1 20775U 90078B   26283.65309152  .00013395  00000+0  36634-3 0  9992
2 20775  82.9008  56.9911 0338084   6.8754 353.6931 14.95492422841361
SL-8 R/B                
1 21088U 91006B   26283.54364053  .00000067  00000+0  51988-4 0  9993
2 21088  82.9468  10.1983 0023216 150.4192 220.6273 13.77525448793654
OKEAN-3                 
1 21397U 91039A   26283.31881098  .00002458  00000+0  16766-3 0  9990
2 21397  82.5142 128.7136 0013557 324.0970  35.9345 15.05746266897320
COSMOS 2151             
1 21422U 91042A   26283.95470006  .00001985  00000+0  15441-3 0  9999
2 21422  82.4958 235.9318 0013713  55.7066 304.5454 15.00697707895474
SL-14 R/B               
1 21423U 91042B   26283.54651348  .00000299  00000+0  34743-4 0  9999
2 21423  82.4965  18.6893 0015558 253.5204 106.4301 14.81957460884895
ERS-1                   
1 21574U 91050A   26283.96187574  .00000288  00000+0  10656-3 0  9990
2 21574  98.7751 307.4687 0030830 283.8675  75.9082 14.39577108846707
ARIANE 40 R/B           
1 21610U 91050F   26283.84895161  .00000268  00000+0  92490-4 0  9991
2 21610  98.1750 327.6905 0004067 128.6050 231.5506 14.43011659850024
INTERCOSMOS 25          
1 21819U 91086A   26283.98794409  .00002285  00000+0  44348-3 0  9998
2 21819  82.6077 179.7766 1485206  12.6337 350.8033 12.12412541522772
SL-8 R/B                
1 21876U 92008B   26283.97265876 -.00000023  00000+0 -39092-4 0  9997
2 21876  82.9228 107.7007 0033496 252.8364 218.1652 13.75991613739025
SL-8 R/B                
1 21938U 92020B   26283.94988641  .00000055  00000+0  41480-4 0  9996
2 21938  82.9344 353.8662 0030157  58.6163 114.7561 13.75561881730722
USA 81                  
1 21949U 92023A   26283.95577280  .00000158  00000+0  50889-4 0  9992
2 21949  85.0125   7.1834 0002682  85.6085 274.5415 14.32422880125607
COSMOS 2219             
1 22219U 92076A   26283.77514078  .00000237  00000+0  14877-3 0  9991
2 22219  71.0582 288.4315 0019846 234.8779 125.0484 14.14109166748781
SL-16 R/B               
1 22220U 92076B   26283.73159006  .00000249  00000+0  14790-3 0  9992
2 22220  70.9981  95.3807 0011091 133.9849 237.7011 14.16884397752292
COSMOS 2221             
1 22236U 92080A   26283.66732937  .00001509  00000+0  12937-3 0  9997
2 22236  82.5016  73.0878 0014004 183.8816 176.2301 14.96797988812948
SL-16 R/B               
1 22285U 92093B   26283.71583244  .00000261  00000+0  15794-3 0  9994
2 22285  71.0203 272.8549 0005629 316.9920  43.0762 14.15476903743582
COSMOS 2228             
1 22286U 92094A   26283.86720361  .00001923  00000+0  16078-3 0  9997
2 22286  82.5203  31.1877 0016311 299.2257  60.7334 14.97893649808264
SL-16 R/B               
1 22566U 93016B   26283.92020588 -.00000187  00000+0 -71294-4 0  9999
2 22566  71.0057 123.1308 0010876 342.8571  17.2182 14.15323256732626
COSMOS 2242             
1 22626U 93024A   26283.94705534  .00001811  00000+0  15418-3 0  9996
2 22626  82.5178  60.7472 0014838 303.6608  56.3198 14.97186432812599
SL-16 R/B               
1 22803U 93059B   26283.67654063  .00000163  00000+0  10411-3 0  9998
2 22803  70.9885 277.7479 0019236 245.8997 114.0115 14.17258963709995
ARIANE 40 R/B           
1 22830U 93061H   26283.42045317  .00000118  00000+0  58835-4 0  9993
2 22830  98.4698 347.8131 0010824  14.6301 345.5195 14.32943670724855
COSMOS 2278             
1 23087U 94023A   26283.73672489 -.00000272  00000+0 -11735-3 0  9997
2 23087  71.0518  85.1635 0006914  48.4417 311.7298 14.14409228675217
SL-16 R/B               
1 23088U 94023B   26283.89910977  .00000241  00000+0  14914-3 0  9998
2 23088  71.0020 338.9227 0004899 306.6939  53.3733 14.15035754676539
SL-16 R/B               
1 23343U 94074B   26283.81525074  .00000321  00000+0  49480-4 0  9996
2 23343  97.6932 305.6885 0005352 232.6360 300.3637 14.79580368719050
SL-16 R/B               
1 23405U 94077B   26283.93820185 -.00000307  00000+0 -13257-3 0  9990
2 23405  70.9812 259.6337 0004102 234.3653 125.7088 14.15583565646696
ARIANE 40+ R/B          
1 23561U 95021B   26283.98768343  .00000283  00000+0  10383-3 0  9993
2 23561  98.4301 352.3242 0006219 207.4428 325.8476 14.39883669650227
SL-16 R/B               
1 23705U 95058B   26283.74352273 -.00000268  00000+0 -11285-3 0  9995
2 23705  71.0194  88.7423 0011567 161.7739 198.3801 14.15517406598283
SL-16 R/B               
1 24298U 96051B   26283.67812603  .00000057  00000+0  57540-4 0  9996
2 24298  70.7674  80.2629 0017494 188.9332 171.1479 14.12487691552009
ORBVIEW 2 (SEASTAR)     
1 24883U 97037A   26283.92774571  .00000200  00000+0  85621-4 0  9991
2 24883  98.8793  94.2439 0002902 129.8198 230.3243 14.35600264539356
SL-16 R/B               
1 25400U 98043G   26283.63919433  .00000008  00000+0  22241-4 0  9996
2 25400  98.8518 238.8658 0010844 109.2272 251.0081 14.26083973469629
SL-16 R/B               
1 25407U 98045B   26283.71952302  .00000264  00000+0  15739-3 0  9993
2 25407  71.0092  89.3602 0005757  45.4596 314.6997 14.16213659457546
ISS (ZARYA)             
1 25544U 98067A   26283.78925095  .00010839  00000+0  20582-3 0  9996
2 25544  51.6307  88.0087 0006720 246.7167 113.3114 15.48817123589672
CZ-4B R/B               
1 25732U 99025C   26283.97694161  .00000023  00000+0  31618-4 0  9995
2 25732  98.6366 322.8363 0038191  85.6233 337.8825 14.18298190418681
OKEAN-O                 
1 25860U 99039A   26283.91757401  .00000527  00000+0  75505-4 0  9995
2 25860  97.9180 341.3083 0001453  70.4075 289.7294 14.80573477466233
SL-16 R/B               
1 25861U 99039B   26283.89984320  .00000461  00000+0  64923-4 0  9994
2 25861  97.9702 342.3522 0013370 279.5717  80.3985 14.81936690468739
DELTA 2 R/B             
1 25876U 99041E   26283.95868924  .00000388  00000+0  10016-3 0  9992
2 25876  51.7641 161.1367 0499747 263.8935  90.4859 14.12269643393441
HELIOS 1B               
1 25977U 99064A   26283.49386025  .00001132  00000+0  12893-3 0  9998
2 25977  98.1510 191.9139 0002476  83.1562 276.9936 14.88247170717204
TERRA                   
1 25994U 99068A   26283.96656343  .00000350  00000+0  80115-4 0  9990
2 25994  97.9324 328.8481 0001688 187.3231 293.5243 14.61173793426515
SL-16 R/B               
1 26070U 00006B   26283.93182084 -.00000126  00000+0 -39606-4 0  9995
2 26070  71.0047   5.2494 0017962 220.1587 139.8210 14.15845388379022
TITAN 4B R/B            
1 26474U 00047B   26283.94260879  .00002989  00000+0  18498-3 0  9990
2 26474  67.9878 154.6112 0039327 165.9803 194.2449 15.10705281425415
ENVISAT                 
1 27386U 02009A   26283.61979657  .00000060  00000+0  33440-4 0  9991
2 27386  98.3971 232.4297 0001315  88.7236  84.1192 14.39086697290085
IDEFIX & ARIANE 42P R/B 
1 27422U 02021B   26283.91052147  .00000189  00000+0  88254-4 0  9990
2 27422  98.6018 220.1698 0010653 275.7144  84.2824 14.31125655274806
AQUA                    
1 27424U 02022A   26283.91315328  .00000747  00000+0  15800-3 0  9992
2 27424  98.4438 255.5996 0000943  66.0475  18.8677 14.62230753300184
CZ-4B R/B               
1 27432U 02024C   26283.90943373  .00000025  00000+0  35441-4 0  9992
2 27432  98.8565 335.9031 0050949 130.7989  41.5997 14.14578069259667
MIDORI II (ADEOS-II)    
1 27597U 02056A   26283.91860322  .00000217  00000+0  10300-3 0  9991
2 27597  98.8038 244.2440 0002142  86.7312 273.4114 14.29399040241048
H-2A R/B                
1 27601U 02056E   26283.66353637  .00000185  00000+0  79477-4 0  9990
2 27601  98.3465 236.2044 0068968 240.9075 292.6775 14.33872840244916
CZ-4B R/B               
1 28059U 03049C   26283.95818533  .00000324  00000+0  85788-4 0  9991
2 28059  98.6960 287.4567 0047029 295.4384  64.1949 14.55166056217901
SL-16 R/B               
1 28353U 04021B   26283.91628652  .00000123  00000+0  88701-4 0  9991
2 28353  70.9998 140.8151 0003083  57.4768 302.6652 14.14626013153276
CZ-4B R/B               
1 28415U 04035C   26283.33403050  .00006411  00000+0  20733-3 0  9990
2 28415  97.3275 315.1691 0028004 285.4262  74.3886 15.32038102212741
CZ-2C R/B               
1 28480U 04046B   26283.46115393  .00000062  00000+0  38641-4 0  9992
2 28480  98.1822 184.9620 0138188 239.3962 119.3530 14.27057191139133
ARIANE 5 R/B            
1 28499U 04049H   26283.91769575  .00000539  00000+0  65640-4 0  9990
2 28499  98.2791 100.7268 0083979  14.4140 345.9441 14.85583337177747
CZ-2D R/B               
1 28738U 05024B   26283.07809056  .00113719  00000+0  46154-3 0  9999
2 28738  97.3375 309.4774 0000696 131.3658 228.7673 15.85941751173446
ALOS (DAICHI)           
1 28931U 06002A   26282.63687541  .00000972  00000+0  16938-3 0  9998
2 28931  98.1470 237.9383 0001390  52.0022 308.1310 14.70261445104918
H-2A R/B                
1 28932U 06002B   26283.94251797  .00011261  00000+0  51852-3 0  9991
2 28932  98.2678  90.4811 0048414 226.6551 133.0643 15.19443698127096
RESURS-DK 1             
1 29228U 06021A   26282.77605081  .00001672  00000+0  98997-4 0  9997
2 29228  69.9327  42.8389 0002869 180.4866 179.6299 15.13585662119919
CZ-4B R/B               
1 29507U 06046C   26283.39803322  .00003485  00000+0  17021-3 0  9993
2 29507  97.5329 327.6300 0030656 240.4574 119.3603 15.18535710 92614
CZ-2C R/B               
1 31114U 07010B   26283.52476803  .00000063  00000+0  47721-4 0  9997
2 31114  98.4163  26.2695 0059484  30.6940 329.7695 14.20298565 10201
COSMO-SKYMED 1          
1 31598U 07023A   26283.94611560  .00002768  00000+0  24243-3 0  9991
2 31598  97.8799 116.8113 0001345  97.4676 262.6698 14.97528056 47119
COSMOS 2428             
1 31792U 07029A   26283.82197095 -.00000168  00000+0 -64494-4 0  9999
2 31792  70.9407 111.7247 0012405 295.5044  64.4794 14.12975083994483
SL-16 R/B               
1 31793U 07029B   26283.69326297  .00000391  00000+0  22716-3 0  9999
2 31793  70.9741  80.4167 0001966 280.4349  90.4250 14.14865318995780
KORONAS-FOTON           
1 33504U 09003A   26283.61117091  .00014225  00000+0  27036-3 0  9998
2 33504  82.4294  51.6144 0010797  97.2585 262.9893 15.48048780978948
CZ-2C R/B               
1 37731U 11030B   26283.61781096  .00001104  00000+0  14390-3 0  9990
2 37731  97.8804 237.0150 0052479  12.3373 160.8336 14.81664993821912
H-2A R/B                
1 38341U 12025E   26283.94069434  .00002367  00000+0  21263-3 0  9993
2 38341  98.4965 268.7533 0043113 329.6278  30.2444 14.96148759780393
SHIJIAN-16 (SJ-16)      
1 39358U 13057A   26283.91946985  .00000359  00000+0  37507-4 0  9998
2 39358  74.9717 137.4563 0016509 306.6250  53.3419 14.92821017703614
SL-4 R/B                
1 39679U 14021B   26283.92098780  .00019950  00000+0  37599-3 0  9995
2 39679  51.6062   2.7938 0085412 170.6833 189.5762 15.44532833689484
ALOS-2                  
1 39766U 14029A   26283.92661287  .00000697  00000+0  10022-3 0  9998
2 39766  97.9237  19.4320 0001540  90.4151 269.7238 14.79474645668692
YAOGAN-29               
1 41038U 15069A   26283.95000394 -.00000358  00000+0 -37332-4 0  9997
2 41038  97.9961 312.7270 0002272  46.4670 313.6732 14.83155161587786
ASTRO-H (HITOMI)        
1 41337U 16012A   26283.65732282  .00002147  00000+0  11991-3 0  9991
2 41337  30.9994  48.1746 0009522 335.9741  24.0452 15.10952372584766
HXMT (HUIYAN)           
1 42758U 17034A   26283.93839292  .00005798  00000+0  27740-3 0  9998
2 42758  43.0143 258.0836 0030985 162.5596 197.6323 15.19315373515262
SAOCOM 1A               
1 43641U 18076A   26283.91666639  .00000010  00000+0  78490-5 0  9990
2 43641  97.8877 109.0069 0001491  82.1240 278.0142 14.82158083433243
H-2A R/B                
1 43682U 18084L   26283.24447885  .00025592  00000+0  46368-3 0  9999
2 43682  98.8404 187.5777 0020418 358.5439   1.5744 15.49409107438918
SAOCOM 1B               
1 46265U 20059A   26283.94790190  .00000811  00000+0  10839-3 0  9992
2 46265  97.8875 108.1391 0001476  86.5394 273.5988 14.82159919330631
CSS (TIANHE)            
1 48274U 21035A   26283.82865320  .00028340  00000+0  33640-3 0  9996
2 48274  41.4700 339.6647 0000756  15.6585 344.4277 15.60550432311220
COSMOS 2550             
1 48865U 21056A   26283.70230991  .00000152  00000+0  10443-4 0  9990
2 48865  67.1404 110.4724 0008375 269.3827  90.6367 15.33829287296437
CZ-2C R/B               
1 52794U 22058K   26283.21680452  .00076125  00000+0  57971-3 0  9995
2 52794  50.1817 281.1488 0028522  38.4669 321.8334 15.70975692243675
CZ-2C R/B               
1 54039U 22132E   26283.95153526  .00244303  23918-4  79413-3 0  9998
2 54039  97.2820 297.5606 0006521  21.1823 338.9719 15.90693061224229
GSLV R/B                
1 54149U 22138AN  26283.92389932  .00002053  00000+0  17202-3 0  9999
2 54149  87.3726  94.0518 0023660  88.3391 272.0550 14.97658259216134
XRISM                   
1 57800U 23137A   26283.58359374  .00004290  00000+0  22974-3 0  9992
2 57800  31.0033 331.6211 0007461  50.1496 309.9799 15.13276486170357
ACS3                    
1 59588U 24077B   26283.42336148  .00016094  00000+0  11188-1 0  9996
2 59588  97.2447 177.2322 0045073 356.9637   3.1251 13.98270251124122
SPACEMOBILE-003         
1 61045U 24163A   26283.82857125 -.00000113  00000+0  96910-5 0  9996
2 61045  52.9731 137.7777 0007355 100.9557 259.2265 15.20407697115369
SPACEMOBILE-005         
1 61046U 24163B   26282.62986978  .00005469  00000+0  26180-3 0  9991
2 61046  52.9772 143.2970 0010835  92.2757 267.9478 15.20449049115172
SPACEMOBILE-001         
1 61047U 24163C   26282.62868136  .00000737  00000+0  48192-4 0  9998
2 61047  52.9724 142.9704 0008732  96.7117 263.4871 15.20432396115178
SPACEMOBILE-002         
1 61048U 24163D   26282.02152316  .00016480  00000+0  75868-3 0  9990
2 61048  52.9715 145.8472 0007711  95.3082 264.8792 15.20431424115083
SPACEMOBILE-004         
1 61049U 24163E   26283.31814077  .00003697  00000+0  18210-3 0  9997
2 61049  52.9684 139.6384 0008953 125.9064 234.2762 15.20404692115288
CZ-8A R/B               
1 66004U 25231K   26283.69326903  .00000022  00000+0  66143-4 0  9995
2 66004  50.0038 267.8769 0116815 271.0332  87.7202 14.30190272 51471
SZ-21 MODULE            
1 66515U 25246C   26283.36277567  .00108733  00000+0  36398-3 0  9999
2 66515  41.4695 304.0464 0010215 136.8038 223.3614 15.88951015 51980
SPACEMOBILE-006         
1 67232U 25309A   26283.92645602  .00002482  00000+0  13226-3 0  9996
2 67232  52.9936 161.3177 0012033 125.8962 234.3151 15.18990622 44183
SPACEMOBILE-008         
1 69589U 26139A   26283.74854075  .00001316  00000+0  90414-4 0  9991
2 69589  52.9945  97.8268 0002817 340.2590  19.8292 15.13043336 17473
SPACEMOBILE-009         
1 69590U 26139B   26283.75655371  .00001535  00000+0  10295-3 0  9993
2 69590  52.9936  97.8628 0002917 331.6926  28.3907 15.12938934 17477
SPACEMOBILE-010         
1 69591U 26139C   26282.77736348  .00001485  00000+0  10049-3 0  9990
2 69591  52.9937 102.4406 0002814 313.6989  46.3768 15.12795922 17339
